{"version": 0.6, "generator": "Overpass API 0.7.62.8 e802775f", "osm3s": {"timestamp_osm_base": "2026-01-12T22:41:01Z", "copyright": "The data included in this document is from www.openstreetmap.org. The data is made available under ODbL."}, "elements": [{"type": "node", "id": 2369954478, "lat": 35.2391431, "lon": -80.8446006}, {"type": "node", "id": 2369971511, "lat": 35.2393714, "lon": -80.8448213, "tags": {"amenity": "nightclub", "name": "The Comedy Zone"}}, {"type": "node", "id": 2369972029, "lat": 35.2393237, "lon": -80.8451329, "tags": {"amenity": "nightclub", "name": "AvidXchange Music Factory"}}, {"type": "node", "id": 3299800255, "lat": 35.2199088, "lon": -80.8042656}, {"type": "node", "id": 3299800282, "lat": 35.2199239, "lon": -80.8044028}, {"type": "node", "id": 3299800392, "lat": 35.2199913, "lon": -80.8042498}, {"type": "node", "id": 3299800431, "lat": 35.2200106, "lon": -80.8042779}, {"type": "node", "id": 3299800444, "lat": 35.2200174, "lon": -80.804327}, {"type": "node", "id": 3299800510, "lat": 35.2200527, "lon": -80.8043232}, {"type": "node", "id": 3299800579, "lat": 35.2200864, "lon": -80.8043759}, {"type": "node", "id": 4159369560, "lat": 35.2396044, "lon": -80.8452358}, {"type": "node", "id": 4159369561, "lat": 35.2396148, "lon": -80.8450316}, {"type": "node", "id": 4159369562, "lat": 35.2392146, "lon": -80.8450034}, {"type": "node", "id": 4159369563, "lat": 35.2392179, "lon": -80.8448706}, {"type": "node", "id": 4159369564, "lat": 35.2391336, "lon": -80.8448661}, {"type": "node", "id": 4159369565, "lat": 35.2391347, "lon": -80.8448334}, {"type": "node", "id": 4159369572, "lat": 35.2389277, "lon": -80.8445885}, {"type": "node", "id": 4159369573, "lat": 35.2389061, "lon": -80.8451497}, {"type": "node", "id": 4159369574, "lat": 35.2390345, "lon": -80.8451943}, {"type": "node", "id": 4159369575, "lat": 35.2393524, "lon": -80.8452397}, {"type": "node", "id": 4159370906, "lat": 35.2394698, "lon": -80.8452325}, {"type": "node", "id": 4348002340, "lat": 35.2023398, "lon": -80.8712}, {"type": "node", "id": 4348002341, "lat": 35.2020766, "lon": -80.8713353}, {"type": "node", "id": 4348002342, "lat": 35.201972, "lon": -80.8711653}, {"type": "node", "id": 4348002343, "lat": 35.2021931, "lon": -80.8709602}, {"type": "node", "id": 4780170514, "lat": 35.2199006, "lon": -80.8577611}, {"type": "node", "id": 4780170516, "lat": 35.2201225, "lon": -80.858077}, {"type": "node", "id": 4780172621, "lat": 35.2202909, "lon": -80.8579078}, {"type": "node", "id": 11053830790, "lat": 35.2021588, "lon": -80.8713679}, {"type": "node", "id": 11053830791, "lat": 35.2021167, "lon": -80.8713002}, {"type": "node", "id": 11053830792, "lat": 35.2020081, "lon": -80.8711319}, {"type": "node", "id": 11053830793, "lat": 35.2019654, "lon": -80.8710578}, {"type": "node", "id": 11053830794, "lat": 35.2021802, "lon": -80.8709721}, {"type": "node", "id": 11053830795, "lat": 35.2021244, "lon": -80.8708833}, {"type": "node", "id": 11053830796, "lat": 35.20203, "lon": -80.8709698}, {"type": "node", "id": 11147304494, "lat": 35.238913, "lon": -80.8448178}, {"type": "node", "id": 11147304508, "lat": 35.2390454, "lon": -80.8445953}, {"type": "node", "id": 11147304525, "lat": 35.2390632, "lon": -80.8451984}, {"type": "node", "id": 11147304527, "lat": 35.2389105, "lon": -80.8448752}, {"type": "node", "id": 11147304528, "lat": 35.2388782, "lon": -80.8448714}, {"type": "node", "id": 11147304529, "lat": 35.2387749, "lon": -80.8449309}, {"type": "node", "id": 11147304530, "lat": 35.2389063, "lon": -80.84513}, {"type": "node", "id": 11147304531, "lat": 35.2388363, "lon": -80.8451028}, {"type": "node", "id": 11147304532, "lat": 35.2388373, "lon": -80.8450598}, {"type": "node", "id": 11147304533, "lat": 35.2388312, "lon": -80.8450557}, {"type": "node", "id": 11147304534, "lat": 35.2388097, "lon": -80.8450629}, {"type": "node", "id": 11981588984, "lat": 35.2108795, "lon": -80.862562, "tags": {"amenity": "nightclub", "name": "Broken Promises"}}, {"type": "node", "id": 12461596803, "lat": 35.2202157, "lon": -80.8579869}, {"type": "node", "id": 12461596804, "lat": 35.2200653, "lon": -80.8575863}, {"type": "node", "id": 12461596811, "lat": 35.2203117, "lon": -80.8581237}, {"type": "node", "id": 12461596812, "lat": 35.2200992, "lon": -80.8583473}, {"type": "node", "id": 12461596813, "lat": 35.2199999, "lon": -80.8582059}, {"type": "node", "id": 12950066398, "lat": 35.220075, "lon": -80.8580094}, {"type": "node", "id": 12950066416, "lat": 35.2199334, "lon": -80.8578078}, {"type": "node", "id": 13086980201, "lat": 35.2320775, "lon": -80.8484573, "tags": {"addr:housenumber": "710", "addr:postcode": "28202", "addr:street": "West Trade Street", "amenity": "nightclub", "contact:facebook": "TabooCharlotte", "contact:instagram": "tabooloungecharlotte", "name": "Taboo Lounge & Hookah Bar", "opening_hours": "Mo-Fr 17:00-02:00; Sa-Su 02:00-14:00", "phone": "+1-980-859-1078", "website": "https://tabooloungeclt.com"}}, {"type": "node", "id": 13086983901, "lat": 35.2320775, "lon": -80.8484573, "tags": {"addr:housenumber": "710", "addr:postcode": "28202", "addr:street": "West Trade Street", "amenity": "nightclub", "contact:facebook": "TabooCharlotte", "contact:instagram": "tabooloungecharlotte", "name": "Taboo Lounge & Hookah Bar", "opening_hours": "Mo-Fr 17:00-02:00; Sa-Su 02:00-14:00", "phone": "+1-980-859-1078", "website": "https://tabooloungeclt.com"}}, {"type": "node", "id": 13174801087, "lat": 35.2253157, "lon": -80.837249, "tags": {"amenity": "nightclub", "name": "Brooklyn Lounge"}}, {"type": "node", "id": 13181484882, "lat": 35.2418007, "lon": -80.8126236, "tags": {"amenity": "nightclub", "name": "Medusa Lounge"}}, {"type": "way", "id": 323200215, "nodes": [3299800255, 3299800282, 3299800579, 3299800510, 3299800444, 3299800431, 3299800392, 3299800255], "tags": {"addr:city": "Charlotte", "addr:housenumber": "2131", "addr:postcode": "28205", "addr:state": "NC", "addr:street": "Central Avenue", "amenity": "nightclub", "building": "yes", "name": "Skylark Social Club"}}, {"type": "way", "id": 436963163, "nodes": [4348002340, 11053830790, 11053830791, 4348002341, 4348002342, 11053830792, 11053830793, 11053830796, 11053830795, 11053830794, 4348002343, 4348002340], "tags": {"addr:city": "Charlotte", "addr:housenumber": "225", "addr:postcode": "28203", "addr:state": "NC", "addr:street": "Fairwood Avenue", "amenity": "nightclub", "building": "yes", "name": "RSVP South End", "website": "https://rsvpsouthend.com"}}, {"type": "way", "id": 957549179, "nodes": [4159369560, 4159369561, 4159369562, 4159369563, 4159369564, 4159369565, 2369954478, 11147304508, 4159369572, 11147304494, 11147304527, 11147304528, 11147304529, 11147304534, 11147304533, 11147304532, 11147304531, 11147304530, 4159369573, 4159369574, 11147304525, 4159369575, 4159370906, 4159369560], "tags": {"addr:city": "Charlotte", "addr:housenumber": "820", "addr:postcode": "28206", "addr:state": "NC", "addr:street": "Hamilton Street", "amenity": "nightclub", "building": "yes", "layer": "1", "name": "The Underground;The Fillmore"}}, {"type": "way", "id": 1347159989, "nodes": [4780170516, 12461596813, 12461596812, 12461596811, 12461596803, 4780172621, 12461596804, 4780170514, 12950066416, 12950066398, 4780170516], "tags": {"amenity": "nightclub", "building": "yes", "name": "Slingshot"}}]}