{"version": 0.6, "generator": "Overpass API 0.7.62.8 e802775f", "osm3s": {"timestamp_osm_base": "2026-01-12T22:55:25Z", "copyright": "The data included in this document is from www.openstreetmap.org. The data is made available under ODbL."}, "elements": [{"type": "node", "id": 607073457, "lat": 35.7692662, "lon": -78.741161}, {"type": "node", "id": 607073463, "lat": 35.769322, "lon": -78.7415174}, {"type": "node", "id": 607073465, "lat": 35.7695344, "lon": -78.7414658}, {"type": "node", "id": 607073470, "lat": 35.7694797, "lon": -78.7411106}, {"type": "node", "id": 607205366, "lat": 35.7876187, "lon": -78.6468097}, {"type": "node", "id": 607205376, "lat": 35.787624, "lon": -78.6470976}, {"type": "node", "id": 607205380, "lat": 35.7877064, "lon": -78.6470955}, {"type": "node", "id": 607474054, "lat": 35.7236393, "lon": -78.642321}, {"type": "node", "id": 607474056, "lat": 35.7236127, "lon": -78.6422718}, {"type": "node", "id": 607474058, "lat": 35.7236172, "lon": -78.6422682}, {"type": "node", "id": 607474060, "lat": 35.7235514, "lon": -78.6421464}, {"type": "node", "id": 607474062, "lat": 35.723557, "lon": -78.6421419}, {"type": "node", "id": 607474063, "lat": 35.7235157, "lon": -78.6420653}, {"type": "node", "id": 607474065, "lat": 35.7235093, "lon": -78.6420705}, {"type": "node", "id": 607474067, "lat": 35.7234956, "lon": -78.642045}, {"type": "node", "id": 607474069, "lat": 35.7234579, "lon": -78.6420756}, {"type": "node", "id": 607474071, "lat": 35.7234393, "lon": -78.6420411}, {"type": "node", "id": 607474073, "lat": 35.7233686, "lon": -78.6420984}, {"type": "node", "id": 607474075, "lat": 35.7233885, "lon": -78.6421353}, {"type": "node", "id": 607474078, "lat": 35.7233365, "lon": -78.6421775}, {"type": "node", "id": 607474080, "lat": 35.7233708, "lon": -78.6422412}, {"type": "node", "id": 607474081, "lat": 35.7233618, "lon": -78.6422485}, {"type": "node", "id": 607474090, "lat": 35.7234484, "lon": -78.6424091}, {"type": "node", "id": 607474094, "lat": 35.7235074, "lon": -78.642428}, {"type": "node", "id": 607500967, "lat": 35.7740824, "lon": -78.6372129}, {"type": "node", "id": 607500968, "lat": 35.7738744, "lon": -78.6372216}, {"type": "node", "id": 607500970, "lat": 35.7738782, "lon": -78.6373592}, {"type": "node", "id": 607500971, "lat": 35.7737146, "lon": -78.6373661}, {"type": "node", "id": 607500973, "lat": 35.7737158, "lon": -78.6374126}, {"type": "node", "id": 607500975, "lat": 35.7736785, "lon": -78.6374141}, {"type": "node", "id": 607500977, "lat": 35.7736797, "lon": -78.6374592}, {"type": "node", "id": 607500979, "lat": 35.7737193, "lon": -78.6374575}, {"type": "node", "id": 607500982, "lat": 35.7737205, "lon": -78.6375011}, {"type": "node", "id": 607500987, "lat": 35.77409, "lon": -78.6374856}, {"type": "node", "id": 607697138, "lat": 35.7857953, "lon": -78.6477864}, {"type": "node", "id": 607697142, "lat": 35.7858997, "lon": -78.6477806}, {"type": "node", "id": 607697143, "lat": 35.7858892, "lon": -78.6475121}, {"type": "node", "id": 608905169, "lat": 35.9036257, "lon": -78.7626791}, {"type": "node", "id": 609366467, "lat": 35.7967962, "lon": -78.5800688}, {"type": "node", "id": 609366468, "lat": 35.7966932, "lon": -78.5799689}, {"type": "node", "id": 609366469, "lat": 35.7967013, "lon": -78.5799565}, {"type": "node", "id": 609366470, "lat": 35.7966237, "lon": -78.5798813}, {"type": "node", "id": 609366471, "lat": 35.7966143, "lon": -78.5798958}, {"type": "node", "id": 609366473, "lat": 35.7965616, "lon": -78.5798448}, {"type": "node", "id": 609366475, "lat": 35.796548, "lon": -78.5798661}, {"type": "node", "id": 609366476, "lat": 35.7965348, "lon": -78.5798531}, {"type": "node", "id": 609366477, "lat": 35.7964774, "lon": -78.5799424}, {"type": "node", "id": 609366478, "lat": 35.7964908, "lon": -78.5799554}, {"type": "node", "id": 609366479, "lat": 35.7964806, "lon": -78.5799712}, {"type": "node", "id": 609366481, "lat": 35.7967144, "lon": -78.5801977}, {"type": "node", "id": 609622190, "lat": 35.7778096, "lon": -78.6772314}, {"type": "node", "id": 609622192, "lat": 35.7777252, "lon": -78.6770643}, {"type": "node", "id": 609622194, "lat": 35.7777261, "lon": -78.6770636}, {"type": "node", "id": 609622195, "lat": 35.77773, "lon": -78.6770607}, {"type": "node", "id": 609622197, "lat": 35.7777033, "lon": -78.6770078}, {"type": "node", "id": 609622199, "lat": 35.7776991, "lon": -78.677011}, {"type": "node", "id": 609622202, "lat": 35.7776789, "lon": -78.6770263}, {"type": "node", "id": 609622205, "lat": 35.7776901, "lon": -78.6770484}, {"type": "node", "id": 609622207, "lat": 35.7776135, "lon": -78.6771066}, {"type": "node", "id": 609622211, "lat": 35.7776091, "lon": -78.6770979}, {"type": "node", "id": 609622213, "lat": 35.7775274, "lon": -78.67716}, {"type": "node", "id": 609622215, "lat": 35.7775326, "lon": -78.6771703}, {"type": "node", "id": 609622216, "lat": 35.7775229, "lon": -78.6771777}, {"type": "node", "id": 609622217, "lat": 35.7775185, "lon": -78.677181}, {"type": "node", "id": 609622219, "lat": 35.7776178, "lon": -78.6773777}, {"type": "node", "id": 609622220, "lat": 35.7776338, "lon": -78.6773656}, {"type": "node", "id": 609622222, "lat": 35.7776425, "lon": -78.6773589}, {"type": "node", "id": 609622223, "lat": 35.7776704, "lon": -78.6773377}, {"type": "node", "id": 609622224, "lat": 35.7776863, "lon": -78.6773692}, {"type": "node", "id": 609622226, "lat": 35.777709, "lon": -78.6773531}, {"type": "node", "id": 609622227, "lat": 35.7777845, "lon": -78.6772957}, {"type": "node", "id": 609622229, "lat": 35.7777974, "lon": -78.6772407}, {"type": "node", "id": 609628129, "lat": 35.7902194, "lon": -78.677687}, {"type": "node", "id": 609628132, "lat": 35.790057, "lon": -78.6777423}, {"type": "node", "id": 609628142, "lat": 35.7901126, "lon": -78.6779882}, {"type": "node", "id": 609628149, "lat": 35.790148, "lon": -78.6779762}, {"type": "node", "id": 609628152, "lat": 35.7901455, "lon": -78.677966}, {"type": "node", "id": 609628155, "lat": 35.7903645, "lon": -78.6778914}, {"type": "node", "id": 609628159, "lat": 35.7903251, "lon": -78.6777175}, {"type": "node", "id": 609628165, "lat": 35.7902602, "lon": -78.6777395}, {"type": "node", "id": 609628168, "lat": 35.7902507, "lon": -78.6776969}, {"type": "node", "id": 609628174, "lat": 35.7902238, "lon": -78.677706}, {"type": "node", "id": 609893569, "lat": 35.8142516, "lon": -78.6247191}, {"type": "node", "id": 609893570, "lat": 35.8140978, "lon": -78.6247409}, {"type": "node", "id": 609893571, "lat": 35.8141128, "lon": -78.6249119}, {"type": "node", "id": 609893572, "lat": 35.8142695, "lon": -78.6248887}, {"type": "node", "id": 609893573, "lat": 35.8142726, "lon": -78.6248883}, {"type": "node", "id": 609893574, "lat": 35.8142577, "lon": -78.6247183}, {"type": "node", "id": 609893804, "lat": 35.8144473, "lon": -78.6245457}, {"type": "node", "id": 609893806, "lat": 35.8142551, "lon": -78.6246074}, {"type": "node", "id": 609893809, "lat": 35.8142975, "lon": -78.6248067}, {"type": "node", "id": 609893811, "lat": 35.8143327, "lon": -78.6247953}, {"type": "node", "id": 609893814, "lat": 35.8144897, "lon": -78.6247449}, {"type": "node", "id": 821100098, "lat": 35.788513, "lon": -78.646707, "tags": {"addr:city": "Raleigh", "addr:country": "US", "addr:housenumber": "517", "addr:postcode": "27603", "addr:state": "NC", "addr:street": "West Peace Street", "amenity": "bar", "name": "The Black Flower", "phone": "+1-919-900-8147", "website": "http://blackflowerbar.com/"}}, {"type": "node", "id": 1216186221, "lat": 35.7877011, "lon": -78.6468076}, {"type": "node", "id": 1216186257, "lat": 35.7859829, "lon": -78.6480496, "tags": {"amenity": "bar", "name": "Lucky B Sports Pub"}}, {"type": "node", "id": 1216186268, "lat": 35.7876496, "lon": -78.6474541, "tags": {"amenity": "bar", "name": "Cornerstone Tavern"}}, {"type": "node", "id": 1216186293, "lat": 35.7857854, "lon": -78.6475179}, {"type": "node", "id": 1216186321, "lat": 35.7861137, "lon": -78.6477009, "tags": {"addr:city": "Raleigh", "addr:housenumber": "437", "addr:postcode": "27603", "addr:state": "NC", "addr:street": "Glenwood Avenue", "amenity": "bar", "name": "Havana Deluxe"}}, {"type": "node", "id": 1216186338, "lat": 35.7820663, "lon": -78.6473415, "tags": {"addr:city": "Raleigh", "addr:housenumber": "106", "addr:postcode": "27603", "addr:state": "NC", "addr:street": "Glenwood Avenue", "amenity": "bar", "construction": "bar", "name": "Super Rad Retro Lounge"}}, {"type": "node", "id": 1216186364, "lat": 35.7826714, "lon": -78.6471162, "tags": {"amenity": "bar", "name": "Mosaic"}}, {"type": "node", "id": 1216186450, "lat": 35.781122, "lon": -78.6478028, "tags": {"amenity": "bar", "name": "Eden Lounge"}}, {"type": "node", "id": 1216186460, "lat": 35.7878021, "lon": -78.6474541, "tags": {"amenity": "bar", "name": "Cornerstone Tavern"}}, {"type": "node", "id": 1216186471, "lat": 35.7821751, "lon": -78.6456302, "tags": {"amenity": "bar", "name": "Vintage Bar & Lounge"}}, {"type": "node", "id": 1908835462, "lat": 35.777768, "lon": -78.6772631}, {"type": "node", "id": 2198232018, "lat": 35.7780237, "lon": -78.6385806}, {"type": "node", "id": 2198232019, "lat": 35.7779392, "lon": -78.6386707}, {"type": "node", "id": 2198232027, "lat": 35.7780586, "lon": -78.6386646}, {"type": "node", "id": 2198232029, "lat": 35.7780599, "lon": -78.638704}, {"type": "node", "id": 2198232037, "lat": 35.7781533, "lon": -78.6385741}, {"type": "node", "id": 2198232038, "lat": 35.7781575, "lon": -78.638699}, {"type": "node", "id": 2921397007, "lat": 35.7853813, "lon": -78.6475832, "tags": {"addr:country": "US", "addr:housenumber": "407", "addr:postcode": "27603", "addr:state": "NC", "addr:street": "Glenwood Avenue", "amenity": "bar", "name": "C. Grace", "opening_hours": "Tu-Sa 17:00-02:00, Su 17:00-24:00", "phone": "+1 919 8993675", "website": "https://www.cgracebar.com/"}}, {"type": "node", "id": 2921397011, "lat": 35.7853414, "lon": -78.6475854, "tags": {"addr:country": "US", "addr:housenumber": "403", "addr:postcode": "27603", "addr:state": "NC", "addr:street": "Glenwood Avenue", "amenity": "bar", "name": "Empress Room"}}, {"type": "node", "id": 3248743368, "lat": 35.7779364, "lon": -78.638585}, {"type": "node", "id": 3360555927, "lat": 35.7779685, "lon": -78.6390376, "tags": {"addr:city": "Raleigh", "addr:housenumber": "207", "addr:postcode": "27601", "addr:state": "NC", "addr:street": "Fayetteville Street", "amenity": "bar", "name": "The Anchor Bar", "phone": "+1-919-376-5877"}}, {"type": "node", "id": 3595466492, "lat": 35.7860868, "lon": -78.711982, "tags": {"amenity": "bar", "name": "The Goat Bar", "opening_hours": "Su-Sa 16:00-02:00", "phone": "+1-919-233-4143", "smoking": "outside"}}, {"type": "node", "id": 3691453629, "lat": 35.7875248, "lon": -78.6474697, "tags": {"amenity": "bar", "name": "Cornerstone Tavern"}}, {"type": "node", "id": 4167502533, "lat": 35.7759344, "lon": -78.645014, "tags": {"addr:city": "Raleigh", "addr:housenumber": "330", "addr:state": "NC", "addr:street": "West Davie Street", "amenity": "bar", "name": "Boxcar Bar and Arcade", "website": "https://theboxcarbar.com/"}}, {"type": "node", "id": 4507482546, "lat": 35.7734865, "lon": -78.6389169, "tags": {"addr:city": "Raleigh", "addr:country": "US", "addr:housenumber": "555", "addr:place": "Charter Square Plaza", "addr:postcode": "27601", "addr:state": "NC", "addr:street": "Fayetteville Street", "addr:unit": "115", "amenity": "bar", "name": "The Haymaker", "website": "https://www.thehaymakerraleigh.com/"}}, {"type": "node", "id": 4574425453, "lat": 35.9035323, "lon": -78.7626844}, {"type": "node", "id": 4574425454, "lat": 35.9035354, "lon": -78.7627669}, {"type": "node", "id": 4574425455, "lat": 35.9036287, "lon": -78.7627616}, {"type": "node", "id": 4621518141, "lat": 35.8076693, "lon": -78.6252839, "tags": {"addr:city": "Raleigh", "addr:housenumber": "815", "addr:postcode": "27608", "addr:state": "NC", "addr:street": "East Whitaker Mill Road", "amenity": "bar", "name": "Bison Bar", "opening_hours": "Mo-Su 16:00-02:00", "outdoor_seating": "yes", "phone": "+1-919-754-8670", "smoking": "outside"}}, {"type": "node", "id": 5586986886, "lat": 35.7837642, "lon": -78.7207733, "tags": {"addr:city": "Raleigh", "addr:housenumber": "5563", "addr:postcode": "27606", "addr:state": "NC", "addr:street": "Western Boulevard", "amenity": "bar", "name": "Champions Bars", "opening_hours": "Mo-Sa 17:00-02:00"}}, {"type": "node", "id": 5941664588, "lat": 35.7877934, "lon": -78.7775896, "tags": {"addr:city": "Cary", "addr:housenumber": "215", "addr:postcode": "27511", "addr:state": "NC", "addr:street": "East Chatham Street", "amenity": "bar", "name": "Sidebar"}}, {"type": "node", "id": 5975417482, "lat": 35.7042059, "lon": -78.6117241, "tags": {"addr:city": "Garner", "addr:housenumber": "533", "addr:postcode": "27529", "addr:state": "NC", "addr:street": "Plaza Circle", "amenity": "bar", "name": "Shotmakers Sports Bar and Billiards", "smoking": "no"}}, {"type": "node", "id": 5998144327, "lat": 35.7879428, "lon": -78.7793752, "tags": {"addr:city": "Cary", "addr:housenumber": "158", "addr:postcode": "27511", "addr:state": "NC", "addr:street": "East Cedar Street", "amenity": "bar", "min_age": "21", "name": "Graffiti - Spirits, Axes, Art", "opening_hours": "Mo-Th 16:00-22:00, Fr 15:00-00:00, Sa 12:00-00:00, Su 12:00-20:00", "website": "https://www.graffiticary.com/"}}, {"type": "node", "id": 6484113986, "lat": 35.7881998, "lon": -78.6469825, "tags": {"addr:housenumber": "614", "addr:postcode": "27603", "addr:street": "Glenwood Avenue", "amenity": "bar", "name": "Raleigh Beer Garden", "opening_hours": "Mo-Su 12:00-12:00"}}, {"type": "node", "id": 6638710070, "lat": 35.780117, "lon": -78.647967, "tags": {"amenity": "bar", "name": "Dram & Draught"}}, {"type": "node", "id": 7105924499, "lat": 35.8080606, "lon": -78.622028, "tags": {"addr:city": "Raleigh", "addr:housenumber": "1053", "addr:postcode": "27604", "addr:state": "NC", "addr:street": "East Whitaker Mill Road", "amenity": "bar", "name": "Lynnwood Brewing Concern", "opening_hours": "Mo-Th 16:00-23:00; Fr 15:00-01:00; Sa 12:00-01:00; Su 12:00-22:00", "outdoor_seating": "yes", "phone": "+1-919-424-7533", "website": "https://www.lynnwoodgrill.com/lynnwood-brewing-concern/"}}, {"type": "node", "id": 7127199600, "lat": 35.774776, "lon": -78.6440838}, {"type": "node", "id": 7127199601, "lat": 35.7745078, "lon": -78.6440948}, {"type": "node", "id": 7127199602, "lat": 35.7745134, "lon": -78.6442422}, {"type": "node", "id": 7127199603, "lat": 35.7747187, "lon": -78.6442333}, {"type": "node", "id": 7127199604, "lat": 35.774717, "lon": -78.6441812}, {"type": "node", "id": 7127199605, "lat": 35.7747783, "lon": -78.6441791}, {"type": "node", "id": 8409124543, "lat": 35.7799394, "lon": -78.6454157, "tags": {"amenity": "bar", "name": "The Ugly Monkey Party Bar"}}, {"type": "node", "id": 8409326776, "lat": 35.7783082, "lon": -78.6442393, "tags": {"amenity": "bar", "name": "Vita Vite Downtown"}}, {"type": "node", "id": 8412296516, "lat": 35.7746699, "lon": -78.6443673, "tags": {"addr:city": "Raleigh", "addr:housenumber": "316", "addr:postcode": "27601", "addr:state": "NC", "addr:street": "West Cabarrus Street", "amenity": "bar", "contact:facebook": "https://www.facebook.com/legendsnightclubraleigh", "min_age": "18", "name": "Legends Nightclub", "opening_hours": "Fr-Su 21:00-02:30", "phone": "+19195011456", "source": "local knowledge", "start_date": "2025", "website": "https://legends-club.com/"}}, {"type": "node", "id": 8883930099, "lat": 35.7876443, "lon": -78.6495704, "tags": {"addr:city": "Raleigh", "addr:housenumber": "710", "addr:postcode": "27603", "addr:state": "NC", "addr:street": "West Johnson Street", "amenity": "bar", "name": "Johnson Street Yacht Club"}}, {"type": "node", "id": 8883973554, "lat": 35.78815, "lon": -78.6506518, "tags": {"addr:city": "Raleigh", "addr:housenumber": "616", "addr:postcode": "27605", "addr:state": "NC", "addr:street": "Saint Marys Street", "amenity": "bar", "amenity_1": "hookah_lounge", "name": "Peace and Saint"}}, {"type": "node", "id": 9860319189, "lat": 35.7904668, "lon": -78.63459, "tags": {"addr:city": "Raleigh", "addr:housenumber": "805", "addr:postcode": "27604", "addr:state": "NC", "addr:street": "North Person Street", "amenity": "bar", "name": "Person Street Bar", "phone": "+19199775952"}}, {"type": "node", "id": 10232297917, "lat": 35.6782578, "lon": -78.5119403, "tags": {"addr:housenumber": "3616", "addr:postcode": "27520", "addr:street": "East Garner Road", "amenity": "bar", "name": "Castaways", "opening_hours": "Su-Sa 12:00-02:00"}}, {"type": "node", "id": 10251631786, "lat": 35.8369873, "lon": -78.6145053, "tags": {"addr:city": "Raleigh", "addr:housenumber": "1420", "addr:postcode": "27609", "addr:state": "NC", "addr:street": "Hardimont Road", "amenity": "bar", "brewery": "yes", "name": "Ancillary Fermentation"}}, {"type": "node", "id": 10665108019, "lat": 35.7800452, "lon": -78.7572245, "tags": {"addr:housenumber": "301", "addr:street": "Fenton Gateway Drive", "amenity": "bar", "name": "Sports & Social", "website": "https://sportsandsocial.com/cary/"}}, {"type": "node", "id": 10745492795, "lat": 35.7769861, "lon": -78.6462471}, {"type": "node", "id": 10745492799, "lat": 35.7769916, "lon": -78.646571}, {"type": "node", "id": 10745492800, "lat": 35.7768859, "lon": -78.6465737}, {"type": "node", "id": 10745492801, "lat": 35.7767722, "lon": -78.6465384}, {"type": "node", "id": 10745492802, "lat": 35.7767654, "lon": -78.6462525}, {"type": "node", "id": 10745492803, "lat": 35.7767715, "lon": -78.6464897}, {"type": "node", "id": 10745492804, "lat": 35.7766694, "lon": -78.6464922}, {"type": "node", "id": 10745498705, "lat": 35.7766646, "lon": -78.6462771}, {"type": "node", "id": 10745498706, "lat": 35.7767657, "lon": -78.6462746}, {"type": "node", "id": 10745498716, "lat": 35.7766683, "lon": -78.6464197}, {"type": "node", "id": 10745498717, "lat": 35.7766649, "lon": -78.6462939}, {"type": "node", "id": 10745498718, "lat": 35.7766504, "lon": -78.6462943}, {"type": "node", "id": 10745498719, "lat": 35.7766524, "lon": -78.64642}, {"type": "node", "id": 10817190627, "lat": 35.8639647, "lon": -78.5713032, "tags": {"addr:housenumber": "5821", "addr:street": "Poyner Village Parkway", "addr:unit": "101", "amenity": "bar", "check_date": "2023-04-16", "name": "Fat Tuesday", "opening_hours": "Tu-Th 16:00-24:00; Fr 14:00-24:00; Sa 00:00-01:00,12:00-24:00; Su 00:00-01:00,12:00-24:00", "source": "survey", "wheelchair": "yes"}}, {"type": "node", "id": 10834295122, "lat": 35.8657675, "lon": -78.5904542, "tags": {"addr:city": "Raleigh", "addr:housenumber": "6109", "addr:postcode": "27616", "addr:state": "NC", "addr:street": "Maddry Oaks Court", "amenity": "bar", "name": "Gatsby\u2019s Bar"}}, {"type": "node", "id": 10855847012, "lat": 35.9072902, "lon": -78.5892758, "tags": {"addr:housenumber": "1141", "addr:postcode": "27614", "addr:street": "Falls River Avenue", "amenity": "bar", "contact:facebook": "TheHopYardNC", "internet_access": "wlan", "name": "The Hop Yard", "opening_hours": "Mo-We 12:00-21:00; Th 12:00-22:00; Fr-Sa 12:00-23:00; Su 12:00-19:00", "phone": "+1-919-971-0631", "website": "https://www.thehopyardnc.com"}}, {"type": "node", "id": 10858671584, "lat": 35.7802569, "lon": -78.7583147, "tags": {"addr:city": "Cary", "addr:housenumber": "3", "addr:postcode": "27511", "addr:state": "NC", "addr:street": "Fenton Main Street", "amenity": "bar", "check_date": "2023-11-11", "name": "Dram & Draught", "wheelchair": "yes"}}, {"type": "node", "id": 11024079105, "lat": 35.7888579, "lon": -78.633977, "tags": {"addr:housenumber": "300", "addr:postcode": "27604", "addr:street": "Pace Street", "amenity": "bar", "contact:instagram": "pelagicbeer", "internet_access": "wlan", "name": "Pelagic", "outdoor_seating": "yes", "website": "https://www.pelagicbeerandwine.com"}}, {"type": "node", "id": 11146618705, "lat": 35.8270197, "lon": -78.7716204, "tags": {"addr:city": "Cary", "addr:housenumber": "2036", "addr:postcode": "27513", "addr:state": "NC", "addr:street": "Renaissance Park Place", "amenity": "bar", "name": "Raleigh Brewing at the Arboretum", "opening_hours": "Mo-Fr 15:00-22:00; Sa 12:00-20:00; Su 12:00-19:00", "phone": "+1 919-371-5280", "website": "https://www.raleighbrewing.com"}}, {"type": "node", "id": 11274791407, "lat": 35.7887394, "lon": -78.634208, "tags": {"addr:housenumber": "616", "addr:street": "North Person Street", "air_conditioning": "yes", "amenity": "bar", "indoor_seating": "yes", "name": "William & Company", "opening_hours": "Su-Fr 17:00-02:00, Sa 02:00", "outdoor_seating": "no", "payment:credit_cards": "yes", "payment:debit_cards": "yes", "wheelchair": "yes"}}, {"type": "node", "id": 11303623955, "lat": 35.7873582, "lon": -78.7823607, "tags": {"addr:city": "Cary", "addr:housenumber": "126", "addr:postcode": "27511", "addr:state": "NC", "addr:street": "West Chatham Street", "addr:unit": "200", "amenity": "bar", "level": "2", "microbrewery": "no", "name": "The Walk Up", "website": "https://www.thewalkupcary.com"}}, {"type": "node", "id": 11500412494, "lat": 35.7894635, "lon": -78.6345598, "tags": {"addr:city": "Raleigh", "addr:housenumber": "709", "addr:postcode": "27604", "addr:state": "NC", "addr:street": "North Person Street", "amenity": "bar", "name": "Krave Kava Bar & Tea Lounge", "phone": "+19194089596", "website": "https://www.kravekava.com/"}}, {"type": "node", "id": 11500412496, "lat": 35.7784517, "lon": -78.6485949, "tags": {"addr:city": "Raleigh", "addr:housenumber": "615", "addr:postcode": "27603", "addr:state": "NC", "addr:street": "West Hargett Street", "amenity": "bar", "lgbtq": "primary", "name": "Flex Nightclub", "smoking": "outside", "website": "https://www.flex-club.com/"}}, {"type": "node", "id": 11704645725, "lat": 35.7846591, "lon": -78.7788137}, {"type": "node", "id": 11704645726, "lat": 35.7846567, "lon": -78.7788141}, {"type": "node", "id": 11704645727, "lat": 35.7846544, "lon": -78.7788147}, {"type": "node", "id": 11704645728, "lat": 35.7846521, "lon": -78.7788156}, {"type": "node", "id": 11704645729, "lat": 35.7846499, "lon": -78.7788167}, {"type": "node", "id": 11704645730, "lat": 35.7846478, "lon": -78.7788181}, {"type": "node", "id": 11704645731, "lat": 35.7846457, "lon": -78.7788197}, {"type": "node", "id": 11704645732, "lat": 35.7846438, "lon": -78.7788215}, {"type": "node", "id": 11704645733, "lat": 35.7846421, "lon": -78.7788235}, {"type": "node", "id": 11704645734, "lat": 35.7846405, "lon": -78.7788257}, {"type": "node", "id": 11704645735, "lat": 35.784639, "lon": -78.778828}, {"type": "node", "id": 11704645736, "lat": 35.7846377, "lon": -78.7788305}, {"type": "node", "id": 11704645737, "lat": 35.7846366, "lon": -78.7788331}, {"type": "node", "id": 11704645738, "lat": 35.7846357, "lon": -78.7788358}, {"type": "node", "id": 11704645739, "lat": 35.784635, "lon": -78.7788386}, {"type": "node", "id": 11704645740, "lat": 35.7846345, "lon": -78.7788415}, {"type": "node", "id": 11704645741, "lat": 35.7846342, "lon": -78.7788444}, {"type": "node", "id": 11704645742, "lat": 35.7846341, "lon": -78.7788473}, {"type": "node", "id": 11704645743, "lat": 35.7846342, "lon": -78.7788503}, {"type": "node", "id": 11704645744, "lat": 35.7846345, "lon": -78.7788532}, {"type": "node", "id": 11704645745, "lat": 35.784635, "lon": -78.7788561}, {"type": "node", "id": 11704645746, "lat": 35.7846358, "lon": -78.7788589}, {"type": "node", "id": 11704645747, "lat": 35.7846367, "lon": -78.7788616}, {"type": "node", "id": 11704645748, "lat": 35.7846378, "lon": -78.7788642}, {"type": "node", "id": 11704645749, "lat": 35.7846391, "lon": -78.7788667}, {"type": "node", "id": 11704645750, "lat": 35.7846405, "lon": -78.778869}, {"type": "node", "id": 11704645751, "lat": 35.7846422, "lon": -78.7788712}, {"type": "node", "id": 11704645752, "lat": 35.7846439, "lon": -78.7788731}, {"type": "node", "id": 11704645753, "lat": 35.7846458, "lon": -78.7788749}, {"type": "node", "id": 11704645754, "lat": 35.7846479, "lon": -78.7788765}, {"type": "node", "id": 11704645755, "lat": 35.78465, "lon": -78.7788779}, {"type": "node", "id": 11704645756, "lat": 35.7846522, "lon": -78.778879}, {"type": "node", "id": 11704645757, "lat": 35.7846545, "lon": -78.7788798}, {"type": "node", "id": 11704645758, "lat": 35.7846568, "lon": -78.7788805}, {"type": "node", "id": 11704645759, "lat": 35.7846592, "lon": -78.7788809}, {"type": "node", "id": 11704645760, "lat": 35.7846616, "lon": -78.778881}, {"type": "node", "id": 11704645761, "lat": 35.784664, "lon": -78.7788808}, {"type": "node", "id": 11704645762, "lat": 35.7846664, "lon": -78.7788805}, {"type": "node", "id": 11704645763, "lat": 35.7846687, "lon": -78.7788798}, {"type": "node", "id": 11704645764, "lat": 35.784671, "lon": -78.7788789}, {"type": "node", "id": 11704645765, "lat": 35.7846732, "lon": -78.7788778}, {"type": "node", "id": 11704645766, "lat": 35.7846753, "lon": -78.7788764}, {"type": "node", "id": 11704645767, "lat": 35.7846774, "lon": -78.7788748}, {"type": "node", "id": 11704645768, "lat": 35.7846793, "lon": -78.778873}, {"type": "node", "id": 11704669569, "lat": 35.784681, "lon": -78.7788711}, {"type": "node", "id": 11704669570, "lat": 35.7846826, "lon": -78.7788689}, {"type": "node", "id": 11704669571, "lat": 35.7846841, "lon": -78.7788665}, {"type": "node", "id": 11704669572, "lat": 35.7846854, "lon": -78.7788641}, {"type": "node", "id": 11704669573, "lat": 35.7846865, "lon": -78.7788614}, {"type": "node", "id": 11704669574, "lat": 35.7846874, "lon": -78.7788587}, {"type": "node", "id": 11704669575, "lat": 35.7846881, "lon": -78.7788559}, {"type": "node", "id": 11704669576, "lat": 35.7846886, "lon": -78.778853}, {"type": "node", "id": 11704669577, "lat": 35.7846889, "lon": -78.7788501}, {"type": "node", "id": 11704669578, "lat": 35.784689, "lon": -78.7788472}, {"type": "node", "id": 11704669579, "lat": 35.7846889, "lon": -78.7788443}, {"type": "node", "id": 11704669580, "lat": 35.7846886, "lon": -78.7788413}, {"type": "node", "id": 11704669581, "lat": 35.7846881, "lon": -78.7788385}, {"type": "node", "id": 11704669582, "lat": 35.7846873, "lon": -78.7788357}, {"type": "node", "id": 11704669583, "lat": 35.7846864, "lon": -78.7788329}, {"type": "node", "id": 11704669584, "lat": 35.7846853, "lon": -78.7788303}, {"type": "node", "id": 11704669585, "lat": 35.784684, "lon": -78.7788279}, {"type": "node", "id": 11704669586, "lat": 35.7846826, "lon": -78.7788255}, {"type": "node", "id": 11704669587, "lat": 35.7846809, "lon": -78.7788234}, {"type": "node", "id": 11704669588, "lat": 35.7846792, "lon": -78.7788214}, {"type": "node", "id": 11704669589, "lat": 35.7846773, "lon": -78.7788196}, {"type": "node", "id": 11704669590, "lat": 35.7846752, "lon": -78.778818}, {"type": "node", "id": 11704669591, "lat": 35.7846731, "lon": -78.7788167}, {"type": "node", "id": 11704669592, "lat": 35.7846709, "lon": -78.7788156}, {"type": "node", "id": 11704669593, "lat": 35.7846686, "lon": -78.7788147}, {"type": "node", "id": 11704669594, "lat": 35.7846663, "lon": -78.7788141}, {"type": "node", "id": 11704669595, "lat": 35.7846639, "lon": -78.7788137}, {"type": "node", "id": 11704669596, "lat": 35.7846615, "lon": -78.7788136}, {"type": "node", "id": 11805815216, "lat": 35.7753896, "lon": -78.6368743, "tags": {"addr:city": "Raleigh", "addr:housenumber": "444", "addr:postcode": "27601", "addr:state": "NC", "addr:street": "South Blount Street", "addr:unit": "101", "amenity": "bar", "brewery": "various", "min_age": "21", "name": "The Davie"}}, {"type": "node", "id": 12545080001, "lat": 35.7365923, "lon": -78.7983163, "tags": {"addr:housenumber": "107", "addr:postcode": "27511", "addr:street": "Edinburgh South Drive", "amenity": "bar", "contact:facebook": "347331238744135", "contact:instagram": "gamersgeekery", "contact:twitter": "GamersGeekery", "email": "marketing@carygametavern.com", "name": "Gamers Geekery & Tavern", "opening_hours": "Mo, Th-Fr 15:00-23:00; Tu-We 15:00-22:00; Sa 12:00-23:00; Su 12:00-21:00", "phone": "+1-919-650-2366", "website": "https://carygametavern.com/", "website:menu": "https://carygametavern.com/cary-gamers-geekery-and-tavern-food-menu"}}, {"type": "node", "id": 12674073332, "lat": 35.7818548, "lon": -78.6556913, "tags": {"addr:city": "Raleigh", "addr:housenumber": "927", "addr:postcode": "27603", "addr:state": "NC", "addr:street": "West Morgan Street", "addr:unit": "116", "amenity": "bar", "name": "Gussie's", "opening_hours": "Mo-Th 17:00-24:00; Fr-Sa 11:00-25:00; Su 11:00-22:00", "website": "https://www.gussiesraleigh.com"}}, {"type": "node", "id": 12980164497, "lat": 35.7871713, "lon": -78.7774744, "tags": {"addr:city": "Cary", "addr:housenumber": "210", "addr:postcode": "27511", "addr:state": "NC", "addr:street": "East Chatham Street", "addr:unit": "Ste 10", "amenity": "bar", "name": "RBF, Your Authentic Champagne Bar", "opening_hours": "Mo-Tu CLOSED; We-Th 16:00-21:00; Fr 1600-22:00; Sa 14:00-21:00; Su 14:00-19:00", "phone": "+1-919-377-2003", "website": "https://rbf.wine/"}}, {"type": "node", "id": 13204840057, "lat": 35.8080068, "lon": -78.619726, "tags": {"addr:city": "Raleigh", "addr:housenumber": "1101", "addr:postcode": "27604", "addr:state": "NC", "addr:street": "East Whitaker Mill Road", "addr:unit": "Suite 118", "amenity": "bar", "name": "Saint Pierre Wine Bar"}}, {"type": "node", "id": 13232814409, "lat": 35.78793, "lon": -78.6495716, "tags": {"addr:city": "Raleigh", "addr:housenumber": "606", "addr:postcode": "27603", "addr:state": "NC", "addr:street": "Gaston Street", "amenity": "bar", "name": "Vino", "opening_hours": "Su 09:00-22:00, Mo-Fr 10:00-22:00, Sa 10:00-23:00"}}, {"type": "node", "id": 13236592351, "lat": 35.7800798, "lon": -78.6482936}, {"type": "node", "id": 13236592352, "lat": 35.7800488, "lon": -78.6482923}, {"type": "node", "id": 13236592353, "lat": 35.7800543, "lon": -78.6483938}, {"type": "node", "id": 13236592354, "lat": 35.7801092, "lon": -78.6484239}, {"type": "node", "id": 13236592355, "lat": 35.7802468, "lon": -78.6483784}, {"type": "node", "id": 13236592356, "lat": 35.7803346, "lon": -78.648344}, {"type": "node", "id": 13236592357, "lat": 35.780346, "lon": -78.648304}, {"type": "node", "id": 13236592358, "lat": 35.7803321, "lon": -78.6482112}, {"type": "node", "id": 13437893871, "lat": 35.7066818, "lon": -78.605204, "tags": {"addr:city": "Garner", "addr:housenumber": "106", "addr:postcode": "27529", "addr:state": "NC", "addr:street": "East Main Street", "amenity": "bar", "min_age": "21", "name": "Shady's", "opening_hours": "We 17:00-22:00; Th 17:00-23:00; Fr 17:00-00:00; Sa 16:00-00:00; Su 12:00-20:00", "phone": "+19842008810", "website": "https://shadysbar.com/"}}, {"type": "way", "id": 47718270, "nodes": [607073457, 607073463, 607073465, 607073470, 607073457], "tags": {"addr:city": "Raleigh", "addr:housenumber": "1102", "addr:postcode": "27606", "addr:state": "NC", "addr:street": "Buck Jones Road", "amenity": "bar", "building": "yes", "building:use": "residential", "name": "Buck's Billiards and Sports Bar", "source": "WakeGIS"}}, {"type": "way", "id": 47731739, "nodes": [1216186221, 607205366, 607205376, 607205380, 1216186221], "tags": {"amenity": "bar", "building": "yes", "building:use": "commercial", "name": "Alchemy", "source": "WakeGIS"}}, {"type": "way", "id": 47758874, "nodes": [607474054, 607474056, 607474058, 607474060, 607474062, 607474063, 607474065, 607474067, 607474069, 607474071, 607474073, 607474075, 607474078, 607474080, 607474081, 607474090, 607474094, 607474054], "tags": {"addr:city": "Garner", "addr:housenumber": "305", "addr:postcode": "27529", "addr:state": "NC", "addr:street": "McCormick Street", "amenity": "bar", "building": "yes", "building:use": "commercial", "name": "Locked & Loaded Bar and Grill", "phone": "+19196616688", "source": "WakeGIS", "website": "https://www.llgrill.com/"}}, {"type": "way", "id": 47760006, "nodes": [607500967, 607500968, 607500970, 607500971, 607500973, 607500975, 607500977, 607500979, 607500982, 607500987, 607500967], "tags": {"addr:city": "Raleigh", "addr:country": "US", "addr:housenumber": "126", "addr:postcode": "27601", "addr:state": "NC", "addr:street": "E Cabarrus Street", "amenity": "bar", "building": "yes", "building:use": "commercial", "fax": "+1-919-852-2021", "name": "Lincoln Theatre", "phone": "+1-919-821-4111", "source": "WakeGIS", "website": "https://www.lincolntheatre.com/"}}, {"type": "way", "id": 47776803, "nodes": [1216186293, 607697138, 607697142, 607697143, 1216186293], "tags": {"addr:country": "US", "addr:housenumber": "425", "addr:state": "NC", "addr:street": "Glenwood Avenue", "amenity": "bar", "building": "yes", "building:use": "commercial", "name": "Noir", "phone": "+1 919 8586459", "website": "http://www.noirbarlounge.com/"}}, {"type": "way", "id": 47918297, "nodes": [609366467, 609366468, 609366469, 609366470, 609366471, 609366473, 609366475, 609366476, 609366477, 609366478, 609366479, 609366481, 609366467], "tags": {"addr:city": "Raleigh", "addr:housenumber": "3601", "addr:postcode": "27610", "addr:state": "NC", "addr:street": "New Bern Avenue", "amenity": "bar", "building": "yes", "building:use": "commercial", "name": "Touchdown Sports Bar", "phone": "+19196152010", "source": "WakeGIS"}}, {"type": "way", "id": 47933061, "nodes": [609622190, 609622192, 609622194, 609622195, 609622197, 609622199, 609622202, 609622205, 609622207, 609622211, 609622213, 609622215, 609622216, 609622217, 609622219, 609622220, 609622222, 609622223, 609622224, 609622226, 609622227, 1908835462, 609622229, 609622190], "tags": {"amenity": "bar", "building": "yes", "building:use": "commercial", "name": "Sammy's Tap & Grill", "opening_hours": "Th-Sa 11:00-24:00; Su-We 11:00-24:00", "source": "WakeGIS", "wifi": "no"}}, {"type": "way", "id": 47933321, "nodes": [609628129, 609628132, 609628142, 609628149, 609628152, 609628155, 609628159, 609628165, 609628168, 609628174, 609628129], "tags": {"addr:city": "Raleigh", "addr:housenumber": "3112", "addr:postcode": "27607", "addr:state": "NC", "addr:street": "Hillsborough Street", "amenity": "bar", "building": "retail", "building:use": "commercial", "name": "Pantana's Pool Hall and Saloon", "source": "WakeGIS"}}, {"type": "way", "id": 47948284, "nodes": [609893569, 609893570, 609893571, 609893572, 609893573, 609893574, 609893569], "tags": {"addr:city": "Raleigh", "addr:housenumber": "2414", "addr:postcode": "27608", "addr:state": "NC", "addr:street": "Paula Street", "amenity": "bar", "building": "yes", "building:use": "commercial", "name": "Velvet Room Bar & Lounge", "phone": "+19198292666", "source": "WakeGIS"}}, {"type": "way", "id": 47948292, "nodes": [609893804, 609893806, 609893809, 609893811, 609893814, 609893804], "tags": {"addr:city": "Raleigh", "addr:housenumber": "900", "addr:postcode": "27608", "addr:state": "NC", "addr:street": "Hodges Street", "amenity": "bar", "building": "yes", "building:use": "commercial", "name": "The Hawg pen", "phone": "+19198429608", "source": "WakeGIS"}}, {"type": "way", "id": 209632662, "nodes": [2198232037, 2198232018, 3248743368, 2198232019, 2198232027, 2198232029, 2198232038, 2198232037], "tags": {"addr:city": "Raleigh", "addr:country": "US", "addr:housenumber": "14", "addr:postcode": "27601", "addr:state": "NC", "addr:street": "East Hargett Street", "amenity": "bar", "building": "yes", "building:levels": "2", "name": "The Raleigh Times Bar", "opening_hours": "Su-Th 11:00-22:00; Fr,Sa 11:00-24:00", "website": "http://www.raleightimesbar.com/"}}, {"type": "way", "id": 462014467, "nodes": [4574425453, 4574425454, 4574425455, 608905169, 4574425453], "tags": {"addr:city": "Raleigh", "addr:housenumber": "Suite 100", "addr:postcode": "27617", "addr:state": "NC", "addr:street": "Gulf Court", "amenity": "bar", "building": "yes", "name": "The Hideout (Lonerider)", "opening_hours": "Mo-Th 14:00-22:00; Fr, Sa 14:00-23:00; Su 14:00-19:00", "operator": "Lonerider", "outdoor_seating": "yes", "phone": "+1-919-442-8004", "smoking": "outside", "website": "https://loneriderbeer.com/the-hideout//"}}, {"type": "way", "id": 762748133, "nodes": [7127199600, 7127199601, 7127199602, 7127199603, 7127199604, 7127199605, 7127199600], "tags": {"amenity": "bar", "parking": "surface"}}, {"type": "way", "id": 1155458749, "nodes": [10745492799, 10745492800, 10745492801, 10745492803, 10745492804, 10745498716, 10745498719, 10745498718, 10745498717, 10745498705, 10745498706, 10745492802, 10745492795, 10745492799], "tags": {"addr:city": "Raleigh", "addr:housenumber": "310", "addr:postcode": "27601", "addr:state": "NC", "addr:street": "South West Street", "amenity": "bar", "building": "yes", "name": "Junction West"}}, {"type": "way", "id": 1259109025, "nodes": [11704669596, 11704669595, 11704669594, 11704669593, 11704669592, 11704669591, 11704669590, 11704669589, 11704669588, 11704669587, 11704669586, 11704669585, 11704669584, 11704669583, 11704669582, 11704669581, 11704669580, 11704669579, 11704669578, 11704669577, 11704669576, 11704669575, 11704669574, 11704669573, 11704669572, 11704669571, 11704669570, 11704669569, 11704645768, 11704645767, 11704645766, 11704645765, 11704645764, 11704645763, 11704645762, 11704645761, 11704645760, 11704645759, 11704645758, 11704645757, 11704645756, 11704645755, 11704645754, 11704645753, 11704645752, 11704645751, 11704645750, 11704645749, 11704645748, 11704645747, 11704645746, 11704645745, 11704645744, 11704645743, 11704645742, 11704645741, 11704645740, 11704645739, 11704645738, 11704645737, 11704645736, 11704645735, 11704645734, 11704645733, 11704645732, 11704645731, 11704645730, 11704645729, 11704645728, 11704645727, 11704645726, 11704645725, 11704669596], "tags": {"addr:city": "Cary", "addr:housenumber": "312", "addr:postcode": "27511", "addr:state": "NC", "addr:street": "South Walk Street", "amenity": "bar", "building": "yes", "building:levels": "1", "name": "Bark Bar", "opening_hours": "Mo-Th 16:00-21:00; Fr-Sa 12:00-22:00; Su 12:00-20:00", "website": "https://downtowncarypark.com/locations/the-bark-bar", "website:menu": "https://untappd.com/v/the-bark-bar/12353882"}}, {"type": "way", "id": 1442594622, "nodes": [13236592351, 13236592352, 13236592353, 13236592354, 13236592355, 13236592356, 13236592357, 13236592358, 13236592351], "tags": {"addr:city": "Raleigh", "addr:housenumber": "612", "addr:postcode": "27603", "addr:state": "NC", "addr:street": "West Morgan Street", "amenity": "bar", "building": "yes", "name": "Incendiary Brewing Co", "opening_hours": "Su 12:00-22:00, Mo-Th 16:00-22:00, Fr-Sa 12:00-00:00"}}]}