{"version": 0.6, "generator": "Overpass API 0.7.62.8 e802775f", "osm3s": {"timestamp_osm_base": "2026-01-12T22:33:50Z", "copyright": "The data included in this document is from www.openstreetmap.org. The data is made available under ODbL."}, "elements": [{"type": "node", "id": 1828851753, "lat": 35.2475029, "lon": -80.7513383}, {"type": "node", "id": 1848893565, "lat": 35.2253736, "lon": -80.841579, "tags": {"amenity": "pharmacy", "brand": "CVS Pharmacy", "brand:website": "https://www.cvs.com/", "brand:wikidata": "Q2078880", "healthcare": "pharmacy", "name": "CVS Pharmacy", "short_name": "CVS", "website": "https://www.cvs.com/store-locator/charlotte-nc-pharmacies/210-e-trade-st-ste-e-186-charlotte-nc-28202/storeid=4022"}}, {"type": "node", "id": 1937572875, "lat": 35.1024805, "lon": -80.987635}, {"type": "node", "id": 1937572885, "lat": 35.1025002, "lon": -80.9876484}, {"type": "node", "id": 1937572894, "lat": 35.1025748, "lon": -80.9874741}, {"type": "node", "id": 1937572918, "lat": 35.1024278, "lon": -80.9873239}, {"type": "node", "id": 1937572937, "lat": 35.1024146, "lon": -80.9873454}, {"type": "node", "id": 1937572938, "lat": 35.1025639, "lon": -80.9875063}, {"type": "node", "id": 1937572954, "lat": 35.1021842, "lon": -80.9877155}, {"type": "node", "id": 1937572969, "lat": 35.1023773, "lon": -80.987855}, {"type": "node", "id": 1937572974, "lat": 35.1023378, "lon": -80.9872944}, {"type": "node", "id": 1937573035, "lat": 35.1021689, "lon": -80.9876538}, {"type": "node", "id": 1937573036, "lat": 35.1025441, "lon": -80.9874071}, {"type": "node", "id": 1937573113, "lat": 35.1025682, "lon": -80.9874366}, {"type": "node", "id": 2003057886, "lat": 35.2934307, "lon": -80.7964986}, {"type": "node", "id": 2624952862, "lat": 35.2048235, "lon": -80.8635334, "tags": {"addr:city": "Charlotte", "addr:country": "US", "addr:housenumber": "2334", "addr:postcode": "28203", "addr:state": "NC", "addr:street": "South Boulevard", "amenity": "pharmacy", "healthcare": "pharmacy", "name": "Cannon Pharmacy", "opening_hours": "Mo-Fr 07:00-19:00, Sa 09:00-16:00, Su 12:00-16:00", "phone": "+1-704-523-8608", "website": "https://cannonpharmacies.com/"}}, {"type": "node", "id": 2869693888, "lat": 35.1379072, "lon": -80.7380394}, {"type": "node", "id": 3298028791, "lat": 35.1751508, "lon": -80.8495024, "tags": {"addr:city": "Charlotte", "addr:housenumber": "4133", "addr:postcode": "28209", "addr:state": "NC", "addr:street": "Park Road", "amenity": "pharmacy", "brand": "Walgreens", "brand:wikidata": "Q1591889", "dispensing": "yes", "entrance": "yes", "healthcare": "pharmacy", "name": "Walgreens"}}, {"type": "node", "id": 3299704348, "lat": 35.1211456, "lon": -80.7181957}, {"type": "node", "id": 3299704392, "lat": 35.1211622, "lon": -80.7185886}, {"type": "node", "id": 3299704429, "lat": 35.1211858, "lon": -80.7186143}, {"type": "node", "id": 3299704430, "lat": 35.1211862, "lon": -80.7186846}, {"type": "node", "id": 3299704601, "lat": 35.1212597, "lon": -80.718615}, {"type": "node", "id": 3299704602, "lat": 35.1212597, "lon": -80.7186848}, {"type": "node", "id": 3299704851, "lat": 35.1213852, "lon": -80.7181807}, {"type": "node", "id": 3299704917, "lat": 35.1214213, "lon": -80.7181293}, {"type": "node", "id": 3299704961, "lat": 35.1214489, "lon": -80.7182357}, {"type": "node", "id": 3299704987, "lat": 35.1214636, "lon": -80.7186027}, {"type": "node", "id": 3299705020, "lat": 35.121479, "lon": -80.718192}, {"type": "node", "id": 3299706907, "lat": 35.1222833, "lon": -80.7171273}, {"type": "node", "id": 3299707028, "lat": 35.1223321, "lon": -80.7166275}, {"type": "node", "id": 3299707032, "lat": 35.122335, "lon": -80.7170703}, {"type": "node", "id": 3299707055, "lat": 35.1223425, "lon": -80.7171917}, {"type": "node", "id": 3299707128, "lat": 35.122385, "lon": -80.7171349}, {"type": "node", "id": 3299707469, "lat": 35.1225496, "lon": -80.7166162}, {"type": "node", "id": 3299707501, "lat": 35.1225654, "lon": -80.7171278}, {"type": "node", "id": 3299736772, "lat": 35.1377878, "lon": -80.7379883}, {"type": "node", "id": 3299736793, "lat": 35.1378201, "lon": -80.7380597}, {"type": "node", "id": 3299736802, "lat": 35.1378353, "lon": -80.738009}, {"type": "node", "id": 3299736825, "lat": 35.1378636, "lon": -80.7377344}, {"type": "node", "id": 3299736837, "lat": 35.1378917, "lon": -80.7380913}, {"type": "node", "id": 3299737027, "lat": 35.1381301, "lon": -80.7378526}, {"type": "node", "id": 3299737028, "lat": 35.1381341, "lon": -80.7378393}, {"type": "node", "id": 3299737049, "lat": 35.138154, "lon": -80.7381642}, {"type": "node", "id": 3299737054, "lat": 35.1381582, "lon": -80.7381505}, {"type": "node", "id": 3299737084, "lat": 35.1381861, "lon": -80.7381787}, {"type": "node", "id": 3299737117, "lat": 35.13822, "lon": -80.7380653}, {"type": "node", "id": 3299737125, "lat": 35.1382257, "lon": -80.7380675}, {"type": "node", "id": 3299737150, "lat": 35.1382514, "lon": -80.7379673}, {"type": "node", "id": 3299737158, "lat": 35.1382552, "lon": -80.737969}, {"type": "node", "id": 3299737173, "lat": 35.1382715, "lon": -80.7378999}, {"type": "node", "id": 3299799855, "lat": 35.2197614, "lon": -80.8140491}, {"type": "node", "id": 3299800010, "lat": 35.2198042, "lon": -80.8142901}, {"type": "node", "id": 3299800498, "lat": 35.2200175, "lon": -80.8139527}, {"type": "node", "id": 3299800504, "lat": 35.2200224, "lon": -80.8139803}, {"type": "node", "id": 3299800713, "lat": 35.2201414, "lon": -80.8139201}, {"type": "node", "id": 3299800737, "lat": 35.2201522, "lon": -80.8140881}, {"type": "node", "id": 3299800768, "lat": 35.2201703, "lon": -80.8140834}, {"type": "node", "id": 3299800772, "lat": 35.2201709, "lon": -80.8141935}, {"type": "node", "id": 3303592007, "lat": 35.2362669, "lon": -80.7385655}, {"type": "node", "id": 3303592025, "lat": 35.2362996, "lon": -80.7390274}, {"type": "node", "id": 3303592053, "lat": 35.2363395, "lon": -80.7390236}, {"type": "node", "id": 3303592056, "lat": 35.236343, "lon": -80.7390802}, {"type": "node", "id": 3303592115, "lat": 35.2364212, "lon": -80.739017}, {"type": "node", "id": 3303592121, "lat": 35.2364247, "lon": -80.7390727}, {"type": "node", "id": 3303592253, "lat": 35.236559, "lon": -80.7385617}, {"type": "node", "id": 3303592273, "lat": 35.2365907, "lon": -80.7390013}, {"type": "node", "id": 3303614208, "lat": 35.2473053, "lon": -80.7514873}, {"type": "node", "id": 3303614635, "lat": 35.2474686, "lon": -80.751276}, {"type": "node", "id": 3303614732, "lat": 35.2475127, "lon": -80.751326}, {"type": "node", "id": 3303614852, "lat": 35.2475628, "lon": -80.7517919}, {"type": "node", "id": 3303614856, "lat": 35.2475641, "lon": -80.7518421}, {"type": "node", "id": 3303614991, "lat": 35.2476303, "lon": -80.7517942}, {"type": "node", "id": 3303614995, "lat": 35.2476315, "lon": -80.7518398}, {"type": "node", "id": 3303615382, "lat": 35.2477538, "lon": -80.7516373}, {"type": "node", "id": 4318625888, "lat": 35.2138901, "lon": -80.8550862}, {"type": "node", "id": 4318625889, "lat": 35.2136577, "lon": -80.8553367}, {"type": "node", "id": 4318625890, "lat": 35.2136161, "lon": -80.8553394}, {"type": "node", "id": 4318625891, "lat": 35.2135015, "lon": -80.8551867}, {"type": "node", "id": 4318625892, "lat": 35.2135491, "lon": -80.8551332}, {"type": "node", "id": 4318625893, "lat": 35.2135331, "lon": -80.8551118}, {"type": "node", "id": 4318625894, "lat": 35.2136305, "lon": -80.8550023}, {"type": "node", "id": 4318625895, "lat": 35.2136485, "lon": -80.8550263}, {"type": "node", "id": 4318625896, "lat": 35.2137806, "lon": -80.8548732}, {"type": "node", "id": 4318625897, "lat": 35.2138906, "lon": -80.8550234}, {"type": "node", "id": 4318625898, "lat": 35.2139259, "lon": -80.8550243}, {"type": "node", "id": 4318625899, "lat": 35.213924, "lon": -80.8550883}, {"type": "node", "id": 4554270871, "lat": 35.2935311, "lon": -80.7961483}, {"type": "node", "id": 4554270873, "lat": 35.2932061, "lon": -80.7960085}, {"type": "node", "id": 4554270874, "lat": 35.2931057, "lon": -80.7963588}, {"type": "node", "id": 5348379053, "lat": 35.117039, "lon": -80.8580696}, {"type": "node", "id": 5348379054, "lat": 35.1167202, "lon": -80.8577397}, {"type": "node", "id": 5348379055, "lat": 35.1168969, "lon": -80.8575275}, {"type": "node", "id": 5348379056, "lat": 35.1171613, "lon": -80.8579226}, {"type": "node", "id": 5348379072, "lat": 35.1167784, "lon": -80.8577462}, {"type": "node", "id": 5348379073, "lat": 35.1167515, "lon": -80.8577786}, {"type": "node", "id": 5348379074, "lat": 35.1169284, "lon": -80.8576328}, {"type": "node", "id": 5348379108, "lat": 35.117133, "lon": -80.8578874}, {"type": "node", "id": 5348379109, "lat": 35.1169554, "lon": -80.8576003}, {"type": "node", "id": 5348379115, "lat": 35.1169285, "lon": -80.8575668}, {"type": "node", "id": 5364185488, "lat": 35.0964131, "lon": -80.7852728}, {"type": "node", "id": 5364185489, "lat": 35.0962023, "lon": -80.7851956}, {"type": "node", "id": 5364185491, "lat": 35.0963496, "lon": -80.7855322}, {"type": "node", "id": 5364185492, "lat": 35.0959237, "lon": -80.7853752}, {"type": "node", "id": 5364185493, "lat": 35.0959884, "lon": -80.7851159}, {"type": "node", "id": 5364185498, "lat": 35.0960929, "lon": -80.7854383}, {"type": "node", "id": 5534259796, "lat": 35.2110984, "lon": -80.6861657}, {"type": "node", "id": 5534259797, "lat": 35.2108731, "lon": -80.6862092}, {"type": "node", "id": 5534259798, "lat": 35.2108096, "lon": -80.6857169}, {"type": "node", "id": 5534259799, "lat": 35.2110349, "lon": -80.6856734}, {"type": "node", "id": 5721512220, "lat": 35.3177744, "lon": -80.778945}, {"type": "node", "id": 5721512221, "lat": 35.3174362, "lon": -80.7792571}, {"type": "node", "id": 5721512222, "lat": 35.3172798, "lon": -80.779002}, {"type": "node", "id": 5721512223, "lat": 35.3176178, "lon": -80.7786901}, {"type": "node", "id": 5721512224, "lat": 35.317334, "lon": -80.7790909}, {"type": "node", "id": 5721512227, "lat": 35.3172949, "lon": -80.7790266}, {"type": "node", "id": 6511852145, "lat": 35.1771891, "lon": -80.7983078, "tags": {"addr:city": "Charlotte", "addr:housenumber": "4390", "addr:postcode": "28211", "addr:state": "NC", "addr:street": "Colwick Road", "amenity": "pharmacy", "dispensing": "yes", "email": "walkers@carolinapharmacy.com", "entrance": "yes", "healthcare": "pharmacy", "name": "Walker\u2019s Drug Store", "operator": "Walker\u2019s Drug Store", "phone": "+1-704-364-3444", "website": "https://carolinapharmacy.com/walkers-drug-store-charlotte/"}}, {"type": "node", "id": 6530620101, "lat": 35.3018793, "lon": -80.8013486, "tags": {"addr:city": "Charlotte", "addr:housenumber": "2806", "addr:postcode": "28262", "addr:state": "NC", "addr:street": "West Sugar Creek Road", "amenity": "pharmacy", "brand": "CVS Pharmacy", "brand:website": "https://www.cvs.com/", "brand:wikidata": "Q2078880", "dispensing": "yes", "healthcare": "pharmacy", "name": "CVS Pharmacy", "short_name": "CVS"}}, {"type": "node", "id": 6530702079, "lat": 35.2325529, "lon": -80.8451342, "tags": {"addr:housenumber": "231", "addr:postcode": "28202", "addr:street": "North Graham Street", "amenity": "pharmacy", "brand": "CVS Pharmacy", "brand:website": "https://www.cvs.com/", "brand:wikidata": "Q2078880", "check_date": "2023-06-13", "dispensing": "yes", "healthcare": "pharmacy", "name": "CVS Pharmacy", "opening_hours": "Mo-Su 07:00-23:00", "phone": "+1-704-373-2930", "short_name": "CVS", "website": "https://www.cvs.com/store-locator/charlotte-nc-pharmacies/231-n-graham-street-charlotte-nc-28202/storeid=7089"}}, {"type": "node", "id": 6530752208, "lat": 35.1347261, "lon": -80.9403785, "tags": {"addr:city": "Charlotte", "addr:housenumber": "9100", "addr:postcode": "28273", "addr:state": "NC", "addr:street": "South Tryon Street", "amenity": "pharmacy", "dispensing": "yes", "fax": "+1-704-588-9624", "healthcare": "pharmacy", "name": "Kaitlyn's Pharmacy", "opening_hours": "Mo-Fr 09:00-18:00; Sa 09:00-16:00", "phone": "+1-704-588-9623", "website": "https://www.kaitlynspharmacy.com/"}}, {"type": "node", "id": 6708895255, "lat": 35.341485, "lon": -80.7665284, "tags": {"amenity": "vending_machine", "brand": "Redbox", "brand:wikidata": "Q7305489", "name": "Redbox", "vending": "movies"}}, {"type": "node", "id": 6708895256, "lat": 35.3413439, "lon": -80.7663272}, {"type": "node", "id": 6708895257, "lat": 35.341357, "lon": -80.7663165}, {"type": "node", "id": 6708895258, "lat": 35.3413187, "lon": -80.7662655}, {"type": "node", "id": 6708895259, "lat": 35.3415255, "lon": -80.7660416}, {"type": "node", "id": 6708895260, "lat": 35.3415057, "lon": -80.7660174}, {"type": "node", "id": 6708895261, "lat": 35.3414905, "lon": -80.765996}, {"type": "node", "id": 6708895262, "lat": 35.3415495, "lon": -80.7659356}, {"type": "node", "id": 6708895263, "lat": 35.3415646, "lon": -80.7659545}, {"type": "node", "id": 6708895264, "lat": 35.3415813, "lon": -80.7659812}, {"type": "node", "id": 6708895265, "lat": 35.3416031, "lon": -80.7659597}, {"type": "node", "id": 6708895266, "lat": 35.3417957, "lon": -80.7662226}, {"type": "node", "id": 6708895268, "lat": 35.3416939, "lon": -80.7663581, "tags": {"amenity": "letter_box", "brand": "FedEx", "brand:wikidata": "Q459477", "height": "0", "name": "FedEx", "post:housenumber": "2800", "post:street": "West Mallard Creek Church Road"}}, {"type": "node", "id": 6708895269, "lat": 35.3415287, "lon": -80.7665351}, {"type": "node", "id": 7140112770, "lat": 35.1756392, "lon": -80.8755095}, {"type": "node", "id": 7140112771, "lat": 35.175637, "lon": -80.8751945}, {"type": "node", "id": 7140112772, "lat": 35.1755872, "lon": -80.875195}, {"type": "node", "id": 7140112773, "lat": 35.1755866, "lon": -80.8751041}, {"type": "node", "id": 7140112774, "lat": 35.1756355, "lon": -80.8751036}, {"type": "node", "id": 7140112775, "lat": 35.1756595, "lon": -80.8750543}, {"type": "node", "id": 7140112776, "lat": 35.1759183, "lon": -80.8750494}, {"type": "node", "id": 7140112777, "lat": 35.1759407, "lon": -80.875486}, {"type": "node", "id": 7183230545, "lat": 35.0983945, "lon": -80.7765687, "tags": {"addr:city": "Charlotte", "addr:housenumber": "8035", "addr:postcode": "28277", "addr:state": "NC", "addr:street": "Providence Road", "addr:unit": "300", "amenity": "pharmacy", "dispensing": "yes", "drive_through": "yes", "email": "arboretum@carolinapharmacy.com", "healthcare": "pharmacy", "name": "Carolina Pharmacy", "opening_hours": "Mo-Fr 08:00-18:00; Sa 09:00-13:00", "operator": "Carolina Pharmacy \u2013 Arboretum", "phone": "+1-704-909-4700", "website": "https://carolinapharmacy.com/carolina-pharmacy-arboretum/"}}, {"type": "node", "id": 7798939881, "lat": 35.242513, "lon": -80.779612}, {"type": "node", "id": 7798939882, "lat": 35.242382, "lon": -80.77956}, {"type": "node", "id": 7798939883, "lat": 35.242395, "lon": -80.779509}, {"type": "node", "id": 7798939884, "lat": 35.242371, "lon": -80.7795}, {"type": "node", "id": 7798939885, "lat": 35.242387, "lon": -80.779441}, {"type": "node", "id": 7798939886, "lat": 35.242434, "lon": -80.77946}, {"type": "node", "id": 7798939887, "lat": 35.242455, "lon": -80.779381}, {"type": "node", "id": 7798939888, "lat": 35.242562, "lon": -80.779423}, {"type": "node", "id": 7799239376, "lat": 35.236525, "lon": -80.7385256}, {"type": "node", "id": 7924556153, "lat": 35.2455952, "lon": -80.8925708, "tags": {"amenity": "pharmacy", "brand": "Rite Aid", "brand:wikidata": "Q3433273", "drive_through": "yes", "healthcare": "pharmacy", "name": "Rite Aid"}}, {"type": "node", "id": 8204133332, "lat": 35.1384357, "lon": -80.682156}, {"type": "node", "id": 8204133333, "lat": 35.1388198, "lon": -80.6820661}, {"type": "node", "id": 8204133334, "lat": 35.1388603, "lon": -80.6823245}, {"type": "node", "id": 8204133335, "lat": 35.1384762, "lon": -80.6824144}, {"type": "node", "id": 8518905417, "lat": 35.1151937, "lon": -80.7228016, "tags": {"addr:city": "Matthews", "addr:housenumber": "163", "addr:postcode": "28105", "addr:state": "NC", "addr:street": "South Trade Street", "amenity": "pharmacy", "dispensing": "yes", "entrance": "yes", "healthcare": "pharmacy", "name": "GPS Pharmacy"}}, {"type": "node", "id": 9360495471, "lat": 35.3416852, "lon": -80.7663433}, {"type": "node", "id": 9437773487, "lat": 35.0969761, "lon": -80.7817787, "tags": {"addr:city": "Charlotte", "addr:country": "US", "addr:housenumber": "3209", "addr:postcode": "28226", "addr:state": "NC", "addr:street": "Pineville-Matthews Road", "amenity": "pharmacy", "brand": "Walmart", "brand:wikidata": "Q483551", "dispensing": "yes", "healthcare": "pharmacy", "name": "Walmart Pharmacy", "operator": "Walmart", "operator:wikidata": "Q483551", "operator:wikipedia": "en:Walmart", "ref:walmart": "1452", "website": "https://www.walmart.com/store/1452-charlotte-nc/pharmacy"}}, {"type": "node", "id": 9873193800, "lat": 35.1756135, "lon": -80.8751947}, {"type": "node", "id": 9873193801, "lat": 35.1756129, "lon": -80.8751038}, {"type": "node", "id": 9945645824, "lat": 35.2090417, "lon": -80.8355213, "tags": {"addr:city": "Charlotte", "addr:housenumber": "601", "addr:postcode": "28204", "addr:state": "NC", "addr:street": "South Kings Drive", "addr:unit": "Suite Q", "amenity": "pharmacy", "branch": "Specialty Services", "brand": "CVS Pharmacy", "brand:website": "https://www.cvs.com/", "brand:wikidata": "Q2078880", "dispensing": "yes", "healthcare": "pharmacy", "name": "CVS Pharmacy", "short_name": "CVS"}}, {"type": "node", "id": 10583640005, "lat": 35.1974085, "lon": -80.8688144, "tags": {"addr:city": "Charlotte", "addr:housenumber": "3039", "addr:postcode": "28209", "addr:state": "NC", "addr:street": "South Boulevard", "addr:unit": "Suite F", "amenity": "pharmacy", "description": "the leading family care pharmacy in Charlotte, NC that also offers covid testing services at 3039 South Blvd Suite F, Charlotte, NC 28209", "email": "southend@carolinapharmacy.com", "healthcare": "pharmacy", "image": "https://a4.pbase.com/o12/92/2802892/1/171949905.tiOPxP9O.south-end-charlotte-nc-pharmacy.JPG", "name": "Carolina Pharmacy \u2013 South End", "opening_hours": "Mo-Sa 09:00-18:00", "operator": "Carolina Pharmacy \u2013 South End", "phone": "+1-980-443-4910", "website": "https://carolinapharmacy.com/carolina-pharmacy-southend-charlotte/", "wikidata": "Q13107184", "wikipedia": "en:Pharmacy (shop)"}}, {"type": "node", "id": 11099945151, "lat": 35.2145511, "lon": -80.8345363, "tags": {"amenity": "pharmacy", "brand": "CVS Pharmacy", "brand:website": "https://www.cvs.com/", "brand:wikidata": "Q2078880", "healthcare": "pharmacy", "name": "CVS Pharmacy", "opening_hours": "Mo-Fr 09:00-13:30,14:00-19:00; Sa 10:00-13:30,14:00-18:00; Su 11:00-13:30,14:00-17:00", "short_name": "CVS", "website": "https://www.cvs.com/store-locator/charlotte-nc-pharmacies/900-metropolitan-ave-ste-2-charlotte-nc-28204/storeid=17319"}}, {"type": "node", "id": 11466378296, "lat": 35.2131243, "lon": -80.8183177, "tags": {"amenity": "pharmacy", "healthcare": "pharmacy", "name": "Queen's Pharmacy", "website": "https://www.queenspharmacy7.com"}}, {"type": "node", "id": 11506318369, "lat": 35.2125565, "lon": -80.8297435, "tags": {"amenity": "pharmacy", "brand": "Walgreens", "brand:wikidata": "Q1591889", "healthcare": "pharmacy", "name": "Walgreens"}}, {"type": "node", "id": 13125416753, "lat": 35.2086847, "lon": -80.8598088, "tags": {"amenity": "pharmacy", "healthcare": "pharmacy", "name": "Capsule"}}, {"type": "node", "id": 13131590456, "lat": 35.1759069, "lon": -80.8755283}, {"type": "node", "id": 13131590457, "lat": 35.1756857, "lon": -80.875509}, {"type": "node", "id": 13131590458, "lat": 35.1756859, "lon": -80.8755305}, {"type": "node", "id": 13131590459, "lat": 35.1759374, "lon": -80.8752182}, {"type": "node", "id": 13131590460, "lat": 35.1759205, "lon": -80.8752185}, {"type": "node", "id": 13265797890, "lat": 35.1170205, "lon": -80.8249069, "tags": {"amenity": "pharmacy", "brand": "CVS Pharmacy", "brand:wikidata": "Q2078880", "healthcare": "pharmacy", "name": "CVS Pharmacy", "short_name": "CVS"}}, {"type": "way", "id": 183385509, "nodes": [1937572969, 1937572954, 1937573035, 1937572974, 1937572937, 1937572918, 1937573036, 1937573113, 1937572894, 1937572938, 1937572885, 1937572875, 1937572969], "tags": {"amenity": "pharmacy", "brand": "CVS Pharmacy", "brand:website": "https://www.cvs.com/", "brand:wikidata": "Q2078880", "building": "yes", "dispensing": "yes", "healthcare": "pharmacy", "name": "CVS Pharmacy", "short_name": "CVS", "website": "https://www.cvs.com/store-locator/charlotte-nc-pharmacies/14125-steele-creek-rd-charlotte-nc-28273/storeid=187"}}, {"type": "way", "id": 323176558, "nodes": [3299704987, 3299704961, 3299705020, 3299704917, 3299704851, 3299704348, 3299704392, 3299704429, 3299704430, 3299704602, 3299704601, 3299704987], "tags": {"addr:city": "Matthews", "addr:housenumber": "1220", "addr:postcode": "28105", "addr:state": "NC", "addr:street": "Matthews Township Parkway", "amenity": "pharmacy", "building": "yes", "healthcare": "pharmacy", "height": "21"}}, {"type": "way", "id": 323177377, "nodes": [3299736772, 3299736802, 3299736793, 3299736837, 2869693888, 3299737054, 3299737049, 3299737084, 3299737117, 3299737125, 3299737158, 3299737150, 3299737173, 3299737028, 3299737027, 3299736825, 3299736772], "tags": {"addr:city": "Charlotte", "addr:housenumber": "9835", "addr:postcode": "28270", "addr:state": "NC", "addr:street": "Monroe Road", "amenity": "pharmacy", "brand": "Rite Aid", "brand:wikidata": "Q3433273", "building": "yes", "healthcare": "pharmacy", "height": "22", "name": "Rite Aid", "shop": "chemist"}}, {"type": "way", "id": 323182730, "nodes": [3299706907, 3299707055, 3299707128, 3299707501, 3299707469, 3299707028, 3299707032, 3299706907], "tags": {"addr:city": "Matthews", "addr:housenumber": "1305", "addr:postcode": "28105", "addr:state": "NC", "addr:street": "Matthews Township Parkway", "amenity": "pharmacy", "brand": "CVS Pharmacy", "brand:website": "https://www.cvs.com/", "brand:wikidata": "Q2078880", "building": "yes", "healthcare": "pharmacy", "height": "18", "name": "CVS Pharmacy", "short_name": "CVS", "website": "https://www.cvs.com/store-locator/matthews-nc-pharmacies/1305-matthews-township-pkwy-matthews-nc-28105/storeid=4299"}}, {"type": "way", "id": 323201127, "nodes": [3299800737, 3299800768, 3299800713, 3299800498, 3299800504, 3299799855, 3299800010, 3299800772, 3299800737], "tags": {"addr:city": "Charlotte", "addr:housenumber": "1235", "addr:postcode": "28205", "addr:state": "NC", "addr:street": "Pecan Avenue", "amenity": "pharmacy", "brand": "CVS Pharmacy", "brand:website": "https://www.cvs.com/", "brand:wikidata": "Q2078880", "building": "yes", "dispensing": "yes", "healthcare": "pharmacy", "height": "5", "name": "CVS Pharmacy", "operator": "CVS", "phone": "+1 704 342-0584", "short_name": "CVS", "website": "https://www.cvs.com/store-locator/charlotte-nc-pharmacies/1235-pecan-ave-charlotte-nc-28205/storeid=2571"}}, {"type": "way", "id": 323577647, "nodes": [3303592025, 3303592053, 3303592056, 3303592121, 3303592115, 3303592273, 3303592253, 7799239376, 3303592007, 3303592025], "tags": {"addr:city": "Charlotte", "addr:housenumber": "3080", "addr:postcode": "28215", "addr:state": "NC", "addr:street": "Milton Road", "amenity": "pharmacy", "building": "yes", "height": "20"}}, {"type": "way", "id": 323585685, "nodes": [3303615382, 1828851753, 3303614732, 3303614635, 3303614208, 3303614852, 3303614856, 3303614995, 3303614991, 3303615382], "tags": {"addr:city": "Charlotte", "addr:housenumber": "6110", "addr:postcode": "28215", "addr:state": "NC", "addr:street": "The Plaza", "amenity": "pharmacy", "brand": "CVS Pharmacy", "brand:website": "https://www.cvs.com/", "brand:wikidata": "Q2078880", "building": "yes", "healthcare": "pharmacy", "height": "18", "name": "CVS Pharmacy", "short_name": "CVS", "website": "https://www.cvs.com/store-locator/charlotte-nc-pharmacies/6110-the-plaza-charlotte-nc-28215/storeid=7407"}}, {"type": "way", "id": 432937727, "nodes": [4318625888, 4318625889, 4318625890, 4318625891, 4318625892, 4318625893, 4318625894, 4318625895, 4318625896, 4318625897, 4318625898, 4318625899, 4318625888], "tags": {"amenity": "pharmacy", "brand": "CVS Pharmacy", "brand:website": "https://www.cvs.com/", "brand:wikidata": "Q2078880", "building": "yes", "dispensing": "yes", "healthcare": "pharmacy", "name": "CVS Pharmacy", "short_name": "CVS", "website": "https://www.cvs.com/store-locator/charlotte-nc-pharmacies/1533-south-blvd-charlotte-nc-28203/storeid=3185"}}, {"type": "way", "id": 459628189, "nodes": [2003057886, 4554270871, 4554270873, 4554270874, 2003057886], "tags": {"addr:city": "Charlotte", "addr:housenumber": "2224", "addr:postcode": "28262", "addr:state": "NC", "addr:street": "West Sugar Creek Road", "amenity": "pharmacy", "brand": "Walgreens", "brand:wikidata": "Q1591889", "building": "retail", "dispensing": "no", "healthcare": "pharmacy", "name": "Walgreens"}}, {"type": "way", "id": 554177698, "nodes": [5348379053, 5348379072, 5348379073, 5348379054, 5348379055, 5348379115, 5348379109, 5348379074, 5348379108, 5348379056, 5348379053], "tags": {"amenity": "pharmacy", "brand": "Rite Aid", "brand:wikidata": "Q3433273", "building": "yes", "healthcare": "pharmacy", "name": "Rite Aid"}}, {"type": "way", "id": 556063600, "nodes": [5364185488, 5364185491, 5364185498, 5364185492, 5364185493, 5364185489, 5364185488], "tags": {"addr:city": "Charlotte", "addr:housenumber": "3345", "addr:postcode": "28226", "addr:state": "NC", "addr:street": "Pineville-Matthews Road", "amenity": "pharmacy", "brand": "Rite Aid", "brand:wikidata": "Q3433273", "building": "retail", "healthcare": "pharmacy", "name": "Rite Aid"}}, {"type": "way", "id": 577247973, "nodes": [5534259796, 5534259797, 5534259798, 5534259799, 5534259796], "tags": {"addr:city": "Charlotte", "addr:housenumber": "9314", "addr:postcode": "28227", "addr:state": "NC", "addr:street": "Albemarle Road", "amenity": "pharmacy", "brand": "Rite Aid", "brand:wikidata": "Q3433273", "building": "yes", "dispensing": "yes", "healthcare": "pharmacy", "name": "Rite Aid"}}, {"type": "way", "id": 602291784, "nodes": [5721512220, 5721512221, 5721512224, 5721512227, 5721512222, 5721512223, 5721512220], "tags": {"addr:city": "Charlotte", "addr:housenumber": "8110", "addr:postcode": "28262", "addr:state": "NC", "addr:street": "Mallard Creek Road", "amenity": "pharmacy", "brand": "Rite Aid", "brand:wikidata": "Q3433273", "building": "retail", "dispensing": "yes", "drive_through": "yes", "healthcare": "pharmacy", "name": "Rite Aid"}}, {"type": "way", "id": 713542984, "nodes": [6708895255, 6708895256, 6708895257, 6708895258, 6708895259, 6708895260, 6708895261, 6708895262, 6708895263, 6708895264, 6708895265, 6708895266, 9360495471, 6708895268, 6708895269, 6708895255], "tags": {"addr:city": "Charlotte", "addr:housenumber": "2800", "addr:postcode": "28262", "addr:state": "NC", "addr:street": "West Mallard Creek Church Road", "amenity": "pharmacy", "brand": "Walgreens", "brand:wikidata": "Q1591889", "building": "yes", "dispensing": "yes", "healthcare": "pharmacy", "name": "Walgreens"}}, {"type": "way", "id": 764274023, "nodes": [7140112770, 7140112771, 9873193800, 7140112772, 7140112773, 9873193801, 7140112774, 7140112775, 7140112776, 13131590460, 13131590459, 7140112777, 13131590456, 13131590458, 13131590457, 7140112770], "tags": {"addr:city": "Charlotte", "addr:housenumber": "4701", "addr:postcode": "28209", "addr:state": "NC", "addr:street": "South Boulevard", "amenity": "pharmacy", "brand": "Walgreens", "brand:wikidata": "Q1591889", "building": "yes", "healthcare": "pharmacy", "layer": "1", "name": "Walgreens"}}, {"type": "way", "id": 835548957, "nodes": [7798939881, 7798939882, 7798939883, 7798939884, 7798939885, 7798939886, 7798939887, 7798939888, 7798939881], "tags": {"addr:city": "Charlotte", "addr:housenumber": "1600", "addr:postcode": "28215", "addr:state": "NC", "addr:street": "Purser Drive", "amenity": "pharmacy", "building": "yes", "dispensing": "yes", "healthcare": "pharmacy", "name": "Le's Pharmacy", "source": "microsoft/BuildingFootprints"}}, {"type": "way", "id": 882187463, "nodes": [8204133332, 8204133333, 8204133334, 8204133335, 8204133332], "tags": {"addr:city": "Matthews", "addr:housenumber": "3610", "addr:postcode": "28105", "addr:state": "NC", "addr:street": "Matthews-Mint Hill Road", "amenity": "pharmacy", "brand": "CVS Pharmacy", "brand:website": "https://www.cvs.com/", "brand:wikidata": "Q2078880", "building": "retail", "healthcare": "pharmacy", "name": "CVS Pharmacy", "short_name": "CVS", "website": "https://www.cvs.com/store-locator/matthews-nc-pharmacies/3610-matthews-mint-hill-road-matthews-nc-28105/storeid=7492"}}]}