{"version": 0.6, "generator": "Overpass API 0.7.62.8 e802775f", "osm3s": {"timestamp_osm_base": "2026-01-12T22:34:55Z", "copyright": "The data included in this document is from www.openstreetmap.org. The data is made available under ODbL."}, "elements": [{"type": "node", "id": 677704778, "lat": 35.2932014, "lon": -80.7647703, "tags": {"amenity": "cafe", "branch": "Charlotte Restaurant", "brand": "IKEA", "brand:ru": "\u0418\u041a\u0415\u0410", "brand:wikidata": "Q54078", "cuisine": "coffee_shop", "name": "IKEA Caf\u00e9", "name:ru": "\u0411\u0438\u0441\u0442\u0440\u043e \u0418\u041a\u0415\u0410", "takeaway": "yes"}}, {"type": "node", "id": 1351304652, "lat": 35.2300774, "lon": -80.7917691, "tags": {"amenity": "cafe", "outdoor_seating": "yes"}}, {"type": "node", "id": 1455342826, "lat": 35.1388082, "lon": -80.9229466, "tags": {"addr:housenumber": "8055", "addr:street": "Microsoft Way", "amenity": "cafe", "cuisine": "pizza;burger;regional", "internet_access": "wlan", "internet_access:fee": "no", "name": "MS Cafe", "outdoor_seating": "yes"}}, {"type": "node", "id": 2477161606, "lat": 35.1040546, "lon": -80.940948}, {"type": "node", "id": 2477161607, "lat": 35.1039758, "lon": -80.94087}, {"type": "node", "id": 2477161608, "lat": 35.1039339, "lon": -80.9409333}, {"type": "node", "id": 2477161609, "lat": 35.1040127, "lon": -80.9410114}, {"type": "node", "id": 2490572327, "lat": 35.1015231, "lon": -80.940787}, {"type": "node", "id": 2490572328, "lat": 35.1014466, "lon": -80.9408305}, {"type": "node", "id": 2490572329, "lat": 35.1014134, "lon": -80.9407431}, {"type": "node", "id": 2490572330, "lat": 35.1014899, "lon": -80.9406997}, {"type": "node", "id": 2884481725, "lat": 35.1739589, "lon": -80.8480842, "tags": {"addr:city": "Charlotte", "addr:housenumber": "4245", "addr:postcode": "28209", "addr:state": "NC", "addr:street": "Park Road", "amenity": "cafe", "cuisine": "bakery;cake;cookie;donut;pastry;coffee", "entrance": "yes", "internet_access": "no", "name": "Suarez Bakery", "opening_hours": "Mo-Fr 8:00-18:00; Sa 8:00-17:00", "wheelchair": "yes"}}, {"type": "node", "id": 2990866623, "lat": 35.1280315, "lon": -80.7028922, "tags": {"addr:city": "Matthews", "addr:housenumber": "2233", "addr:postcode": "28105", "addr:state": "NC", "addr:street": "Matthews Township Parkway", "addr:unit": "A", "amenity": "cafe", "branch": "Sycamore Commons", "brand": "Starbucks", "brand:wikidata": "Q37158", "cuisine": "coffee_shop", "internet_access": "wlan", "name": "Starbucks", "official_name": "Starbucks Coffee", "phone": "+1 704-841-1398", "ref": "12589", "smoking": "outside", "takeaway": "yes", "website": "https://www.starbucks.com/store-locator/store/12589/sycamore-commons-2233-matthews-township-parkway-suite-a-matthews-nc"}}, {"type": "node", "id": 3062268416, "lat": 35.2243287, "lon": -80.9406828, "tags": {"amenity": "cafe", "check_date:opening_hours": "2024-09-09", "cost:coffee": "$2.20", "cuisine": "coffee_shop", "fixme:atp": "Check if still exists. No corresponding ATP object.", "indoor_seating": "no", "name": "Dunkin' Express", "opening_hours:signed": "no", "outdoor_seating": "no", "takeaway": "only"}}, {"type": "node", "id": 3298028770, "lat": 35.1740701, "lon": -80.8481873, "tags": {"addr:city": "Charlotte", "addr:housenumber": "4241", "addr:postcode": "28209", "addr:state": "NC", "addr:street": "Park Road", "amenity": "cafe", "entrance": "yes", "name": "Flying Biscuit Cafe"}}, {"type": "node", "id": 3298028786, "lat": 35.175282, "lon": -80.84979, "tags": {"addr:city": "Charlotte", "addr:housenumber": "4121", "addr:postcode": "28209", "addr:state": "NC", "addr:street": "Park Road", "amenity": "cafe", "entrance": "yes", "name": "Park Road Soda Shoppe"}}, {"type": "node", "id": 3298032554, "lat": 35.1712552, "lon": -80.8507121, "tags": {"addr:city": "Charlotte", "addr:housenumber": "4425", "addr:postcode": "28209", "addr:state": "NC", "addr:street": "Park Road", "addr:unit": "100", "amenity": "cafe", "branch": "Park Towne Village", "brand": "Starbucks", "brand:wikidata": "Q37158", "cuisine": "coffee_shop", "name": "Starbucks", "official_name": "Starbucks Coffee", "phone": "+1 704-527-2463", "ref": "14412", "takeaway": "yes", "website": "https://www.starbucks.com/store-locator/store/14412/park-towne-village-4425-park-road-100-charlotte-nc-282093402-us"}}, {"type": "node", "id": 3299797849, "lat": 35.218234, "lon": -80.8117574}, {"type": "node", "id": 3299797888, "lat": 35.2182794, "lon": -80.8118447}, {"type": "node", "id": 3299798008, "lat": 35.2183782, "lon": -80.8116452}, {"type": "node", "id": 3299798053, "lat": 35.2184235, "lon": -80.8117325}, {"type": "node", "id": 3299804019, "lat": 35.2214622, "lon": -80.8219103}, {"type": "node", "id": 3299804029, "lat": 35.22147, "lon": -80.8218786}, {"type": "node", "id": 3299804044, "lat": 35.2214792, "lon": -80.8220999}, {"type": "node", "id": 3299804097, "lat": 35.2215036, "lon": -80.8219903}, {"type": "node", "id": 3299804134, "lat": 35.2215187, "lon": -80.8218969}, {"type": "node", "id": 3299823280, "lat": 35.2298366, "lon": -80.8279097}, {"type": "node", "id": 3299823334, "lat": 35.2298658, "lon": -80.8278438}, {"type": "node", "id": 3299823356, "lat": 35.2298768, "lon": -80.8278562}, {"type": "node", "id": 3299823378, "lat": 35.2298976, "lon": -80.8278014}, {"type": "node", "id": 3299823394, "lat": 35.2299021, "lon": -80.8279834}, {"type": "node", "id": 3299823417, "lat": 35.2299161, "lon": -80.8278222}, {"type": "node", "id": 3299823463, "lat": 35.2299369, "lon": -80.827937}, {"type": "node", "id": 3299823478, "lat": 35.2299451, "lon": -80.8277836}, {"type": "node", "id": 3299823522, "lat": 35.2299641, "lon": -80.8279677}, {"type": "node", "id": 3299823651, "lat": 35.2300303, "lon": -80.8278794}, {"type": "node", "id": 3299874316, "lat": 35.2470892, "lon": -80.8044094}, {"type": "node", "id": 3299874346, "lat": 35.2471285, "lon": -80.804444}, {"type": "node", "id": 3299874418, "lat": 35.24721, "lon": -80.804204}, {"type": "node", "id": 3299874465, "lat": 35.2472492, "lon": -80.8042385}, {"type": "node", "id": 3302844771, "lat": 35.1528134, "lon": -80.8325779, "tags": {"addr:city": "charlotte", "addr:housenumber": "4400", "addr:postcode": "28210", "addr:state": "nc", "addr:street": "sharon road", "amenity": "cafe", "name": "Planet Smoothie"}}, {"type": "node", "id": 3302857079, "lat": 35.1518524, "lon": -80.830803, "tags": {"addr:city": "charlotte", "addr:housenumber": "4400", "addr:postcode": "28210", "addr:state": "nc", "addr:street": "sharon road", "amenity": "cafe", "brand": "Starbucks", "brand:wikidata": "Q37158", "cuisine": "coffee_shop", "name": "Starbucks", "official_name": "Starbucks Coffee", "takeaway": "yes"}}, {"type": "node", "id": 3304497478, "lat": 35.1173588, "lon": -80.8570081, "tags": {"addr:city": "Charlotte", "addr:housename": "Quail Corners Shopping Center", "addr:housenumber": "8428", "addr:postcode": "28210", "addr:state": "NC", "addr:street": "Park Road", "amenity": "cafe", "name": "FABO Coffee Art Bar", "website": "www.fabocafe.com", "wifi": "free"}}, {"type": "node", "id": 3312270626, "lat": 35.1367667, "lon": -80.9042138}, {"type": "node", "id": 3312270690, "lat": 35.1367987, "lon": -80.904283}, {"type": "node", "id": 3312270736, "lat": 35.1368396, "lon": -80.9041552}, {"type": "node", "id": 3312270741, "lat": 35.1368427, "lon": -80.9041619}, {"type": "node", "id": 3312270805, "lat": 35.136888, "lon": -80.9041221}, {"type": "node", "id": 3312270813, "lat": 35.1368915, "lon": -80.9041297}, {"type": "node", "id": 3312271362, "lat": 35.1369317, "lon": -80.9041021}, {"type": "node", "id": 3312271396, "lat": 35.1369633, "lon": -80.9041704}, {"type": "node", "id": 3324105762, "lat": 35.1770271, "lon": -80.7999245, "tags": {"addr:city": "Charlotte", "addr:housenumber": "4450", "addr:postcode": "28211", "addr:state": "NC", "addr:street": "Randolph Road", "addr:unit": "100", "amenity": "cafe", "branch": "Cotswold Village Shops", "brand": "Starbucks", "brand:wikidata": "Q37158", "cuisine": "coffee_shop", "name": "Starbucks", "official_name": "Starbucks Coffee", "phone": "+1 704-442-0333", "ref": "18198", "takeaway": "yes", "website": "https://www.starbucks.com/store-locator/store/18198/cotswold-village-shops-4450-randolph-rd-ste-100-charlotte-nc-282112388-us"}}, {"type": "node", "id": 3407575256, "lat": 35.2276002, "lon": -80.8427981, "tags": {"amenity": "cafe", "brand": "Starbucks", "brand:wikidata": "Q37158", "cost:coffee": "$1.75", "cuisine": "coffee_shop", "name": "Starbucks", "official_name": "Starbucks Coffee", "takeaway": "yes"}}, {"type": "node", "id": 3570910693, "lat": 35.2230737, "lon": -80.9400231, "tags": {"addr:city": "Charlotte", "addr:housenumber": "5501", "addr:postcode": "28208", "addr:state": "NC", "addr:street": "Josh Birmingham Parkway", "amenity": "cafe", "branch": "CLT East Concourse", "brand": "Starbucks", "brand:wikidata": "Q37158", "check_date:opening_hours": "2024-09-06", "cuisine": "coffee_shop", "indoor_seating": "no", "name": "Starbucks", "official_name": "Starbucks Coffee", "opening_hours:signed": "no", "outdoor_seating": "no", "phone": "+1 704-359-4218", "ref": "1007552", "takeaway": "only", "website": "https://www.starbucks.com/store-locator/store/1007552/clt-e-concourse-5501-josh-birmingham-pkwy-charlotte-nc-28208-us"}}, {"type": "node", "id": 3734997153, "lat": 35.3369837, "lon": -80.7547805}, {"type": "node", "id": 3873494103, "lat": 35.3134638, "lon": -80.7430663, "tags": {"addr:city": "Charlotte", "addr:housenumber": "9335", "addr:postcode": "28262", "addr:state": "NC", "addr:street": "North Tryon Street", "addr:unit": "104", "amenity": "cafe", "branch": "Mallard Pointe", "brand": "Starbucks", "brand:wikidata": "Q37158", "cuisine": "coffee_shop", "name": "Starbucks", "official_name": "Starbucks Coffee", "phone": "+1 704-547-1787", "ref": "91705", "takeaway": "yes", "website": "https://www.starbucks.com/store-locator/store/91705/mallard-pointe-9335-north-tryon-street-104-charlotte-nc-282628457"}}, {"type": "node", "id": 3989272362, "lat": 35.2207142, "lon": -80.941843, "tags": {"amenity": "cafe", "check_date:opening_hours": "2024-09-06", "indoor_seating": "yes", "name": "Commonspace", "opening_hours:signed": "no", "outdoor_seating": "no"}}, {"type": "node", "id": 3996545227, "lat": 35.3376386, "lon": -80.7574919, "tags": {"addr:city": "Charlotte", "addr:housenumber": "2121", "addr:postcode": "28262", "addr:state": "NC", "addr:street": "East Arbors Drive", "addr:unit": "110", "amenity": "cafe", "branch": "The Arbors", "brand": "Starbucks", "brand:wikidata": "Q37158", "cuisine": "coffee_shop", "internet_access": "yes", "name": "Starbucks", "official_name": "Starbucks Coffee", "phone": "+1 704-688-0107", "ref": "9702", "takeaway": "yes", "website": "https://www.starbucks.com/store-locator/store/9702/the-arbors-2121-east-arbors-drive-suite-110-charlotte-nc-2826"}}, {"type": "node", "id": 4406134494, "lat": 35.2186285, "lon": -80.942478, "tags": {"addr:city": "Charlotte/Douglas Int'l Airport", "addr:housenumber": "5502", "addr:postcode": "28208", "addr:state": "NC", "addr:street": "Josh Birmingham Parkway", "amenity": "cafe", "branch": "CLT C Concourse", "brand": "Starbucks", "brand:wikidata": "Q37158", "check_date:opening_hours": "2024-09-09", "cuisine": "coffee_shop", "indoor_seating": "no", "name": "Starbucks", "name:en": "Starbucks", "official_name": "Starbucks Coffee", "opening_hours:signed": "no", "outdoor_seating": "no", "phone": "+1 704-359-4546", "ref": "13153", "takeaway": "only", "website": "https://www.starbucks.com/store-locator/store/13153/clt-c-concourse-5502-josh-birmingham-parkway-charlotte-nc-28208574"}}, {"type": "node", "id": 4421369004, "lat": 35.2001316, "lon": -80.870642}, {"type": "node", "id": 4421369005, "lat": 35.1997596, "lon": -80.8706467}, {"type": "node", "id": 4421369006, "lat": 35.1997579, "lon": -80.8704449}, {"type": "node", "id": 4421369007, "lat": 35.1999528, "lon": -80.8704424}, {"type": "node", "id": 4421369008, "lat": 35.1999537, "lon": -80.870546}, {"type": "node", "id": 4421369009, "lat": 35.2001308, "lon": -80.8705437}, {"type": "node", "id": 4672024763, "lat": 35.2336341, "lon": -80.8505073, "tags": {"addr:city": "Charlotte", "addr:country": "US", "addr:housenumber": "800", "addr:postcode": "28202", "addr:state": "NC", "addr:street": "West Trade Street", "addr:unit": "140", "amenity": "cafe", "branch": "Gateway Village", "brand": "Starbucks", "brand:wikidata": "Q37158", "cuisine": "coffee_shop", "internet_access": "wlan", "internet_access:fee": "no", "name": "Starbucks", "official_name": "Starbucks Coffee", "opening_hours": "Mo-Fr 06:00-18:00; Sa,Su 06:30-14:00", "outdoor_seating": "no", "phone": "+1 704-333-4077", "takeaway": "yes", "website": "https://www.starbucks.com/store-locator/store/15608/gateway-village-800-w-trade-st-ste-140-charlotte-nc-282021186-us"}}, {"type": "node", "id": 4693798561, "lat": 35.1366272, "lon": -80.9372014, "tags": {"addr:city": "Charlotte", "addr:housenumber": "8951", "addr:postcode": "28273", "addr:state": "NC", "addr:street": "South Tryon Street", "addr:unit": "A", "amenity": "cafe", "branch": "Whitehall", "brand": "Starbucks", "brand:wikidata": "Q37158", "cuisine": "coffee_shop", "name": "Starbucks", "official_name": "Starbucks Coffee", "phone": "+1 704-504-1832", "ref": "13894", "takeaway": "yes", "website": "https://www.starbucks.com/store-locator/store/13894/whitehall-8951-a-south-tryon-street-charlotte-nc-282734229-u"}}, {"type": "node", "id": 4890756327, "lat": 35.2022185, "lon": -80.824619}, {"type": "node", "id": 4890756328, "lat": 35.2022193, "lon": -80.8245078}, {"type": "node", "id": 4890756329, "lat": 35.2022137, "lon": -80.8245077}, {"type": "node", "id": 4890756330, "lat": 35.2022142, "lon": -80.8244457}, {"type": "node", "id": 4890756331, "lat": 35.2020059, "lon": -80.8244436}, {"type": "node", "id": 4890756332, "lat": 35.2020055, "lon": -80.8245071}, {"type": "node", "id": 4890756333, "lat": 35.201998, "lon": -80.824507}, {"type": "node", "id": 4890756334, "lat": 35.2019972, "lon": -80.8246167}, {"type": "node", "id": 5029791145, "lat": 35.1691804, "lon": -80.9703805}, {"type": "node", "id": 5029791146, "lat": 35.1691328, "lon": -80.9704623}, {"type": "node", "id": 5029791147, "lat": 35.1691094, "lon": -80.9704419}, {"type": "node", "id": 5029791148, "lat": 35.1691057, "lon": -80.9704483}, {"type": "node", "id": 5029791149, "lat": 35.1690856, "lon": -80.9704308}, {"type": "node", "id": 5029791150, "lat": 35.1691114, "lon": -80.9703865}, {"type": "node", "id": 5029791151, "lat": 35.169119, "lon": -80.9703931}, {"type": "node", "id": 5029791152, "lat": 35.1691494, "lon": -80.9703408}, {"type": "node", "id": 5029791153, "lat": 35.1691759, "lon": -80.9703638}, {"type": "node", "id": 5029791154, "lat": 35.169171, "lon": -80.9703723}, {"type": "node", "id": 5141598121, "lat": 35.2184632, "lon": -80.9451328, "tags": {"addr:city": "Host Marriott/Starbucks Coffee", "addr:housenumber": "5501", "addr:postcode": "28208", "addr:state": "NC", "addr:street": "Josh Birmingham Parkway", "amenity": "cafe", "branch": "CLT B Concourse", "brand": "Starbucks", "brand:wikidata": "Q37158", "cuisine": "coffee_shop", "name": "Starbucks", "official_name": "Starbucks Coffee", "phone": "+1 704-359-4982", "ref": "13165", "takeaway": "yes", "website": "https://www.starbucks.com/store-locator/store/13165/clt-b-concourse-5501-josh-birmingham-parkway-charlotte-nc-28208575"}}, {"type": "node", "id": 5141630025, "lat": 35.2204598, "lon": -80.9445901, "tags": {"amenity": "cafe", "brand": "Starbucks", "brand:wikidata": "Q37158", "cuisine": "coffee_shop", "name": "Starbucks", "name:en": "Starbucks", "official_name": "Starbucks Coffee", "takeaway": "yes"}}, {"type": "node", "id": 5141638459, "lat": 35.2208472, "lon": -80.9400032, "tags": {"addr:city": "Charlotte", "addr:housenumber": "5501", "addr:postcode": "28208", "addr:state": "NC", "addr:street": "Josh Birmingham Parkway", "amenity": "cafe", "branch": "CLT D Concourse", "brand": "Starbucks", "brand:wikidata": "Q37158", "cuisine": "coffee_shop", "name": "Starbucks", "name:en": "Starbucks", "official_name": "Starbucks Coffee", "phone": "+1 704-359-4546", "ref": "1016961", "takeaway": "yes", "website": "https://www.starbucks.com/store-locator/store/1016961/clt-d-concourse-5501-josh-birmingham-pkwy-charlotte-nc-28208-us"}}, {"type": "node", "id": 5141638462, "lat": 35.2205355, "lon": -80.9399401, "tags": {"amenity": "cafe", "name": "The Great American Bagel Bakery", "name:en": "The Great American Bagel Bakery"}}, {"type": "node", "id": 5267274537, "lat": 35.200839, "lon": -80.8660143, "tags": {"addr:city": "Charlotte", "addr:housenumber": "2717", "addr:postcode": "28209", "addr:state": "NC", "addr:street": "South Boulevard", "amenity": "cafe", "branch": "Harris Teeter Charlotte 305", "brand": "Starbucks", "brand:wikidata": "Q37158", "cuisine": "coffee_shop", "name": "Starbucks", "official_name": "Starbucks Coffee", "phone": "+1 704-527-1018", "ref": "1019024", "takeaway": "yes", "website": "https://www.starbucks.com/store-locator/store/1019024/harris-teeter-charlotte-305-2717-south-blvd-charlotte-nc-28209-us"}}, {"type": "node", "id": 5270172281, "lat": 35.2213897, "lon": -80.8220733}, {"type": "node", "id": 5270172282, "lat": 35.2214289, "lon": -80.8219008}, {"type": "node", "id": 5299247968, "lat": 35.3269084, "lon": -80.9449317}, {"type": "node", "id": 5299247969, "lat": 35.3267413, "lon": -80.9447142}, {"type": "node", "id": 5299247970, "lat": 35.3268119, "lon": -80.9446104}, {"type": "node", "id": 5301467348, "lat": 35.1004799, "lon": -80.9921162, "tags": {"addr:city": "Charlotte", "addr:housenumber": "13129", "addr:postcode": "28278", "addr:state": "NC", "addr:street": "South Tryon Street", "addr:unit": "100", "amenity": "cafe", "branch": "Highway 49 & Steelecroft Parkway", "brand": "Starbucks", "brand:wikidata": "Q37158", "cuisine": "coffee_shop", "name": "Starbucks", "official_name": "Starbucks Coffee", "phone": "+1 704-588-3062", "ref": "1014353", "takeaway": "yes", "website": "https://www.starbucks.com/store-locator/store/1014353/hwy-49-steelecroft-pkwy-13129-s-tryon-st-suite-100-charlotte-nc-282787915-"}}, {"type": "node", "id": 5613888340, "lat": 35.2161322, "lon": -80.852686, "tags": {"amenity": "cafe", "name": "Lincolns Haberdashery"}}, {"type": "node", "id": 5771953920, "lat": 35.3085327, "lon": -80.7688113, "tags": {"amenity": "cafe", "cuisine": "coffee_shop", "name": "iJava", "smoking": "no"}}, {"type": "node", "id": 5984081502, "lat": 35.1461335, "lon": -80.8314379}, {"type": "node", "id": 5984081503, "lat": 35.1462111, "lon": -80.8314019}, {"type": "node", "id": 5984081504, "lat": 35.1462155, "lon": -80.831416}, {"type": "node", "id": 5984081505, "lat": 35.1462247, "lon": -80.8314118}, {"type": "node", "id": 5984081506, "lat": 35.1462406, "lon": -80.8314632}, {"type": "node", "id": 5984081507, "lat": 35.1462345, "lon": -80.8314661}, {"type": "node", "id": 5984081508, "lat": 35.1462743, "lon": -80.8315945}, {"type": "node", "id": 6067596765, "lat": 35.3105409, "lon": -80.7483946, "tags": {"addr:city": "Charlotte", "addr:housenumber": "9009", "addr:postcode": "28262", "addr:state": "NC", "addr:street": "J M Keynes Drive", "addr:unit": "#4", "amenity": "cafe", "cuisine": "sandwich;ice_cream", "description": "Local Ice Cream Store with Desserts and Food", "internet_access": "no", "name": "Ninteys Ice Cream and Sandwiches", "opening_hours": "Mo-Fr 12:00-22:00", "outdoor_seating": "yes", "smoking": "no"}}, {"type": "node", "id": 6174054687, "lat": 35.2227075, "lon": -80.9474907, "tags": {"amenity": "cafe", "brand": "Starbucks", "brand:wikidata": "Q37158", "cuisine": "coffee_shop", "name": "Starbucks", "official_name": "Starbucks Coffee", "takeaway": "yes"}}, {"type": "node", "id": 6174054690, "lat": 35.2226215, "lon": -80.9479463, "tags": {"amenity": "cafe", "cuisine": "coffee_shop", "name": "NoDa Bar"}}, {"type": "node", "id": 6286050588, "lat": 35.1024712, "lon": -80.9437558}, {"type": "node", "id": 6286050589, "lat": 35.1025529, "lon": -80.9437099}, {"type": "node", "id": 6286050590, "lat": 35.1025293, "lon": -80.9436472}, {"type": "node", "id": 6286050591, "lat": 35.1025052, "lon": -80.9436377}, {"type": "node", "id": 6286050592, "lat": 35.1024564, "lon": -80.9436652}, {"type": "node", "id": 6286050593, "lat": 35.1024486, "lon": -80.9436956}, {"type": "node", "id": 6376981600, "lat": 35.2222397, "lon": -80.8451394, "tags": {"addr:city": "Charlotte", "addr:housenumber": "501", "addr:postcode": "28202", "addr:state": "NC", "addr:street": "South College Street", "amenity": "cafe", "branch": "Charlotte Convention Center", "brand": "Starbucks", "brand:wikidata": "Q37158", "cuisine": "coffee_shop", "name": "Starbucks", "official_name": "Starbucks Coffee", "phone": "+1 704-339-6046", "ref": "8017", "takeaway": "yes", "website": "https://www.starbucks.com/store-locator/store/8017/charlotte-convention-center-501-s-college-st-charlotte-nc-282021827-us", "wheelchair": "yes"}}, {"type": "node", "id": 6439968818, "lat": 35.306488, "lon": -80.721553, "tags": {"amenity": "cafe", "name": "Coffee Cone Cafe"}}, {"type": "node", "id": 6474231422, "lat": 35.2904028, "lon": -80.7653756, "tags": {"addr:city": "Charlotte", "addr:housenumber": "6925", "addr:postcode": "28262", "addr:state": "NC", "addr:street": "University City Boulevard", "addr:unit": "400", "amenity": "cafe", "branch": "Ikea Boulevard", "brand": "Starbucks", "brand:wikidata": "Q37158", "cuisine": "coffee_shop", "name": "Starbucks", "official_name": "Starbucks Coffee", "phone": "+1 980-266-7269", "takeaway": "yes", "website": "https://www.starbucks.com/store-locator/store/1021225/ikea-blvd-6925-university-city-blvd-400-charlotte-nc-2826275"}}, {"type": "node", "id": 6493733562, "lat": 35.2275039, "lon": -80.838117, "tags": {"addr:city": "Charlotte", "addr:country": "US", "addr:housenumber": "224", "addr:postcode": "28202", "addr:state": "NC", "addr:street": "East 7th Street", "amenity": "cafe", "name": "Not Just Coffee", "opening_hours": "Mo-Th 08:00-17:00; Fr,Sa 08:00-18:00; Su 09:00-17:00"}}, {"type": "node", "id": 6530585486, "lat": 35.1041748, "lon": -80.9404337, "tags": {"addr:city": "Charlotte", "addr:housenumber": "14523", "addr:postcode": "28273", "addr:state": "NC", "addr:street": "Carrowinds Boulevard", "amenity": "cafe", "branch": "Carowinds Amusement Park Main", "brand": "Starbucks", "brand:wikidata": "Q37158", "cuisine": "coffee_shop", "name": "Starbucks", "official_name": "Starbucks Coffee", "phone": "+1 704-588-2600", "takeaway": "yes", "website": "https://www.starbucks.com/store-locator/store/1014545/carowinds-amusement-park-main-14523-carowinds-blvd-charlotte-nc-28273-us"}}, {"type": "node", "id": 6530778689, "lat": 35.2421247, "lon": -80.8894487}, {"type": "node", "id": 6530778690, "lat": 35.2420134, "lon": -80.8893343}, {"type": "node", "id": 6530778691, "lat": 35.2419918, "lon": -80.8893657}, {"type": "node", "id": 6530778692, "lat": 35.2420218, "lon": -80.8893964}, {"type": "node", "id": 6530778693, "lat": 35.2419771, "lon": -80.8894615}, {"type": "node", "id": 6530778694, "lat": 35.2420255, "lon": -80.8895112}, {"type": "node", "id": 6530778695, "lat": 35.2420704, "lon": -80.8894457}, {"type": "node", "id": 6530778696, "lat": 35.2421035, "lon": -80.8894797}, {"type": "node", "id": 6561025009, "lat": 35.220454, "lon": -80.9462639, "tags": {"addr:city": "Charlotte", "addr:housenumber": "5501", "addr:postcode": "28208", "addr:state": "NC", "addr:street": "RC Josh Birmingham Parkway", "amenity": "cafe", "branch": "CLT A Concourse", "brand": "Starbucks", "brand:wikidata": "Q37158", "check_date": "2024-12-25", "cuisine": "coffee_shop", "name": "Starbucks", "official_name": "Starbucks Coffee", "phone": "+1 704-359-4546", "ref": "1021837", "takeaway": "yes", "website": "https://www.starbucks.com/store-locator/store/1021837/clt-a-concourse-5501-rc-josh-birmingham-pkwy-charlotte-nc-28208-us"}}, {"type": "node", "id": 6582866236, "lat": 35.1813676, "lon": -80.9153685, "tags": {"amenity": "cafe", "brand": "Starbucks", "brand:wikidata": "Q37158", "contact:website": "https://www.starbucks.com/store-locator/store/1021108/tyvola-and-city-park-3320-potomac-river-parkway-a-charlotte-nc-28217459", "cuisine": "coffee_shop", "drive_through": "yes", "name": "Starbucks", "official_name": "Starbucks Coffee", "outdoor_seating": "yes", "takeaway": "yes"}}, {"type": "node", "id": 6720962112, "lat": 35.22487, "lon": -80.8485584, "tags": {"addr:city": "Charlotte", "addr:housenumber": "135", "addr:postcode": "28202", "addr:state": "NC", "addr:street": "Levine Avenue of the Arts", "addr:unit": "140", "amenity": "cafe", "branch": "Duke Energy Center", "brand": "Starbucks", "brand:wikidata": "Q37158", "cuisine": "coffee_shop", "internet_access": "wlan", "internet_access:fee": "no", "name": "Starbucks", "official_name": "Starbucks Coffee", "outdoor_seating": "yes", "phone": "+1 704-372-6114", "takeaway": "yes", "website": "https://www.starbucks.com/store-locator/store/1005289/duke-energy-center-135-levine-avenue-of-the-arts-suite-140-charlotte-"}}, {"type": "node", "id": 6970539413, "lat": 35.2168791, "lon": -80.8152294}, {"type": "node", "id": 6970539414, "lat": 35.2168661, "lon": -80.8151118}, {"type": "node", "id": 6970539415, "lat": 35.2167131, "lon": -80.8151372}, {"type": "node", "id": 6970539416, "lat": 35.2167261, "lon": -80.8152548}, {"type": "node", "id": 7142260961, "lat": 35.182018, "lon": -80.879858}, {"type": "node", "id": 7142260962, "lat": 35.182108, "lon": -80.880059}, {"type": "node", "id": 7142260963, "lat": 35.181919, "lon": -80.880185}, {"type": "node", "id": 7142260964, "lat": 35.181829, "lon": -80.879984}, {"type": "node", "id": 7170537583, "lat": 35.325049, "lon": -80.9465322, "tags": {"addr:city": "Charlotte", "addr:housenumber": "3611", "addr:postcode": "28216", "addr:state": "NC", "addr:street": "Mount Holly-Huntersville Road", "amenity": "cafe", "name": "Coppa Coffee and Tea Cafe"}}, {"type": "node", "id": 7170572875, "lat": 35.3019241, "lon": -80.7477463, "tags": {"addr:city": "Charlotte", "addr:housenumber": "440", "addr:postcode": "28262", "addr:state": "NC", "addr:street": "East McCullough Drive", "addr:unit": "116", "amenity": "cafe", "level": "0", "name": "Tea Fusion Cafe", "outdoor_seating": "yes"}}, {"type": "node", "id": 7175760286, "lat": 35.1730754, "lon": -80.8479777, "tags": {"amenity": "cafe", "brand": "Caribou Coffee", "brand:wikidata": "Q5039494", "cuisine": "coffee_shop", "entrance": "yes", "internet_access": "yes", "internet_access:fee": "no", "name": "Caribou Coffee", "outdoor_seating": "no", "takeaway": "yes"}}, {"type": "node", "id": 7487156251, "lat": 35.1169999, "lon": -80.8236441, "tags": {"addr:city": "Charlotte", "addr:housenumber": "4100", "addr:postcode": "28226", "addr:state": "NC", "addr:street": "Caramel Road", "addr:unit": "L", "amenity": "cafe", "branch": "Olde Towne Village", "brand": "Starbucks", "brand:wikidata": "Q37158", "cuisine": "coffee_shop", "internet_access": "wlan", "internet_access:fee": "no", "name": "Starbucks", "official_name": "Starbucks Coffee", "opening_hours": "Mo-Su 07:00-22:00", "opening_hours:covid19": "off", "outdoor_seating": "yes", "phone": "+1 704-541-0203", "takeaway": "yes", "website": "https://www.starbucks.com/store-locator/store/11400/olde-towne-village-4100-carmel-road-suite-l-charlotte-nc-282266151-us"}}, {"type": "node", "id": 7804556302, "lat": 35.2052239, "lon": -80.8239347}, {"type": "node", "id": 7804556303, "lat": 35.2053638, "lon": -80.8239776}, {"type": "node", "id": 7804556304, "lat": 35.2053353, "lon": -80.824117}, {"type": "node", "id": 7804556305, "lat": 35.2051953, "lon": -80.8240741}, {"type": "node", "id": 7804569678, "lat": 35.2042625, "lon": -80.8243663}, {"type": "node", "id": 7804569679, "lat": 35.2041471, "lon": -80.8243923}, {"type": "node", "id": 7804569680, "lat": 35.2040914, "lon": -80.8241383}, {"type": "node", "id": 7804569681, "lat": 35.2041218, "lon": -80.8241324}, {"type": "node", "id": 7804569682, "lat": 35.2041256, "lon": -80.8241604}, {"type": "node", "id": 7804569683, "lat": 35.2042324, "lon": -80.8241389}, {"type": "node", "id": 7807635932, "lat": 35.1989, "lon": -80.7953184}, {"type": "node", "id": 7807635933, "lat": 35.1989423, "lon": -80.7954166}, {"type": "node", "id": 7807635934, "lat": 35.1988376, "lon": -80.7954843}, {"type": "node", "id": 7993921638, "lat": 35.336761, "lon": -80.7548073}, {"type": "node", "id": 7993921640, "lat": 35.3369169, "lon": -80.7546681}, {"type": "node", "id": 7993921642, "lat": 35.3368278, "lon": -80.7549197}, {"type": "node", "id": 7993921643, "lat": 35.3369402, "lon": -80.7548193}, {"type": "node", "id": 8085656181, "lat": 35.22506, "lon": -80.8790382}, {"type": "node", "id": 8085656182, "lat": 35.224911, "lon": -80.8790542}, {"type": "node", "id": 8085656183, "lat": 35.224903, "lon": -80.8789502}, {"type": "node", "id": 8085656184, "lat": 35.225052, "lon": -80.8789332}, {"type": "node", "id": 8092426193, "lat": 35.2117072, "lon": -80.6963323}, {"type": "node", "id": 8092426194, "lat": 35.2115095, "lon": -80.6962846}, {"type": "node", "id": 8092426195, "lat": 35.2115395, "lon": -80.696098}, {"type": "node", "id": 8092426196, "lat": 35.2117372, "lon": -80.6961456}, {"type": "node", "id": 8094633897, "lat": 35.1461937, "lon": -80.831632}, {"type": "node", "id": 8108964765, "lat": 35.2125097, "lon": -80.8179219, "tags": {"addr:city": "Charlotte", "addr:housenumber": "1961", "addr:postcode": "28204", "addr:state": "NC", "addr:street": "East 7th Street", "amenity": "cafe", "branch": "7th Street", "brand": "Starbucks", "brand:wikidata": "Q37158", "cuisine": "coffee_shop", "name": "Starbucks", "official_name": "Starbucks Coffee", "phone": "+1 704-333-5880", "ref": "16069", "takeaway": "yes", "website": "https://www.starbucks.com/store-locator/store/16069/7th-street-1961-east-7th-street-charlotte-nc-282042417-us"}}, {"type": "node", "id": 8225215454, "lat": 35.1844389, "lon": -80.7588359, "tags": {"addr:city": "Charlotte", "addr:housenumber": "4404", "addr:postcode": "28212", "addr:state": "NC", "addr:street": "Connection Point Boulevard", "addr:unit": "D", "amenity": "cafe", "branch": "Monroe and Idlewild", "brand": "Starbucks", "brand:wikidata": "Q37158", "cuisine": "coffee_shop", "name": "Starbucks", "official_name": "Starbucks Coffee", "phone": "+1 704-942-5074", "takeaway": "yes", "website": "https://www.starbucks.com/store-locator/store/1026453/monroe-and-idlewild-4044-connection-point-boulevard-d-charlotte-nc-282"}}, {"type": "node", "id": 8268940137, "lat": 35.1014739, "lon": -80.940815}, {"type": "node", "id": 8268940163, "lat": 35.1014582, "lon": -80.9407177}, {"type": "node", "id": 8298958082, "lat": 35.1040035, "lon": -80.9410028}, {"type": "node", "id": 8319200377, "lat": 35.102464, "lon": -80.9437367}, {"type": "node", "id": 8491944003, "lat": 35.1942045, "lon": -80.7953161, "tags": {"addr:city": "Charlotte", "addr:housenumber": "1133", "addr:postcode": "28211", "addr:state": "NC", "addr:street": "North Wendover Road", "air_conditioning": "yes", "amenity": "cafe", "changing_table": "yes", "cuisine": "coffee_shop", "diet:vegan": "yes", "drive_through": "no", "highchair": "yes", "internet_access": "wlan", "internet_access:fee": "customers", "name": "Julia's Caf\u00e9 & Books", "opening_hours": "Mo-Sa 08:00-16:00", "outdoor_seating": "yes", "payment:cash": "yes", "payment:credit_cards": "yes", "payment:debit_cards": "yes", "phone": "+1 704 295 4585", "smoking": "no", "takeaway": "yes", "toilets": "yes", "website": "https://www.juliascafe.org/"}}, {"type": "node", "id": 8764135697, "lat": 35.3403766, "lon": -80.7649956, "tags": {"amenity": "cafe", "name": "BACHI"}}, {"type": "node", "id": 8795514265, "lat": 35.2214851, "lon": -80.8220734}, {"type": "node", "id": 9099545837, "lat": 35.226953, "lon": -80.8420991, "tags": {"amenity": "cafe", "brand": "Caribou Coffee", "brand:wikidata": "Q5039494", "cuisine": "coffee_shop", "level": "1", "name": "Caribou Coffee", "takeaway": "yes"}}, {"type": "node", "id": 9222745717, "lat": 35.2386029, "lon": -80.8160683, "tags": {"addr:city": "Charlotte", "addr:housenumber": "2100", "addr:postcode": "28205", "addr:state": "NC", "addr:street": "North Davidson Street", "addr:unit": "D", "air_conditioning": "yes", "amenity": "cafe", "bar": "yes", "cuisine": "coffee_shop", "internet_access": "yes", "internet_access:fee": "no", "internet_access:password": "funkyfresh", "internet_access:ssid": "HobbyistWiFi-guest", "name": "The Hobbyist", "opening_hours": "Mo-Th 07:30-21:00; Fr 07:30-22:00; Sa 08:00-22:00; Su 08:30-18:00", "phone": "+1-704-993-7144", "toilets": "customers", "website": "https://www.thehobbyistclt.com"}}, {"type": "node", "id": 9313285235, "lat": 35.3269926, "lon": -80.944833}, {"type": "node", "id": 9550362664, "lat": 35.1604874, "lon": -80.8500091, "tags": {"amenity": "cafe", "cuisine": "coffee_shop", "name": "Mugs"}}, {"type": "node", "id": 9897716403, "lat": 35.1715789, "lon": -80.9638799, "tags": {"addr:city": "Charlotte", "addr:housenumber": "4841", "addr:postcode": "28278", "addr:state": "NC", "addr:street": "Shopton Road", "amenity": "cafe", "cuisine": "bubble_tea", "name": "Moji Teahouse", "phone": "+1-704-817-9052"}}, {"type": "node", "id": 9945645826, "lat": 35.2093633, "lon": -80.8356335, "tags": {"addr:city": "Charlotte", "addr:housenumber": "601", "addr:postcode": "28204", "addr:state": "NC", "addr:street": "South Kings Drive", "addr:unit": "Suite K", "amenity": "cafe", "brand": "Gong Cha", "brand:wikidata": "Q5581670", "brand:zh": "\u8ca2\u8336", "cuisine": "bubble_tea", "int_name": "Gong Cha", "name": "Gong Cha", "name:zh": "\u8ca2\u8336", "phone": "+1-980-613-8712", "takeaway": "yes"}}, {"type": "node", "id": 9980207191, "lat": 35.295786, "lon": -80.7418609}, {"type": "node", "id": 9980207192, "lat": 35.2959306, "lon": -80.7415406}, {"type": "node", "id": 9980207193, "lat": 35.2958502, "lon": -80.7414862}, {"type": "node", "id": 9980207194, "lat": 35.2958439, "lon": -80.7415001}, {"type": "node", "id": 9980207195, "lat": 35.2958008, "lon": -80.7414709}, {"type": "node", "id": 9980207196, "lat": 35.2957874, "lon": -80.7415007}, {"type": "node", "id": 9980207197, "lat": 35.2957434, "lon": -80.7414709}, {"type": "node", "id": 9980207198, "lat": 35.295655, "lon": -80.7416667}, {"type": "node", "id": 9980207199, "lat": 35.2956282, "lon": -80.7416485}, {"type": "node", "id": 9980207200, "lat": 35.2956048, "lon": -80.7417005}, {"type": "node", "id": 9980207201, "lat": 35.2956215, "lon": -80.7417493}, {"type": "node", "id": 10013736121, "lat": 35.2012969, "lon": -80.8434241, "tags": {"addr:city": "Charlotte", "addr:housenumber": "1401", "addr:postcode": "28203", "addr:state": "NC", "addr:street": "East Boulevard", "amenity": "cafe", "branch": "East Boulevard", "brand": "Starbucks", "brand:wikidata": "Q37158", "cuisine": "coffee_shop", "name": "Starbucks", "official_name": "Starbucks Coffee", "phone": "+1 704-338-9911", "ref": "17711", "takeaway": "yes", "website": "https://www.starbucks.com/store-locator/store/17711/east-blvd-1401-east-boulevard-charlotte-nc-282035817-us"}}, {"type": "node", "id": 10053839612, "lat": 35.1382599, "lon": -80.6834023}, {"type": "node", "id": 10053839613, "lat": 35.1382704, "lon": -80.6833598}, {"type": "node", "id": 10053839614, "lat": 35.1382337, "lon": -80.6834225}, {"type": "node", "id": 10053839615, "lat": 35.1383168, "lon": -80.6833585}, {"type": "node", "id": 10053839616, "lat": 35.1383667, "lon": -80.6834555}, {"type": "node", "id": 10053839617, "lat": 35.1382836, "lon": -80.6835195}, {"type": "node", "id": 10053839619, "lat": 35.1383488, "lon": -80.6834693}, {"type": "node", "id": 10121775145, "lat": 35.2189649, "lon": -80.8110231}, {"type": "node", "id": 10121775148, "lat": 35.2189932, "lon": -80.8110231}, {"type": "node", "id": 10121775202, "lat": 35.2189627, "lon": -80.811181}, {"type": "node", "id": 10121775205, "lat": 35.2189937, "lon": -80.8109667}, {"type": "node", "id": 10121775206, "lat": 35.2189489, "lon": -80.8109658}, {"type": "node", "id": 10121775207, "lat": 35.2188417, "lon": -80.811049}, {"type": "node", "id": 10121775208, "lat": 35.2189224, "lon": -80.8112136}, {"type": "node", "id": 10614857435, "lat": 35.2136145, "lon": -80.8262052, "tags": {"addr:city": "Charlotte", "addr:housenumber": "1609", "addr:postcode": "28204", "addr:state": "NC", "addr:street": "Elizabeth Avenue", "amenity": "cafe", "bar": "yes", "cuisine": "coffee_shop;breakfast;pastry;sandwich", "drink:beer": "yes", "drink:coffee": "yes", "drink:wine": "yes", "email": "info@thepeoplesmarket.co", "name": "The People's Market - Elizabeth", "opening_hours": "Mo-Fr 07:00-20:00; Sa 08:00-20:00; Su 08:00-17:00", "outdoor_seating": "yes", "phone": "+1-980-237-8737", "website": "https://thepeoplesmarket.co/"}}, {"type": "node", "id": 10768573106, "lat": 35.2277041, "lon": -80.8433215, "tags": {"addr:city": "Charlotte", "addr:housenumber": "100", "addr:postcode": "28202", "addr:state": "NC", "addr:street": "West Trade Street", "amenity": "cafe", "cuisine": "coffee_shop", "level": "0", "name": "Coco and the Director", "not:brand:wikidata": "Q65084369", "phone": "+1-704-353-6003", "takeaway": "yes"}}, {"type": "node", "id": 10768887605, "lat": 35.2325716, "lon": -80.8374801, "tags": {"addr:housenumber": "644", "addr:postcode": "28202", "addr:street": "North Church Street", "amenity": "cafe", "internet_access": "wlan", "name": "Queen City Grounds", "phone": "+1-704-324-3231", "website": "https://queencitygrounds.com/"}}, {"type": "node", "id": 10828034330, "lat": 35.2124149, "lon": -80.8354854, "tags": {"addr:city": "Charlotte", "addr:housenumber": "1111", "addr:postcode": "28204", "addr:state": "NC", "addr:street": "Metropolitan Avenue", "addr:unit": "160", "amenity": "cafe", "cuisine": "coffee_shop", "internet_access": "yes", "name": "Waterbean Coffee", "phone": "+1-704-464-8888", "website": "https://www.waterbeancoffee.com/"}}, {"type": "node", "id": 10844433330, "lat": 35.2008934, "lon": -80.7734731}, {"type": "node", "id": 10844433331, "lat": 35.2010456, "lon": -80.773415}, {"type": "node", "id": 10844433332, "lat": 35.2010779, "lon": -80.773542}, {"type": "node", "id": 10844433333, "lat": 35.2009257, "lon": -80.7736}, {"type": "node", "id": 10853533396, "lat": 35.2107728, "lon": -80.8606196, "tags": {"amenity": "cafe", "name": "Bitty & Beau's Coffee"}}, {"type": "node", "id": 10874174393, "lat": 35.3335324, "lon": -80.8120592}, {"type": "node", "id": 10874174394, "lat": 35.3335487, "lon": -80.8119664}, {"type": "node", "id": 10874174395, "lat": 35.3333635, "lon": -80.8119173}, {"type": "node", "id": 10874174396, "lat": 35.3333475, "lon": -80.8120078}, {"type": "node", "id": 10874174397, "lat": 35.3333834, "lon": -80.8120174}, {"type": "node", "id": 10874174398, "lat": 35.3333794, "lon": -80.8120402}, {"type": "node", "id": 10874174399, "lat": 35.3334008, "lon": -80.8120459}, {"type": "node", "id": 10874174400, "lat": 35.3334044, "lon": -80.8120253}, {"type": "node", "id": 10965533885, "lat": 35.1619648, "lon": -80.9711294}, {"type": "node", "id": 10965533886, "lat": 35.1619226, "lon": -80.9711608}, {"type": "node", "id": 10965533887, "lat": 35.1619278, "lon": -80.9711712}, {"type": "node", "id": 10965533888, "lat": 35.1618998, "lon": -80.971192}, {"type": "node", "id": 10965533889, "lat": 35.1618832, "lon": -80.9711587}, {"type": "node", "id": 10965533890, "lat": 35.1618875, "lon": -80.9711555}, {"type": "node", "id": 10965533891, "lat": 35.1617842, "lon": -80.9709482}, {"type": "node", "id": 10965533892, "lat": 35.161829, "lon": -80.9709148}, {"type": "node", "id": 10965533893, "lat": 35.1618258, "lon": -80.9709085}, {"type": "node", "id": 10965533894, "lat": 35.1618516, "lon": -80.9708893}, {"type": "node", "id": 10965533895, "lat": 35.1618681, "lon": -80.9709225}, {"type": "node", "id": 10965533896, "lat": 35.1618635, "lon": -80.9709259}, {"type": "node", "id": 10965747082, "lat": 35.2262134, "lon": -80.8428691, "tags": {"addr:city": "Charlotte", "addr:housenumber": "101", "addr:postcode": "28280", "addr:state": "NC", "addr:street": "South Tryon Street", "amenity": "cafe", "branch": "101 South Tryon", "brand": "Starbucks", "brand:wikidata": "Q37158", "cuisine": "coffee_shop", "level": "1", "name": "Starbucks", "official_name": "Starbucks Coffee", "phone": "+1 704-374-9519", "ref": "14918", "takeaway": "yes", "website": "https://www.starbucks.com/store-locator/store/14918/101-south-tryon-101-s-tryon-street-charlotte-nc-282800002-us"}}, {"type": "node", "id": 11006244550, "lat": 35.2280688, "lon": -80.8445064, "tags": {"addr:city": "Charlotte", "addr:housenumber": "201", "addr:postcode": "28202", "addr:state": "NC", "addr:street": "West Trade Street", "amenity": "cafe", "branch": "Grand Bohemian Charlotte", "brand": "Starbucks", "brand:wikidata": "Q37158", "cuisine": "coffee_shop", "name": "Starbucks", "official_name": "Starbucks Coffee", "phone": "+1 704-372-1877", "ref": "1027954", "takeaway": "yes", "website": "https://www.starbucks.com/store-locator/store/1027954/grand-bohemian-charlotte-201-west-trade-street-charlotte-nc-28202-us"}}, {"type": "node", "id": 11048476206, "lat": 35.2259814, "lon": -80.8232951, "tags": {"addr:housenumber": "932", "addr:postcode": "28205", "addr:street": "Seigle Avenue", "amenity": "cafe", "contact:instagram": "changepleaseusa", "internet_access": "wlan", "name": "Change Please", "opening_hours": "Mo-Fr 07:00-14:00; Sa 09:00-16:00", "website": "https://changeplease-us.org/"}}, {"type": "node", "id": 11050048012, "lat": 35.2347412, "lon": -80.8215861, "tags": {"amenity": "cafe", "cuisine": "coffee_shop", "name": "Dyad Coffee"}}, {"type": "node", "id": 11054082607, "lat": 35.2405408, "lon": -80.8145294, "tags": {"amenity": "cafe", "cuisine": "coffee_shop", "name": "& Coffee"}}, {"type": "node", "id": 11077450621, "lat": 35.2470573, "lon": -80.8053931, "tags": {"addr:city": "Charlotte", "addr:housenumber": "3204", "addr:postcode": "28205", "addr:state": "NC", "addr:street": "North Davidson Street", "amenity": "cafe", "cafe": "cat_cafe", "level": "1", "name": "Mac Tabby", "theme": "cat", "website": "https://www.mactabby.com/", "wheelchair": "no"}}, {"type": "node", "id": 11077723572, "lat": 35.2301878, "lon": -80.8390824, "tags": {"amenity": "cafe", "name": "Crunch Bistro"}}, {"type": "node", "id": 11221504888, "lat": 35.1629159, "lon": -80.8866379, "tags": {"addr:city": "charlotte", "addr:housenumber": "436", "addr:postcode": "28217", "addr:state": "NC", "addr:street": "Tyvola Road", "amenity": "cafe", "branch": "I-77 & Tyvola", "brand": "Starbucks", "brand:wikidata": "Q37158", "cuisine": "coffee_shop", "name": "Starbucks", "official_name": "Starbucks Coffee", "phone": "+1 704-981-2308", "ref": "1032780", "takeaway": "yes", "website": "https://www.starbucks.com/store-locator/store/1032780/i-77-tyvola-436-tyvola-road-charlotte-nc-282173560-us"}}, {"type": "node", "id": 11237256138, "lat": 35.1858644, "lon": -80.8755145}, {"type": "node", "id": 11237256139, "lat": 35.1857815, "lon": -80.8755149}, {"type": "node", "id": 11237256140, "lat": 35.1857814, "lon": -80.8754771}, {"type": "node", "id": 11237256141, "lat": 35.1858643, "lon": -80.8754766}, {"type": "node", "id": 11241335106, "lat": 35.1987952, "lon": -80.7953861}, {"type": "node", "id": 11454603808, "lat": 35.2092908, "lon": -80.8608994, "tags": {"amenity": "cafe", "cuisine": "coffee_shop", "internet_access": "wlan", "internet_access:fee": "no", "name": "Not Just Coffee", "opening_hours": "Mo-Fr 07:00-18:00;Sa-Su 7:30-18:00", "power_supply": "yes", "website": "https://www.notjust.coffee"}}, {"type": "node", "id": 11514694799, "lat": 35.2389257, "lon": -80.8719356, "tags": {"addr:city": "Charlotte", "addr:housenumber": "919", "addr:postcode": "28208", "addr:state": "NC", "addr:street": "Berryhill Road", "amenity": "cafe", "cuisine": "coffee_shop", "name": "Coffee at Station West"}}, {"type": "node", "id": 11514694805, "lat": 35.2350097, "lon": -80.8727087, "tags": {"addr:city": "Charlotte", "addr:housenumber": "1026", "addr:postcode": "28208", "addr:state": "NC", "addr:street": "Jay Street", "amenity": "cafe", "name": "Not Just Coffee", "website": "https://www.notjust.coffee/"}}, {"type": "node", "id": 11546964910, "lat": 35.2025471, "lon": -80.8659146, "tags": {"addr:city": "Charlotte", "addr:housenumber": "125", "addr:postcode": "28203", "addr:state": "NC", "addr:street": "Remount Road", "amenity": "cafe", "cuisine": "coffee_shop", "internet_access": "yes", "internet_access:fee": "customers", "name": "Stable Hand", "website": "https://www.stablehandclt.com"}}, {"type": "node", "id": 11548492895, "lat": 35.1991141, "lon": -80.8524755, "tags": {"amenity": "cafe", "cuisine": "coffee_shop", "name": "Not Just Coffee"}}, {"type": "node", "id": 11596375111, "lat": 35.2140055, "lon": -80.7825133, "tags": {"addr:city": "Charlotte", "addr:housenumber": "3102", "addr:postcode": "28205", "addr:state": "NC", "addr:street": "Eastway Drive", "amenity": "cafe", "name": "VisArt Cafe", "opening_hours": "Mo-Fr 07:30-19:30; Sa 08:00-20:00; Su 12:00-18:00", "outdoor_seating": "yes"}}, {"type": "node", "id": 11603367348, "lat": 35.2040953, "lon": -80.824312}, {"type": "node", "id": 11603367349, "lat": 35.2041321, "lon": -80.8243063}, {"type": "node", "id": 11627463513, "lat": 35.2210105, "lon": -80.8180088, "tags": {"amenity": "cafe", "cuisine": "coffee_shop", "name": "Haraz Coffee House", "opening_hours": "Mo-Fr 06:00-23:00; Sa-Su 07:00-23:00", "phone": "+1-980-207-1781"}}, {"type": "node", "id": 11627463515, "lat": 35.2210343, "lon": -80.8181367, "tags": {"amenity": "cafe", "cuisine": "bubble_tea", "name": "Tsa\u00f4caa", "website": "https://www.tsaocaatea.com"}}, {"type": "node", "id": 11633438736, "lat": 35.2340109, "lon": -80.8274578, "tags": {"amenity": "cafe", "cuisine": "coffee_shop", "name": "Undercurrent Coffee"}}, {"type": "node", "id": 11702247043, "lat": 35.2189646, "lon": -80.811046, "tags": {"entrance": "yes"}}, {"type": "node", "id": 11702247045, "lat": 35.2189339, "lon": -80.8109774, "tags": {"entrance": "yes"}}, {"type": "node", "id": 11702247046, "lat": 35.2189563, "lon": -80.8111862, "tags": {"entrance": "yes"}}, {"type": "node", "id": 11747171291, "lat": 35.2383995, "lon": -80.8208683, "tags": {"addr:city": "Charlotte", "addr:housenumber": "1824", "addr:postcode": "28206", "addr:state": "NC", "addr:street": "North Brevard Street", "amenity": "cafe", "cuisine": "coffee_shop", "name": "Night Swim Coffee", "website": "https://nightswimcoffee.com/"}}, {"type": "node", "id": 11759389440, "lat": 35.2357124, "lon": -80.8048217, "tags": {"amenity": "cafe", "cuisine": "coffee_shop", "name": "Summit Coffee"}}, {"type": "node", "id": 11822949150, "lat": 35.0932914, "lon": -80.9354087}, {"type": "node", "id": 11822949151, "lat": 35.0932124, "lon": -80.9353895}, {"type": "node", "id": 11822949152, "lat": 35.0932529, "lon": -80.9351412}, {"type": "node", "id": 11822949153, "lat": 35.0933319, "lon": -80.9351604}, {"type": "node", "id": 11833480110, "lat": 35.2299632, "lon": -80.8394478, "tags": {"addr:city": "Charlotte", "addr:housenumber": "401", "addr:postcode": "28202", "addr:state": "NC", "addr:street": "North Tryon Street", "addr:unit": "106", "amenity": "cafe", "cuisine": "coffee_shop", "name": "Cakeable Cafe", "website": "https://wearecakeable.org"}}, {"type": "node", "id": 11869433996, "lat": 35.1681637, "lon": -80.8751155, "tags": {"addr:city": "Charlotte", "addr:housenumber": "5033", "addr:postcode": "28217", "addr:state": "NC", "addr:street": "South Boulevard", "amenity": "cafe", "cuisine": "coffee_shop", "name": "Madison Perk Coffee Bar", "website": "https://www.themadperk.com/"}}, {"type": "node", "id": 11874448227, "lat": 35.1470753, "lon": -80.8090311, "tags": {"amenity": "cafe", "brand": "Caribou Coffee", "brand:wikidata": "Q5039494", "cuisine": "coffee_shop", "name": "Caribou Coffee", "takeaway": "yes"}}, {"type": "node", "id": 11922962657, "lat": 35.191673, "lon": -80.8757343, "tags": {"amenity": "cafe", "cuisine": "coffee_shop", "name": "Thousand Hills Coffee"}}, {"type": "node", "id": 11923121748, "lat": 35.2195882, "lon": -80.8538419, "tags": {"addr:city": "Charlotte", "addr:housenumber": "300", "addr:postcode": "28202", "addr:state": "NC", "addr:street": "South Tryon Street", "addr:unit": "Suite 150", "amenity": "cafe", "cuisine": "coffee_shop", "name": "Waterbean Coffee", "website": "https://www.waterbean.coffee"}}, {"type": "node", "id": 11925799788, "lat": 35.2168279, "lon": -80.8151181}, {"type": "node", "id": 11961114943, "lat": 35.3459271, "lon": -80.8867123}, {"type": "node", "id": 11961114944, "lat": 35.3458157, "lon": -80.8866909}, {"type": "node", "id": 11961114945, "lat": 35.345822, "lon": -80.8866415}, {"type": "node", "id": 11961114946, "lat": 35.3459335, "lon": -80.8866629}, {"type": "node", "id": 11976202927, "lat": 35.2427841, "lon": -80.8232164}, {"type": "node", "id": 11976202928, "lat": 35.2426542, "lon": -80.8233572}, {"type": "node", "id": 11976202929, "lat": 35.2425919, "lon": -80.8232686}, {"type": "node", "id": 11976202930, "lat": 35.2427163, "lon": -80.8231212}, {"type": "node", "id": 11976202931, "lat": 35.2427354, "lon": -80.8231477}, {"type": "node", "id": 11976202932, "lat": 35.2427456, "lon": -80.8231367}, {"type": "node", "id": 11976202933, "lat": 35.2427693, "lon": -80.8231695}, {"type": "node", "id": 11976202934, "lat": 35.2427586, "lon": -80.8231812}, {"type": "node", "id": 11976211898, "lat": 35.2426053, "lon": -80.8232872}, {"type": "node", "id": 12070816300, "lat": 35.250445, "lon": -80.7970438, "tags": {"amenity": "cafe", "cuisine": "coffee_shop", "name": "Crown Station"}}, {"type": "node", "id": 12081725012, "lat": 35.265412, "lon": -80.8819255}, {"type": "node", "id": 12081725013, "lat": 35.2652539, "lon": -80.8818618}, {"type": "node", "id": 12081725014, "lat": 35.2652851, "lon": -80.8817408}, {"type": "node", "id": 12081725015, "lat": 35.2654447, "lon": -80.8818045}, {"type": "node", "id": 12081725016, "lat": 35.2654291, "lon": -80.881858}, {"type": "node", "id": 12081725017, "lat": 35.2654447, "lon": -80.8818631}, {"type": "node", "id": 12081725018, "lat": 35.2654354, "lon": -80.8819038}, {"type": "node", "id": 12081725019, "lat": 35.2654203, "lon": -80.8818987}, {"type": "node", "id": 12138831596, "lat": 35.1943486, "lon": -80.8266994, "tags": {"addr:city": "Charlotte", "addr:housenumber": "1501", "addr:postcode": "28207", "addr:state": "NC", "addr:street": "Queens Road", "amenity": "cafe", "contact:instagram": "highergroundsclt", "cuisine": "coffee_shop", "name": "Higher Grounds"}}, {"type": "node", "id": 12165902693, "lat": 35.2188524, "lon": -80.9423274, "tags": {"amenity": "cafe", "check_date:opening_hours": "2024-09-09", "indoor_seating": "yes", "name": "Beatrix Market", "opening_hours:signed": "no", "outdoor_seating": "no"}}, {"type": "node", "id": 12193127343, "lat": 35.2147813, "lon": -80.7828814, "tags": {"addr:city": "Charlotte", "addr:housenumber": "3646", "addr:postcode": "28205", "addr:state": "NC", "addr:street": "Central Avenue", "amenity": "cafe", "cuisine": "coffee_shop", "name": "Neighborhood Coffee Roasters", "opening_hours": "Mo-Fr 08:00-13:00"}}, {"type": "node", "id": 12193549347, "lat": 35.2465347, "lon": -80.8063206, "tags": {"amenity": "cafe", "cuisine": "dessert", "name": "Ricko\u2019s Churro Bar", "opening_hours": "Tu-Sa 11:00-21:00; Su 11:00-18:00", "takeaway": "yes"}}, {"type": "node", "id": 12228628128, "lat": 35.2190659, "lon": -80.8119058, "tags": {"amenity": "cafe", "cuisine": "tea;ice_cream", "name": "Ocha Time"}}, {"type": "node", "id": 12277315636, "lat": 35.2199567, "lon": -80.8106483, "tags": {"amenity": "cafe", "brand": "Starbucks", "brand:wikidata": "Q37158", "cuisine": "coffee_shop", "name": "Starbucks", "official_name": "Starbucks Coffee", "takeaway": "yes"}}, {"type": "node", "id": 12277315637, "lat": 35.1957905, "lon": -80.8267085, "tags": {"amenity": "cafe", "brand": "Starbucks", "brand:wikidata": "Q37158", "cuisine": "coffee_shop", "name": "Starbucks", "official_name": "Starbucks Coffee", "takeaway": "yes"}}, {"type": "node", "id": 12277427942, "lat": 35.2260041, "lon": -80.8459563, "tags": {"amenity": "cafe", "cuisine": "coffee_shop", "name": "Waterbean Coffee"}}, {"type": "node", "id": 12327899330, "lat": 35.2234777, "lon": -80.8478257, "tags": {"addr:city": "Charlotte", "addr:housenumber": "525", "addr:postcode": "28202", "addr:state": "NC", "addr:street": "South Tryon Street", "addr:unit": "#100", "amenity": "cafe", "cuisine": "coffee_shop", "name": "Milkbread", "website": "https://www.milkbread.com"}}, {"type": "node", "id": 12425522038, "lat": 35.1862922, "lon": -80.8761106, "tags": {"amenity": "cafe", "brand": "Kung Fu Tea", "brand:wikidata": "Q66023886", "cuisine": "bubble_tea", "name": "Kung Fu Tea", "shop": "tea", "takeaway": "yes"}}, {"type": "node", "id": 12461596814, "lat": 35.2198091, "lon": -80.8577481, "tags": {"amenity": "cafe", "cuisine": "coffee_shop", "name": "Killer Coffee"}}, {"type": "node", "id": 12505635376, "lat": 35.2237763, "lon": -80.8497744, "tags": {"amenity": "cafe", "cuisine": "coffee_shop", "name": "Night Swim Coffee", "website": "https://nightswimcoffee.com"}}, {"type": "node", "id": 12553259313, "lat": 35.221132, "lon": -80.813188, "tags": {"addr:city": "Charlotte", "addr:housenumber": "1318", "addr:postcode": "28205", "addr:state": "NC", "addr:street": "Pecan Avenue", "amenity": "cafe", "cuisine": "coffee_shop;arab", "internet_access": "yes", "internet_access:fee": "no", "internet_access:password": "Qahwahclt1", "level": "0", "name": "Qahwah House", "website": "https://qahwahhouse.com"}}, {"type": "node", "id": 12599393407, "lat": 35.2298462, "lon": -80.8279205, "tags": {"entrance": "yes"}}, {"type": "node", "id": 12599393408, "lat": 35.2299263, "lon": -80.8278086, "tags": {"entrance": "yes"}}, {"type": "node", "id": 12599393414, "lat": 35.2300131, "lon": -80.8279024, "tags": {"entrance": "yes"}}, {"type": "node", "id": 12638766035, "lat": 35.2287009, "lon": -80.8345049, "tags": {"amenity": "cafe", "cuisine": "coffee_shop", "email": "providedcoffee@gmail.com", "name": "Provided Coffee", "opening_hours": "Tu-Su 08:00-14:00", "phone": "+1-980-781-0045", "website": "https://www.providedcoffee.com"}}, {"type": "node", "id": 12714779731, "lat": 35.2113559, "lon": -80.869505, "tags": {"addr:city": "Charlotte", "addr:housenumber": "536", "addr:postcode": "28203", "addr:state": "NC", "addr:street": "West Tremont Avenue", "addr:unit": "102", "amenity": "cafe", "contact:instagram": "https://www.instagram.com/summitcoffee", "cuisine": "coffee_shop", "email": "wilmore@summitcoffee.com", "name": "Summit Coffee", "opening_hours": "Mo-Su 07:00-17:00", "website": "https://www.summitcoffee.com/wilmore"}}, {"type": "node", "id": 12772338407, "lat": 35.24836, "lon": -80.8049386, "tags": {"addr:city": "Charlotte", "addr:housenumber": "423", "addr:postcode": "28205", "addr:state": "NC", "addr:street": "East 36th Street", "addr:unit": "B", "amenity": "cafe", "cuisine": "coffee_shop", "name": "Waterbean Coffee", "opening_hours": "Mo-Su 07:00-19:00", "phone": "+1-704-595-3656", "website": "https://www.waterbean.coffee"}}, {"type": "node", "id": 12772338443, "lat": 35.2457122, "lon": -80.8077623}, {"type": "node", "id": 12772338444, "lat": 35.2456939, "lon": -80.8077489}, {"type": "node", "id": 12772338445, "lat": 35.2457089, "lon": -80.8077182}, {"type": "node", "id": 12772338446, "lat": 35.2457272, "lon": -80.8077316}, {"type": "node", "id": 12856751125, "lat": 35.3110176, "lon": -80.7454622, "tags": {"amenity": "cafe", "cuisine": "coffee_shop", "name": "Qamaria Yemeni Coffee Co."}}, {"type": "node", "id": 12861799855, "lat": 35.2174421, "lon": -80.8564416, "tags": {"addr:city": "Charlotte", "addr:housenumber": "1425", "addr:postcode": "28203", "addr:state": "NC", "addr:street": "Winnifred Street", "addr:unit": "117", "amenity": "cafe", "cuisine": "coffee_shop", "name": "Babaloo Coffee Club"}}, {"type": "node", "id": 13002620838, "lat": 35.2516592, "lon": -80.8079316, "tags": {"addr:city": "Charlotte", "addr:housenumber": "136", "addr:postcode": "28206", "addr:state": "NC", "addr:street": "East 36th Street", "amenity": "cafe", "cuisine": "french", "name": "Amelie\u2019s French Bakery and Cafe", "phone": "+1-704-376-1781", "source": "microsoft/BuildingFootprints", "website": "https://www.ameliesfrenchbakery.com"}}, {"type": "node", "id": 13010054056, "lat": 35.1933311, "lon": -80.8731331, "tags": {"addr:city": "Charlotte", "addr:housenumber": "3441", "addr:postcode": "28209", "addr:state": "NC", "addr:street": "South Boulevard", "addr:unit": "C", "amenity": "cafe", "cuisine": "coffee_shop", "internet_access": "yes", "internet_access:fee": "no", "name": "Haraz Coffee House", "website": "https://harazcoffeehouse.com"}}, {"type": "node", "id": 13014827583, "lat": 35.1746264, "lon": -80.8398508, "tags": {"addr:city": "Charlotte", "addr:housenumber": "2820", "addr:postcode": "28209", "addr:state": "NC", "addr:street": "Selwyn Avenue", "amenity": "cafe", "cuisine": "coffee_shop;breakfast;pastry;sandwich", "drink:beer": "yes", "drink:coffee": "yes", "drink:wine": "yes", "email": "info@thepeoplesmarket.co", "name": "The People's Market - Selwyn", "website": "https://thepeoplesmarket.co"}}, {"type": "node", "id": 13046971479, "lat": 35.1911159, "lon": -80.7970433, "tags": {"amenity": "cafe", "brand": "Starbucks", "brand:wikidata": "Q37158", "cuisine": "coffee_shop", "name": "Starbucks", "official_name": "Starbucks Coffee", "takeaway": "yes"}}, {"type": "node", "id": 13049092943, "lat": 35.3350319, "lon": -80.7543455}, {"type": "node", "id": 13049092944, "lat": 35.3349985, "lon": -80.7542569}, {"type": "node", "id": 13049092945, "lat": 35.3348122, "lon": -80.7543627}, {"type": "node", "id": 13049092946, "lat": 35.334846, "lon": -80.7544522}, {"type": "node", "id": 13049092947, "lat": 35.3348833, "lon": -80.754431}, {"type": "node", "id": 13049092948, "lat": 35.33489, "lon": -80.7544486}, {"type": "node", "id": 13049092949, "lat": 35.3349273, "lon": -80.7544274}, {"type": "node", "id": 13049092950, "lat": 35.3349203, "lon": -80.7544089}, {"type": "node", "id": 13086056100, "lat": 35.1988603, "lon": -80.7954696}, {"type": "node", "id": 13119851081, "lat": 35.1968288, "lon": -80.8513257, "tags": {"amenity": "cafe", "cuisine": "coffee_shop", "name": "Cypress"}}, {"type": "node", "id": 13125416751, "lat": 35.2084713, "lon": -80.8595189, "tags": {"amenity": "cafe", "cuisine": "bubble_tea", "name": "SipCha"}}, {"type": "node", "id": 13143813978, "lat": 35.2021875, "lon": -80.8244454}, {"type": "node", "id": 13143813979, "lat": 35.2020156, "lon": -80.8244437}, {"type": "node", "id": 13143814010, "lat": 35.202219, "lon": -80.8245557}, {"type": "node", "id": 13143814176, "lat": 35.2042571, "lon": -80.8243253}, {"type": "node", "id": 13143814205, "lat": 35.2052855, "lon": -80.8241017}, {"type": "node", "id": 13143814212, "lat": 35.205251, "lon": -80.823943}, {"type": "node", "id": 13158560465, "lat": 35.2457954, "lon": -80.898492, "tags": {"addr:housenumber": "4419", "addr:street": "Tuckaseegee Road Charlotte, NC 28208", "amenity": "cafe", "description": "Nestled in West Charlotte near the airport, our vegan restaurant is more than just a place to enjoy delicious food; it's a sanctuary where you become part of our family.", "name": "Love in Action Cafe", "phone": "+1-980-498-1958", "website": "https://loveinactioncafe.com"}}, {"type": "node", "id": 13185138057, "lat": 35.3019474, "lon": -80.7476706, "tags": {"amenity": "cafe", "cuisine": "coffee_shop", "internet_access:fee": "no", "level": "1", "name": "Vavela Cafe", "phone": "+1-704-817-9208"}}, {"type": "node", "id": 13189792356, "lat": 35.1666023, "lon": -80.8501448, "tags": {"amenity": "cafe", "cuisine": "coffee_shop", "name": "Waterbean Coffee"}}, {"type": "node", "id": 13305030821, "lat": 35.1442311, "lon": -80.9330947, "tags": {"amenity": "cafe", "cuisine": "bubble_tea", "name": "Sweet Corner"}}, {"type": "node", "id": 13398533017, "lat": 35.3026004, "lon": -80.752763, "tags": {"amenity": "cafe", "cuisine": "coffee_shop", "name": "Haraz Coffee House", "phone": "+1-980-207-2888"}}, {"type": "node", "id": 13409064288, "lat": 35.1923866, "lon": -80.8756414, "tags": {"addr:city": "Charlotte", "addr:housenumber": "4015", "addr:postcode": "28217", "addr:state": "NC", "addr:street": "Craft Street", "amenity": "cafe", "contact:facebook": "https://www.facebook.com/thousandhills.clt/", "contact:instagram": "https://www.instagram.com/thousandhills.clt/", "cuisine": "coffee_shop", "name": "Thousand Hills Coffee", "opening_hours": "Mo-Su 07:00-18:00", "phone": "+1-704-412-8873", "website": "http://thousandhills.coffee/"}}, {"type": "way", "id": 239945431, "nodes": [2477161606, 2477161607, 2477161608, 8298958082, 2477161609, 2477161606], "tags": {"amenity": "cafe", "building": "yes", "name": "Funnel Cake Emporium", "website": "https://www.carowinds.com/play/drinks-dining/funnel-cake-emporium"}}, {"type": "way", "id": 241410478, "nodes": [2490572327, 8268940137, 2490572328, 2490572329, 8268940163, 2490572330, 2490572327], "tags": {"amenity": "cafe", "building": "yes", "cuisine": "american", "name": "South Gate World's Greatest Funnel Cakes", "website": "https://www.carowinds.com/play/drinks-dining/south-gate-worlds-greatest-funnel-cakes"}}, {"type": "way", "id": 323192201, "nodes": [3299823280, 12599393407, 3299823394, 3299823463, 3299823522, 12599393414, 3299823651, 3299823478, 12599393408, 3299823417, 3299823378, 3299823334, 3299823356, 3299823280], "tags": {"addr:city": "Charlotte", "addr:housenumber": "940", "addr:postcode": "28206", "addr:state": "NC", "addr:street": "North Davidson Street", "amenity": "cafe", "building": "yes", "cuisine": "coffee_shop", "name": "Rosie's Coffee & Wine Garden", "phone": "+1-704-604-8975", "website": "https://www.rosieswinegarden.com"}}, {"type": "way", "id": 323196502, "nodes": [3299874316, 3299874346, 3299874465, 3299874418, 3299874316], "tags": {"addr:city": "Charlotte", "addr:housenumber": "514", "addr:postcode": "28205", "addr:state": "NC", "addr:street": "East 36th Street", "amenity": "cafe", "building": "retail", "cuisine": "coffee_shop", "internet_access": "wlan", "name": "Smelly Cat Coffee House & Roastery", "outdoor_seating": "yes", "smoking": "no"}}, {"type": "way", "id": 323197562, "nodes": [3299797849, 3299797888, 3299798053, 3299798008, 3299797849], "tags": {"addr:city": "Charlotte", "addr:housenumber": "2012", "addr:postcode": "28205", "addr:state": "NC", "addr:street": "Commonwealth Avenue", "amenity": "cafe", "building": "yes", "name": "Undercurrent Coffee", "opening_hours": "Mo-Fr 07:00-19:00; Sa 08:00-19:00; Su 08:00-17:00", "phone": "+19804987328", "website": "www.undercurrentcoffee.com"}}, {"type": "way", "id": 324526264, "nodes": [3312270626, 3312270690, 3312271396, 3312271362, 3312270813, 3312270805, 3312270736, 3312270741, 3312270626], "tags": {"addr:city": "Charlotte", "addr:housenumber": "7819", "addr:postcode": "28217", "addr:state": "NC", "addr:street": "Forest Pine Drive", "amenity": "cafe", "branch": "Arrowood Road", "brand": "Starbucks", "brand:wikidata": "Q37158", "building": "yes", "cuisine": "coffee_shop", "name": "Starbucks", "official_name": "Starbucks Coffee", "phone": "+1 704-523-2699", "ref": "10266", "takeaway": "yes", "website": "https://www.starbucks.com/store-locator/store/10266/arrowood-road-7819-forest-pine-drive-charlotte-nc-282178007-us"}}, {"type": "way", "id": 444670746, "nodes": [4421369004, 4421369005, 4421369006, 4421369007, 4421369008, 4421369009, 4421369004], "tags": {"addr:city": "Charlotte", "addr:housenumber": "3001", "addr:postcode": "28203", "addr:state": "NC", "addr:street": "Griffith Street", "amenity": "cafe", "building": "yes", "cuisine": "coffee_shop", "name": "Giddy Goat Coffee Roasters"}}, {"type": "way", "id": 497518468, "nodes": [4890756327, 13143814010, 4890756328, 4890756329, 4890756330, 13143813978, 13143813979, 4890756331, 4890756332, 4890756333, 4890756334, 4890756327], "tags": {"addr:city": "Charlotte", "addr:housenumber": "545", "addr:postcode": "28207", "addr:state": "NC", "addr:street": "Providence Road", "amenity": "cafe", "branch": "Providence Road", "brand": "Starbucks", "brand:wikidata": "Q37158", "building": "yes", "cuisine": "coffee_shop", "name": "Starbucks", "official_name": "Starbucks Coffee", "phone": "+1 704-372-1591", "ref": "17567", "takeaway": "yes", "website": "https://www.starbucks.com/store-locator/store/17567/providence-road-545-providence-rd-charlotte-nc-282071653-us"}}, {"type": "way", "id": 514925105, "nodes": [5029791145, 5029791146, 5029791147, 5029791148, 5029791149, 5029791150, 5029791151, 5029791152, 5029791153, 5029791154, 5029791145], "tags": {"addr:city": "Charlotte", "addr:housenumber": "5434", "addr:postcode": "28278", "addr:state": "NC", "addr:street": "New Fashion Way", "amenity": "cafe", "branch": "Charlotte Premium Outlet", "brand": "Starbucks", "brand:wikidata": "Q37158", "building": "yes", "cuisine": "coffee_shop", "name": "Starbucks", "official_name": "Starbucks Coffee", "outdoor_seating": "yes", "phone": "+1 704-583-9764", "ref": "1007311", "takeaway": "yes", "website": "https://www.starbucks.com/store-locator/store/1007311/charlotte-premium-outlet-5434-new-fashion-way-charlotte-nc-282785200-us"}}, {"type": "way", "id": 545276187, "nodes": [3299804044, 5270172281, 5270172282, 3299804019, 3299804029, 3299804134, 3299804097, 8795514265, 3299804044], "tags": {"addr:housenumber": "719", "addr:postcode": "28204", "addr:street": "Louise Avenue", "amenity": "cafe", "building": "yes", "cuisine": "coffee_shop", "layer": "1", "name": "Central Coffee"}}, {"type": "way", "id": 548543819, "nodes": [9313285235, 5299247968, 5299247969, 5299247970, 9313285235], "tags": {"addr:city": "Charlotte", "addr:housenumber": "9731", "addr:postcode": "28216", "addr:state": "NC", "addr:street": "Callabridge Court", "amenity": "cafe", "branch": "Highway 16 & I-485, Mountain Islan", "brand": "Starbucks", "brand:wikidata": "Q37158", "building": "yes", "cuisine": "coffee_shop", "name": "Starbucks", "official_name": "Starbucks Coffee", "phone": "+1 704-810-4149", "ref": "1032104", "takeaway": "yes", "website": "https://www.starbucks.com/store-locator/store/1032104/hwy-16-i-485-mountain-islan-9731-callabridge-ct-charlotte-nc-282167649-us"}}, {"type": "way", "id": 634005206, "nodes": [8094633897, 5984081502, 5984081503, 5984081504, 5984081505, 5984081506, 5984081507, 5984081508, 8094633897], "tags": {"addr:city": "Charlotte", "addr:housenumber": "4805", "addr:postcode": "28210", "addr:state": "NC", "addr:street": "Sharon Road", "amenity": "cafe", "branch": "Sharon Road and Fairview Road", "brand": "Starbucks", "brand:wikidata": "Q37158", "building": "retail", "cuisine": "coffee_shop", "name": "Starbucks", "official_name": "Starbucks Coffee", "phone": "+1 980-221-6249", "ref": "1018077", "takeaway": "yes", "website": "https://www.starbucks.com/store-locator/store/1018077/sharon-road-and-fairview-road-4805-sharon-road-charlotte-nc-282103329-us"}}, {"type": "way", "id": 671248301, "nodes": [6286050588, 6286050589, 6286050590, 6286050591, 6286050592, 6286050593, 8319200377, 6286050588], "tags": {"amenity": "cafe", "building": "yes", "cuisine": "american", "name": "County Fair Funnel Cakes", "website": "https://www.carowinds.com/play/drinks-dining/county-fair-funnel-cakes"}}, {"type": "way", "id": 695529703, "nodes": [6530778689, 6530778690, 6530778691, 6530778692, 6530778693, 6530778694, 6530778695, 6530778696, 6530778689], "tags": {"amenity": "cafe", "building": "yes", "cuisine": "coffee", "drive_through": "yes", "name": "CupLux Coffee Drive-Thru"}}, {"type": "way", "id": 744795418, "nodes": [6970539413, 6970539414, 11925799788, 6970539415, 6970539416, 6970539413], "tags": {"addr:city": "Charlotte", "addr:housenumber": "901", "addr:postcode": "28205", "addr:state": "NC", "addr:street": "Pecan Avenue", "air_conditioning": "yes", "amenity": "cafe", "building": "commercial", "name": "Villani's Bakery", "opening_hours": "Mo-Su 07:00-22:00", "outdoor_seating": "yes", "website": "https://www.villanisbakery.com/"}}, {"type": "way", "id": 764516585, "nodes": [7142260961, 7142260962, 7142260963, 7142260964, 7142260961], "tags": {"addr:city": "Charlotte", "addr:housenumber": "4500", "addr:postcode": "28217", "addr:state": "NC", "addr:street": "Old Pineville Road", "amenity": "cafe", "building": "yes", "cuisine": "coffee_shop", "name": "Night Swim Coffee Roastery & Cafe", "opening_hours": "Mo-Fr 07:00-17:00, Sa-Su 08:00-16:00", "outdoor_seating": "yes", "website": "https://nightswimcoffee.com/"}}, {"type": "way", "id": 836176640, "nodes": [7804556302, 13143814212, 7804556303, 7804556304, 13143814205, 7804556305, 7804556302], "tags": {"amenity": "cafe", "building": "yes", "cuisine": "coffee_shop", "name": "Summit Coffee", "source": "microsoft/BuildingFootprints", "website": "https://www.summitcoffee.com"}}, {"type": "way", "id": 836177831, "nodes": [7804569678, 7804569679, 11603367349, 11603367348, 7804569680, 7804569681, 7804569682, 7804569683, 13143814176, 7804569678], "tags": {"amenity": "cafe", "building": "yes", "cuisine": "coffee_shop", "name": "Not Just Coffee", "source": "microsoft/BuildingFootprints"}}, {"type": "way", "id": 836519326, "nodes": [11241335106, 7807635932, 7807635933, 13086056100, 7807635934, 11241335106], "tags": {"addr:city": "Charlotte", "addr:housenumber": "3748", "addr:postcode": "28205", "addr:state": "NC", "addr:street": "Monroe Road", "amenity": "cafe", "building": "yes", "fee": "yes", "name": "Daily Mews Cat Cafe", "source": "microsoft/BuildingFootprints", "theme": "cat", "website": "https://www.dailymewscharlotte.com/"}}, {"type": "way", "id": 857405049, "nodes": [7993921640, 3734997153, 7993921643, 7993921642, 7993921638, 7993921640], "tags": {"addr:city": "Charlotte", "addr:housenumber": "1820", "addr:postcode": "28262", "addr:state": "NC", "addr:street": "East Arbors Drive", "amenity": "cafe", "building": "yes", "name": "Great Harvest Bread Co."}}, {"type": "way", "id": 867468123, "nodes": [8085656181, 8085656182, 8085656183, 8085656184, 8085656181], "tags": {"addr:city": "Charlotte", "addr:housenumber": "2326", "addr:postcode": "28208", "addr:state": "NC", "addr:street": "Arty Avenue", "amenity": "cafe", "building": "yes", "building:levels": "1", "internet_access": "no", "name": "The Pauline Tea-bar Apothecary", "opening_hours": "Tu 10:00-17:00; We-Fr 10:00-20:00; Sa 13:00-16:00", "outdoor_seating": "yes", "phone": "+1 980 248 2653", "source": "microsoft/BuildingFootprints", "website": "https://www.thepaulineteabar.com/"}}, {"type": "way", "id": 868166973, "nodes": [8092426193, 8092426194, 8092426195, 8092426196, 8092426193], "tags": {"addr:city": "Charlotte", "addr:housenumber": "8837", "addr:postcode": "28227", "addr:state": "NC", "addr:street": "Albemarle Road", "amenity": "cafe", "brand": "Starbucks", "brand:wikidata": "Q37158", "building": "yes", "cuisine": "coffee_shop", "name": "Starbucks", "official_name": "Starbucks Coffee", "takeaway": "yes"}}, {"type": "way", "id": 1089508664, "nodes": [9980207191, 9980207192, 9980207193, 9980207194, 9980207195, 9980207196, 9980207197, 9980207198, 9980207199, 9980207200, 9980207201, 9980207191], "tags": {"addr:city": "Charlotte", "addr:housenumber": "8420", "addr:postcode": "28213", "addr:state": "NC", "addr:street": "University City Boulevard", "addr:unit": "100", "amenity": "cafe", "branch": "University City & West T Harris B", "brand": "Starbucks", "brand:wikidata": "Q37158", "building": "yes", "cuisine": "coffee_shop", "name": "Starbucks", "official_name": "Starbucks Coffee", "phone": "+1 980-710-6004", "takeaway": "yes", "website": "https://www.starbucks.com/store-locator/store/1031892/university-city-w-t-harris-b-8420-university-city-blvd-100-charlotte-nc-2821335"}}, {"type": "way", "id": 1097999851, "nodes": [10053839617, 10053839619, 10053839616, 10053839615, 10053839613, 10053839612, 10053839614, 10053839617], "tags": {"addr:city": "Matthews", "addr:housenumber": "3565", "addr:postcode": "28105", "addr:state": "NC", "addr:street": "Matthews-Mint Hill Road", "amenity": "cafe", "building": "retail", "cuisine": "tea;coffee_shop", "name": "Boba Caf\u00e9", "opening_hours": "Mo-Su 10:00-21:00", "outdoor_seating": "yes", "phone": "+19802457030", "website": "https://bobacafenc.com/", "website:menu": "https://bobacafenc.com/menu/"}}, {"type": "way", "id": 1106161893, "nodes": [10121775202, 11702247043, 10121775145, 10121775148, 10121775205, 10121775206, 11702247045, 10121775207, 10121775208, 11702247046, 10121775202], "tags": {"addr:city": "Charlotte", "addr:housenumber": "1217", "addr:postcode": "28205", "addr:state": "NC", "addr:street": "The Plaza", "amenity": "cafe", "building": "yes", "cuisine": "coffee_shop", "name": "The Giddy Goat Coffee Roasters", "opening_hours": "Mo-Su 07:00-18:00", "outdoor_seating": "yes", "website": "https://www.giddygoat.com/"}}, {"type": "way", "id": 1165952342, "nodes": [10844433333, 10844433332, 10844433331, 10844433330, 10844433333], "tags": {"addr:city": "Charlotte", "addr:housenumber": "3935", "addr:postcode": "28205", "addr:state": "NC", "addr:street": "East Independence Boulevard", "amenity": "cafe", "brand": "Starbucks", "brand:wikidata": "Q37158", "building": "yes", "cuisine": "coffee_shop", "name": "Starbucks", "official_name": "Starbucks Coffee", "takeaway": "yes"}}, {"type": "way", "id": 1169436687, "nodes": [10874174393, 10874174394, 10874174395, 10874174396, 10874174397, 10874174398, 10874174399, 10874174400, 10874174393], "tags": {"addr:city": "Charlotte", "addr:housenumber": "8421", "addr:postcode": "28269", "addr:state": "NC", "addr:street": "Davis Lake Parkway", "air_conditioning": "yes", "amenity": "cafe", "branch": "WT Harris & Davis Lake Parkway", "brand": "Starbucks", "brand:wikidata": "Q37158", "building": "yes", "cuisine": "coffee_shop", "drive_through": "yes", "internet_access": "wlan", "internet_access:fee": "no", "name": "Starbucks", "official_name": "Starbucks Coffee", "outdoor_seating": "yes", "phone": "+1 704-921-4515", "takeaway": "yes", "website": "https://www.starbucks.com/store-locator/store/8015/wt-harris-davis-lake-pkwy-8421-davis-lake-parkway-charlotte-nc-282693414-us"}}, {"type": "way", "id": 1180677895, "nodes": [10965533885, 10965533886, 10965533887, 10965533888, 10965533889, 10965533890, 10965533891, 10965533892, 10965533893, 10965533894, 10965533895, 10965533896, 10965533885], "tags": {"addr:city": "Charlotte", "addr:housenumber": "4820", "addr:postcode": "28278", "addr:state": "NC", "addr:street": "Berewick Town Center Drive", "amenity": "cafe", "branch": "Steele Creek and Dixie River", "brand": "Starbucks", "brand:wikidata": "Q37158", "building": "retail", "cuisine": "coffee_shop", "internet_access": "yes", "name": "Starbucks", "official_name": "Starbucks Coffee", "outdoor_seating": "yes", "phone": "+1 980-280-6975", "takeaway": "yes", "website": "https://www.starbucks.com/store-locator/store/1024687/steele-creek-and-dixie-river-4820-berewick-towne-center-drive-charlotte-nc-2827"}}, {"type": "way", "id": 1212904364, "nodes": [11237256138, 11237256139, 11237256140, 11237256141, 11237256138], "tags": {"addr:city": "Charlotte", "addr:housenumber": "4209", "addr:postcode": "28209", "addr:state": "NC", "addr:street": "South Boulevard", "amenity": "cafe", "building": "yes", "cuisine": "coffee_shop", "name": "Burr & Berry Coffee", "phone": "+17043130760", "website": "https://www.burrandberry.com/"}}, {"type": "way", "id": 1273189676, "nodes": [11822949150, 11822949151, 11822949152, 11822949153, 11822949150], "tags": {"addr:city": "Fort Mill", "addr:housenumber": "3686", "addr:postcode": "29708", "addr:state": "SC", "addr:street": "Foothills Way", "amenity": "cafe", "branch": "I-77 and Carowinds", "brand": "Starbucks", "brand:wikidata": "Q37158", "building": "yes", "cuisine": "coffee_shop", "name": "Starbucks", "official_name": "Starbucks Coffee", "phone": "+1 803-902-1575", "ref": "1028722", "takeaway": "yes", "website": "https://www.starbucks.com/store-locator/store/1028722/i-77-and-carowinds-3686-foothills-way-fort-mill-sc-297089299-us"}}, {"type": "way", "id": 1290051032, "nodes": [11961114943, 11961114944, 11961114945, 11961114946, 11961114943], "tags": {"addr:city": "Charlotte", "addr:housenumber": "8156", "addr:postcode": "28216", "addr:state": "NC", "addr:street": "Mount Holly-Huntersville Road", "amenity": "cafe", "building": "yes", "cuisine": "coffee_shop", "drive_through": "yes", "name": "Canal Coffee Company", "outdoor_seating": "no", "phone": "+1-980-355-0364", "website": "https://canalcoffeecompany.com/"}}, {"type": "way", "id": 1291861624, "nodes": [11976202927, 11976202928, 11976211898, 11976202929, 11976202930, 11976202931, 11976202932, 11976202933, 11976202934, 11976202927], "tags": {"amenity": "cafe", "brand": "Starbucks", "brand:wikidata": "Q37158", "building": "yes", "cuisine": "coffee_shop", "name": "Starbucks", "official_name": "Starbucks Coffee", "takeaway": "yes"}}, {"type": "way", "id": 1304527776, "nodes": [12081725012, 12081725013, 12081725014, 12081725015, 12081725016, 12081725017, 12081725018, 12081725019, 12081725012], "tags": {"amenity": "cafe", "brand": "Starbucks", "brand:wikidata": "Q37158", "building": "yes", "cuisine": "coffee_shop", "name": "Starbucks", "official_name": "Starbucks Coffee", "takeaway": "yes"}}, {"type": "way", "id": 1379334413, "nodes": [12772338443, 12772338444, 12772338445, 12772338446, 12772338443], "tags": {"amenity": "cafe", "building": "yes", "cuisine": "coffee_shop", "name": "Caffeto"}}, {"type": "way", "id": 1420065237, "nodes": [13049092943, 13049092944, 13049092945, 13049092946, 13049092947, 13049092948, 13049092949, 13049092950, 13049092943], "tags": {"addr:city": "Charlotte", "addr:housenumber": "3015", "addr:postcode": "28262", "addr:state": "NC", "addr:street": "Stelfox Street", "amenity": "cafe", "brand": "Starbucks", "brand:wikidata": "Q37158", "building": "yes", "cuisine": "coffee_shop", "drive_through": "yes", "internet_access": "wlan", "name": "Starbucks", "official_name": "Starbucks Coffee", "opening_hours": "Mo-Su 05:30-21:00", "phone": "+1 704-688-0107", "takeaway": "yes"}}]}