{"version": 0.6, "generator": "Overpass API 0.7.62.8 e802775f", "osm3s": {"timestamp_osm_base": "2026-01-12T22:55:25Z", "copyright": "The data included in this document is from www.openstreetmap.org. The data is made available under ODbL."}, "elements": [{"type": "node", "id": 317602476, "lat": 35.8938476, "lon": -78.6243623, "tags": {"amenity": "pub", "name": "Hybernium", "opening_hours": "Mo-Fr 11:00-02:00, Sa,Su 10:00-02:00"}}, {"type": "node", "id": 317602695, "lat": 35.90242, "lon": -78.6575733, "tags": {"amenity": "pub", "name": "Ruddino's"}}, {"type": "node", "id": 606393831, "lat": 35.7755068, "lon": -78.6439528}, {"type": "node", "id": 606393832, "lat": 35.7755085, "lon": -78.643994}, {"type": "node", "id": 606393834, "lat": 35.775385, "lon": -78.6440018}, {"type": "node", "id": 606393836, "lat": 35.7753904, "lon": -78.6441311}, {"type": "node", "id": 606393837, "lat": 35.7756197, "lon": -78.6441165}, {"type": "node", "id": 606393840, "lat": 35.7756143, "lon": -78.643989}, {"type": "node", "id": 606393841, "lat": 35.7755838, "lon": -78.6439909}, {"type": "node", "id": 606393842, "lat": 35.7755831, "lon": -78.6439739}, {"type": "node", "id": 606393844, "lat": 35.7755506, "lon": -78.6439735}, {"type": "node", "id": 606393845, "lat": 35.7755416, "lon": -78.643974}, {"type": "node", "id": 729687619, "lat": 35.8850112, "lon": -78.6603213, "tags": {"amenity": "pub", "name": "Sawmill Tap Room"}}, {"type": "node", "id": 904099435, "lat": 35.9076558, "lon": -78.5901988, "tags": {"amenity": "pub", "name": "River Pub"}}, {"type": "node", "id": 904137928, "lat": 35.8946462, "lon": -78.6199471, "tags": {"amenity": "pub", "name": "Pipers"}}, {"type": "node", "id": 1216186357, "lat": 35.7856783, "lon": -78.6471483, "tags": {"amenity": "pub", "name": "Napper Tandy's Irish Pub"}}, {"type": "node", "id": 1216186464, "lat": 35.7826453, "lon": -78.6464134, "tags": {"addr:city": "Raleigh", "addr:housenumber": "505", "addr:postcode": "27603", "addr:state": "NC", "addr:street": "West Jones Street", "amenity": "pub", "name": "Tobacco Road Sports Bar"}}, {"type": "node", "id": 1909087623, "lat": 35.7793852, "lon": -78.6752713, "tags": {"amenity": "pub", "name": "Harar Hookah lounge"}}, {"type": "node", "id": 2103238252, "lat": 35.7378056, "lon": -78.7859001, "tags": {"addr:country": "US", "addr:full": "401 Ashville Avenue Suite 109", "addr:housenumber": "401-109", "addr:postcode": "27518", "addr:state": "NC", "addr:street": "Ashville Avenue", "amenity": "pub", "contact:phone": "+1 919 859 5411", "name": "Murphy's Pub"}}, {"type": "node", "id": 2420042125, "lat": 35.7796853, "lon": -78.6533569, "tags": {"addr:country": "US", "addr:housenumber": "827", "addr:postcode": "27603", "addr:state": "NC", "addr:street": "West Morgan Street", "amenity": "pub", "brewery": "Trophy_Brewing_Company", "craft": "brewery", "cuisine": "pizza", "microbrewery": "yes", "name": "Trophy Brewing Company"}}, {"type": "node", "id": 2420052779, "lat": 35.7931167, "lon": -78.6875149, "tags": {"addr:country": "US", "addr:housenumber": "3709", "addr:postcode": "27607", "addr:state": "NC", "addr:street": "Neil Street", "amenity": "pub", "craft": "brewery", "microbrewery": "yes", "name": "Raleigh Brewing Company", "opening_hours": "Mo-Sa 12:00-24:00; Su 12:00-06:00", "website": "http://raleighbrewingcompany.com/"}}, {"type": "node", "id": 2420061524, "lat": 35.7755406, "lon": -78.6439507}, {"type": "node", "id": 2484506050, "lat": 35.7770901, "lon": -78.7677964, "tags": {"addr:postcode": "27511", "amenity": "pub", "name": "Mac's Tavern", "website": "http://www.macstavern.net"}}, {"type": "node", "id": 2566339185, "lat": 35.7773891, "lon": -78.6367708, "tags": {"amenity": "pub", "name": "Tir Na Nog Irish Pub"}}, {"type": "node", "id": 2566350158, "lat": 35.7773952, "lon": -78.6381276, "tags": {"amenity": "pub", "name": "Slim's"}}, {"type": "node", "id": 2921397013, "lat": 35.7848041, "lon": -78.6475493, "tags": {"addr:country": "US", "addr:housenumber": "311", "addr:postcode": "27603", "addr:state": "NC", "addr:street": "Glenwood Avenue", "amenity": "pub", "cuisine": "irish", "fax": "+1 919 8332275", "food": "yes", "mapillary": "4051081044976208", "name": "Hibernian", "phone": "+1 919 8332258", "survey:date": "2019-07-06", "theme": "irish", "website": "https://hibernianpub.com/about/glenwood/"}}, {"type": "node", "id": 3623985409, "lat": 35.7804292, "lon": -78.6452706, "tags": {"addr:housenumber": "A", "amenity": "pub", "amenity_1": "bar", "amenity_2": "bottle_shop", "capacity": "25", "cuisine": "sandwich", "delivery": "no", "name": "State of Beer", "opening_hours": "Mo-We 11:00-22:00; Th 11:00-24:00; Fr-Sa 11:00-02:00; Su 12:00-22:00", "phone": "+1-919-546-9116", "shop": "beverages", "smoking": "outside", "takeaway": "no", "website": "https://www.stateof.beer/"}}, {"type": "node", "id": 5589127786, "lat": 35.7872759, "lon": -78.7805924}, {"type": "node", "id": 5589127787, "lat": 35.7872849, "lon": -78.7804329}, {"type": "node", "id": 5589127788, "lat": 35.787138, "lon": -78.7804426}, {"type": "node", "id": 5589127789, "lat": 35.7871272, "lon": -78.7805959}, {"type": "node", "id": 5990006072, "lat": 35.7844377, "lon": -78.7809705}, {"type": "node", "id": 5990006073, "lat": 35.7844374, "lon": -78.7808551}, {"type": "node", "id": 5990006074, "lat": 35.7845568, "lon": -78.780797}, {"type": "node", "id": 5990006075, "lat": 35.7845572, "lon": -78.7809712}, {"type": "node", "id": 6545878967, "lat": 35.8836039, "lon": -78.5825555, "tags": {"addr:city": "Raleigh", "addr:housenumber": "3201", "addr:postcode": "27615", "addr:state": "NC", "addr:street": "Northside Drive", "addr:unit": "Suite 101", "amenity": "pub", "microbrewery": "yes", "name": "Compass Rose Brewery"}}, {"type": "node", "id": 6561349886, "lat": 35.8651991, "lon": -78.6188836, "tags": {"amenity": "pub", "name": "North Ridge Pub"}}, {"type": "node", "id": 6644016220, "lat": 35.654127, "lon": -78.4764443, "tags": {"addr:city": "Clayton", "addr:housenumber": "11679", "addr:postcode": "27520", "addr:street": "Clayton Boulevard", "amenity": "pub", "name": "Clayton Beverage Co."}}, {"type": "node", "id": 6903846561, "lat": 35.8817192, "lon": -78.6451101, "tags": {"amenity": "pub", "name": "Hero's Pub and Sandwich Shop"}}, {"type": "node", "id": 7359794282, "lat": 35.8676277, "lon": -78.6226941, "tags": {"addr:city": "Raleigh", "addr:housenumber": "909", "addr:postcode": "27609", "addr:state": "NC", "addr:street": "Spring Forest Road", "amenity": "pub", "name": "Saints & Scholars Pub", "phone": "+19198788828", "website": "https://www.saintsandscholarspub.com/"}}, {"type": "node", "id": 8529304378, "lat": 35.7911162, "lon": -78.5476969, "tags": {"amenity": "pub", "name": "Overtime Sports Pub"}}, {"type": "node", "id": 8726101271, "lat": 35.7896269, "lon": -78.6450748, "tags": {"addr:city": "Raleigh", "addr:housenumber": "713", "addr:postcode": "27603", "addr:state": "NC", "addr:street": "North West Street", "amenity": "pub", "name": "The Cardinal Bar"}}, {"type": "node", "id": 9860319188, "lat": 35.8134777, "lon": -78.6278575, "tags": {"addr:city": "Raleigh", "addr:housenumber": "2340", "addr:postcode": "27608", "addr:state": "NC", "addr:street": "Bale Street", "addr:unit": "112", "amenity": "pub", "name": "House of Hops - McNeil Pointe", "phone": "+19192394057"}}, {"type": "node", "id": 11021336347, "lat": 35.8634161, "lon": -78.5398192, "tags": {"addr:city": "Raleigh", "addr:housenumber": "5301", "addr:postcode": "27616", "addr:state": "NC", "addr:street": "Tin Roof Way", "air_conditioning": "yes", "amenity": "pub", "brewery": "yes;various", "microbrewery": "yes", "name": "Heyday Brewing", "smoking": "outside"}}, {"type": "node", "id": 11331282969, "lat": 35.7844974, "lon": -78.7807972}, {"type": "node", "id": 11331282970, "lat": 35.7844975, "lon": -78.7808549}, {"type": "node", "id": 11748417401, "lat": 35.7844489, "lon": -78.7809705}, {"type": "node", "id": 11748417402, "lat": 35.784449, "lon": -78.7809979}, {"type": "node", "id": 11748417403, "lat": 35.7845499, "lon": -78.7809976}, {"type": "node", "id": 11748417404, "lat": 35.7845498, "lon": -78.7809712}, {"type": "node", "id": 12212993724, "lat": 35.7898761, "lon": -78.6607821, "tags": {"amenity": "pub", "name": "Village Drafthouse"}}, {"type": "node", "id": 12737594710, "lat": 35.7880941, "lon": -78.7777717, "tags": {"addr:city": "Cary", "addr:housenumber": "202", "addr:postcode": "27511", "addr:state": "NC", "addr:street": "East Cedar Street", "amenity": "pub", "craft": "brewery", "name": "Bond Brothers Beer Company", "opening_hours": "Mo-Th 14:00-22:00,Fr-Sa 12:00-00:00,Su 12:00-22:00", "phone": "+19194592670", "website": "https://www.bondbrothersbeer.com/"}}, {"type": "node", "id": 12965167061, "lat": 35.7899975, "lon": -78.783892, "tags": {"addr:city": "Cary", "addr:housenumber": "329", "addr:postcode": "27513", "addr:state": "NC", "addr:street": "North Harrison Avenue", "amenity": "pub", "name": "Upper Deck Sports Pub", "opening_hours": "Mo-Su 12:00-02:00", "phone": "+1 9194601786", "website": "http://www.upperdecksportspub.com/"}}, {"type": "node", "id": 12980170062, "lat": 35.7873323, "lon": -78.7757443, "tags": {"addr:city": "Cary", "addr:housenumber": "232", "addr:postcode": "27511", "addr:state": "NC", "addr:street": "East Chatham Street", "amenity": "pub", "name": "The Beach House by Tiki Brewing", "opening_hours": "Mo-Th 16:00-22:00; Fr-Sa 14:00-23:00; Su 14:00-20:00", "website": "https://www.tikibrewing.com/"}}, {"type": "node", "id": 13299526231, "lat": 35.8043417, "lon": -78.6466449, "tags": {"amenity": "pub", "check_date:currency:XBT": "2025-11-12", "currency:XBT": "yes", "mobile": "+19196153008", "name": "Crafty Beer, Wine & Spirits", "payment:lightning": "yes", "website": "https://www.instagram.com/craftybeerwinespirits/"}}, {"type": "way", "id": 47663062, "nodes": [2420061524, 606393831, 606393832, 606393834, 606393836, 606393837, 606393840, 606393841, 606393842, 606393844, 606393845, 2420061524], "tags": {"addr:city": "Raleigh", "addr:country": "US", "addr:housenumber": "319", "addr:postcode": "27601", "addr:state": "NC", "addr:street": "West Davie Street", "amenity": "pub", "building": "yes", "building:use": "commercial", "craft": "brewery", "microbrewery": "yes", "name": "Crank Arm Brewing Company", "opening_hours": "Mo-Th 16:00-24:00; Fr 16:00-02:00; Sa 12:00-02:00; Su 12:00-22:00", "outdoor_seating": "yes", "source": "WakeGIS", "website": "https://www.crankarmbrewing.com/"}}, {"type": "way", "id": 584761503, "nodes": [5589127786, 5589127787, 5589127788, 5589127789, 5589127786], "tags": {"addr:city": "Cary", "addr:housenumber": "140", "addr:postcode": "27511", "addr:state": "NC", "addr:street": "East Chatham Street", "amenity": "pub", "brewery": "yes;various", "building": "yes", "name": "Pharmacy Bottle and Beverage"}}, {"type": "way", "id": 634862189, "nodes": [5990006072, 5990006073, 11331282970, 11331282969, 5990006074, 5990006075, 11748417404, 11748417403, 11748417402, 11748417401, 5990006072], "tags": {"addr:city": "Cary", "addr:housenumber": "307", "addr:postcode": "27511", "addr:state": "NC", "addr:street": "South Academy Street", "air_conditioning": "yes", "amenity": "pub", "brewery": "yes;various", "building": "yes", "microbrewery": "yes", "name": "Cotton House Craft Brewers", "outdoor_seating": "yes", "toilets": "yes", "website": "https://www.cottonhousenc.co/"}}]}