{"version": 0.6, "generator": "Overpass API 0.7.62.8 e802775f", "osm3s": {"timestamp_osm_base": "2026-01-12T22:53:26Z", "copyright": "The data included in this document is from www.openstreetmap.org. The data is made available under ODbL."}, "elements": [{"type": "node", "id": 357814268, "lat": 35.8151528, "lon": -78.6950962, "tags": {"addr:city": "Raleigh", "addr:country": "US", "addr:housenumber": "2308", "addr:postcode": "27607", "addr:state": "NC", "addr:street": "Wesvill Court", "amenity": "clinic", "gnis:feature_id": "2455174", "healthcare": "clinic", "name": "Blue Ridge Surgery Center", "operator": "Surgical Care Affiliates", "phone": "+1 919 781 4311", "website": "http://www.blueridgesurgerycenter.com/"}}, {"type": "node", "id": 606664384, "lat": 35.7594452, "lon": -78.729099}, {"type": "node", "id": 606664388, "lat": 35.7593661, "lon": -78.7291279}, {"type": "node", "id": 606664396, "lat": 35.7593704, "lon": -78.7291458}, {"type": "node", "id": 606664405, "lat": 35.7593344, "lon": -78.7291589}, {"type": "node", "id": 606664408, "lat": 35.7594015, "lon": -78.7294353}, {"type": "node", "id": 606664413, "lat": 35.7594346, "lon": -78.7294232}, {"type": "node", "id": 606664416, "lat": 35.7594362, "lon": -78.72943}, {"type": "node", "id": 606664420, "lat": 35.7595526, "lon": -78.7293875}, {"type": "node", "id": 606664423, "lat": 35.7594839, "lon": -78.7291045}, {"type": "node", "id": 606664430, "lat": 35.7594496, "lon": -78.729117}, {"type": "node", "id": 609354187, "lat": 35.7918256, "lon": -78.663065}, {"type": "node", "id": 609354196, "lat": 35.7918251, "lon": -78.6633323}, {"type": "node", "id": 609354214, "lat": 35.7920417, "lon": -78.6633337}, {"type": "node", "id": 609354218, "lat": 35.7920415, "lon": -78.6630604}, {"type": "node", "id": 609617178, "lat": 35.8145505, "lon": -78.7009769}, {"type": "node", "id": 609617181, "lat": 35.8145511, "lon": -78.7011029}, {"type": "node", "id": 609617182, "lat": 35.8146016, "lon": -78.7011646}, {"type": "node", "id": 609617183, "lat": 35.8149013, "lon": -78.7011614}, {"type": "node", "id": 609617184, "lat": 35.8149459, "lon": -78.7012184}, {"type": "node", "id": 609617188, "lat": 35.8150403, "lon": -78.701217}, {"type": "node", "id": 609617189, "lat": 35.8151036, "lon": -78.7011339}, {"type": "node", "id": 609617190, "lat": 35.8151043, "lon": -78.7010246}, {"type": "node", "id": 609617193, "lat": 35.8150406, "lon": -78.7009455}, {"type": "node", "id": 609617194, "lat": 35.814944, "lon": -78.7009485}, {"type": "node", "id": 609617195, "lat": 35.814937, "lon": -78.7009574}, {"type": "node", "id": 609617198, "lat": 35.8148798, "lon": -78.7009593}, {"type": "node", "id": 609617201, "lat": 35.8148456, "lon": -78.7009168}, {"type": "node", "id": 609893583, "lat": 35.8144662, "lon": -78.6940177}, {"type": "node", "id": 609893584, "lat": 35.8143564, "lon": -78.6941054}, {"type": "node", "id": 609893589, "lat": 35.8144881, "lon": -78.694354}, {"type": "node", "id": 609893592, "lat": 35.814598, "lon": -78.6942663}, {"type": "node", "id": 1383649636, "lat": 35.6619354, "lon": -78.4869361}, {"type": "node", "id": 1383649643, "lat": 35.6615687, "lon": -78.487572}, {"type": "node", "id": 1383649644, "lat": 35.661436, "lon": -78.4872798}, {"type": "node", "id": 1383649645, "lat": 35.6620681, "lon": -78.4872283}, {"type": "node", "id": 1831695398, "lat": 35.8634155, "lon": -78.7086458}, {"type": "node", "id": 1831695404, "lat": 35.8636633, "lon": -78.7089594}, {"type": "node", "id": 1831695430, "lat": 35.8636833, "lon": -78.7089012}, {"type": "node", "id": 1831695432, "lat": 35.8636328, "lon": -78.70882}, {"type": "node", "id": 1831695441, "lat": 35.8635785, "lon": -78.7088736}, {"type": "node", "id": 1831695458, "lat": 35.8633003, "lon": -78.7087477}, {"type": "node", "id": 1831695462, "lat": 35.8636415, "lon": -78.7089782}, {"type": "node", "id": 1831695467, "lat": 35.8636654, "lon": -78.7090104}, {"type": "node", "id": 1831695520, "lat": 35.8636485, "lon": -78.7089388}, {"type": "node", "id": 1831695534, "lat": 35.8635441, "lon": -78.7091185}, {"type": "node", "id": 2117245637, "lat": 35.8169497, "lon": -78.6153236}, {"type": "node", "id": 2117245643, "lat": 35.8167996, "lon": -78.6153585}, {"type": "node", "id": 2117245648, "lat": 35.8168209, "lon": -78.6153356}, {"type": "node", "id": 2117245662, "lat": 35.8170645, "lon": -78.615129}, {"type": "node", "id": 2117245672, "lat": 35.8166735, "lon": -78.6152083}, {"type": "node", "id": 2117245720, "lat": 35.8170432, "lon": -78.6152458}, {"type": "node", "id": 2117245764, "lat": 35.8167453, "lon": -78.6153129}, {"type": "node", "id": 2117245791, "lat": 35.8168997, "lon": -78.6154121}, {"type": "node", "id": 2117245823, "lat": 35.8168366, "lon": -78.614924}, {"type": "node", "id": 2117245838, "lat": 35.8167561, "lon": -78.6152861}, {"type": "node", "id": 2117245863, "lat": 35.8170128, "lon": -78.615219}, {"type": "node", "id": 2117245884, "lat": 35.8169841, "lon": -78.615349}, {"type": "node", "id": 2422242473, "lat": 35.7174146, "lon": -78.6363972}, {"type": "node", "id": 2422242474, "lat": 35.7171875, "lon": -78.6365197}, {"type": "node", "id": 2422242475, "lat": 35.7171302, "lon": -78.6363585}, {"type": "node", "id": 2422242476, "lat": 35.7173572, "lon": -78.636236}, {"type": "node", "id": 3770252703, "lat": 35.712371, "lon": -78.6275173}, {"type": "node", "id": 3770252705, "lat": 35.7123743, "lon": -78.6278436}, {"type": "node", "id": 3770252710, "lat": 35.7125378, "lon": -78.627519}, {"type": "node", "id": 3770252711, "lat": 35.7125476, "lon": -78.6276621}, {"type": "node", "id": 3770252712, "lat": 35.7125407, "lon": -78.6277229}, {"type": "node", "id": 3770252713, "lat": 35.712545, "lon": -78.6278437}, {"type": "node", "id": 3770252714, "lat": 35.7125885, "lon": -78.6276612}, {"type": "node", "id": 3770252715, "lat": 35.7125893, "lon": -78.6277228}, {"type": "node", "id": 4402587901, "lat": 35.6999673, "lon": -78.596532}, {"type": "node", "id": 5584220800, "lat": 35.6988717, "lon": -78.5971409}, {"type": "node", "id": 5584220801, "lat": 35.6990568, "lon": -78.5970256}, {"type": "node", "id": 5584220802, "lat": 35.6981681, "lon": -78.5975325}, {"type": "node", "id": 5584220803, "lat": 35.6977172, "lon": -78.5961458}, {"type": "node", "id": 5584220804, "lat": 35.6977041, "lon": -78.5960439}, {"type": "node", "id": 5584220805, "lat": 35.6977412, "lon": -78.5959554}, {"type": "node", "id": 5584220806, "lat": 35.6981594, "lon": -78.5957193}, {"type": "node", "id": 5584220807, "lat": 35.69846, "lon": -78.5955235}, {"type": "node", "id": 5584220808, "lat": 35.6986429, "lon": -78.5953438}, {"type": "node", "id": 5584220809, "lat": 35.6987148, "lon": -78.5951105}, {"type": "node", "id": 5584220810, "lat": 35.6987736, "lon": -78.5950005}, {"type": "node", "id": 5584220811, "lat": 35.6993117, "lon": -78.5946974}, {"type": "node", "id": 5595575212, "lat": 35.7199069, "lon": -78.6575261, "tags": {"addr:city": "Raleigh", "addr:housenumber": "4450", "addr:postcode": "27603", "addr:state": "NC", "addr:street": "Fayetteville Road", "amenity": "clinic", "healthcare": "clinic", "name": "Med Mart Urgent Care"}}, {"type": "node", "id": 5949110205, "lat": 35.7059228, "lon": -78.6103774}, {"type": "node", "id": 5949110206, "lat": 35.7057913, "lon": -78.6104496}, {"type": "node", "id": 5949110207, "lat": 35.7057127, "lon": -78.6102323}, {"type": "node", "id": 5949110208, "lat": 35.7057555, "lon": -78.6102088}, {"type": "node", "id": 5949110209, "lat": 35.7057394, "lon": -78.6101642}, {"type": "node", "id": 5949110210, "lat": 35.7058281, "lon": -78.6101156}, {"type": "node", "id": 6424377108, "lat": 35.7704275, "lon": -78.782312, "tags": {"addr:city": "Cary", "addr:housenumber": "1110", "addr:postcode": "27511", "addr:state": "NC", "addr:street": "Kildaire Farm Road", "amenity": "clinic", "healthcare": "clinic", "name": "NextCare Urgent Care", "operator": "Solv Health"}}, {"type": "node", "id": 6489185168, "lat": 35.8742138, "lon": -78.6788551, "tags": {"amenity": "clinic", "healthcare": "clinic", "name": "FastMed Urgent Care"}}, {"type": "node", "id": 6511474524, "lat": 35.8612643, "lon": -78.6802025, "tags": {"amenity": "clinic", "healthcare": "clinic", "name": "FamHealth Primary Care"}}, {"type": "node", "id": 6511474527, "lat": 35.8611966, "lon": -78.6800897, "tags": {"amenity": "clinic", "healthcare": "clinic", "name": "People's Medical Care"}}, {"type": "node", "id": 6637981566, "lat": 35.6634439, "lon": -78.4943777, "tags": {"addr:city": "Clayton", "addr:housenumber": "12701", "addr:postcode": "27520", "addr:state": "NC", "addr:street": "US 70 Business East", "amenity": "clinic", "atm": "no", "healthcare": "clinic", "name": "WakeMed MyCare 365 Primary and Urgent Care - Clayton", "opening_hours": "Mo-Fr 08:00-20:00; Sa-Su 08:00-16:00", "phone": "+1-919-235-1968"}}, {"type": "node", "id": 7152840314, "lat": 35.7124052, "lon": -78.6278436}, {"type": "node", "id": 7968104973, "lat": 35.6553903, "lon": -78.4731051, "tags": {"addr:city": "Clayton", "addr:housenumber": "11618", "addr:postcode": "27520", "addr:state": "NC", "addr:street": "US-70 Business", "amenity": "clinic", "healthcare": "clinic", "name": "Mann Ear Nose & Throat", "phone": "+19193596368"}}, {"type": "node", "id": 8412020485, "lat": 35.7797659, "lon": -78.6494439, "tags": {"addr:city": "Raleigh", "addr:housenumber": "100", "addr:postcode": "27603", "addr:state": "NC", "addr:street": "South Boylan Avenue", "amenity": "clinic", "branch": "Raleigh Health Center", "fax": "+1-919-832-9061", "healthcare": "counselling", "healthcare:counselling": "antenatal;sexual", "healthcare:speciality": "gynaecology", "name": "Planned Parenthood - Raleigh Health Center", "operator": "Planned Parenthood", "operator:type": "ngo", "operator:wikidata": "Q2553262", "operator:wikipedia": "en:Planned Parenthood", "phone": "+1-919-833-7526", "website": "https://www.plannedparenthood.org/health-center/north-carolina/raleigh/27603/raleigh-health-center-3338-90860"}}, {"type": "node", "id": 8574957903, "lat": 35.6552859, "lon": -78.4729893, "tags": {"addr:city": "Clayton", "addr:housenumber": "11618", "addr:postcode": "27520", "addr:state": "NC", "addr:street": "US 70 Business Highway West", "amenity": "clinic", "healthcare": "clinic", "name": "Clayton-East Raleigh VA Clinic", "opening_hours": "Mo-Fr 07:30-16:00", "phone": "+1-919-416-8010"}}, {"type": "node", "id": 9846747999, "lat": 35.7916264, "lon": -78.663398}, {"type": "node", "id": 9846748000, "lat": 35.7910389, "lon": -78.6634097}, {"type": "node", "id": 9846748001, "lat": 35.7910362, "lon": -78.6630575}, {"type": "node", "id": 9846748002, "lat": 35.7916264, "lon": -78.6630575}, {"type": "node", "id": 10294346542, "lat": 35.8988318, "lon": -78.6077823, "tags": {"amenity": "clinic", "healthcare": "clinic", "name": "Medi-Weightloss"}}, {"type": "node", "id": 10294346543, "lat": 35.8972858, "lon": -78.6054016, "tags": {"amenity": "clinic", "healthcare": "clinic", "name": "Raleigh Vein & Laser Center"}}, {"type": "node", "id": 10304704589, "lat": 35.8146039, "lon": -78.7009172}, {"type": "node", "id": 10823271782, "lat": 35.8145507, "lon": -78.7010187}, {"type": "node", "id": 10823271786, "lat": 35.8149267, "lon": -78.7009577, "tags": {"entrance": "yes"}}, {"type": "node", "id": 10823271795, "lat": 35.8150761, "lon": -78.7009896, "tags": {"entrance": "main"}}, {"type": "node", "id": 10840992253, "lat": 35.8149744, "lon": -78.701218, "tags": {"entrance": "yes"}}, {"type": "node", "id": 10840992297, "lat": 35.8145351, "lon": -78.6941476, "tags": {"entrance": "main"}}, {"type": "node", "id": 11048471150, "lat": 35.8199134, "lon": -78.6215232, "tags": {"amenity": "clinic", "healthcare": "clinic", "name": "UNC Urgent Care", "operator": "UNC Health"}}, {"type": "node", "id": 11330145192, "lat": 35.6637062, "lon": -78.4997446, "tags": {"addr:housenumber": "893", "addr:street": "Town Centre Boulevard", "amenity": "clinic", "check_date": "2023-11-06", "healthcare": "clinic", "name": "Clayton Pain & Spine", "opening_hours": "Mo-Fr 08:00-16:00", "phone": "+1 919-596-3400", "wheelchair": "yes"}}, {"type": "node", "id": 11837102569, "lat": 35.8225319, "lon": -78.7050045, "tags": {"addr:housenumber": "3050", "addr:postcode": "27612", "addr:street": "Duraleigh Road", "amenity": "clinic", "name": "UNC Urgent Care at Raleigh", "opening_hours": "Mo-Su 08:00-20:00", "website": "https://www.unchealth.org/care-services/locations/unc-urgent-care-at-raleigh"}}, {"type": "node", "id": 13134634133, "lat": 35.7917258, "lon": -78.7806711, "tags": {"addr:city": "Cary", "addr:housenumber": "8450", "addr:postcode": "27513", "addr:state": "NC", "addr:street": "Chapel Hill Road", "addr:unit": "205", "amenity": "clinic", "healthcare": "clinic", "healthcare:speciality": "travel_clinic;vaccination", "name": "Passport Health Cary Travel Clinic", "operator": "Passport Health", "operator:type": "private", "operator:wikidata": "Q30270336"}}, {"type": "node", "id": 13265892647, "lat": 35.8937819, "lon": -78.5581345, "tags": {"addr:city": "Raleigh", "addr:housenumber": "8701", "addr:postcode": "27616", "addr:state": "NC", "addr:street": "Wadford Drive", "addr:unit": "Suite 100", "amenity": "clinic", "contact:facebook": "https://www.facebook.com/ActionBehaviorCenters/", "contact:instagram": "https://www.instagram.com/actionbehaviorcenters/", "contact:linkedin": "https://www.linkedin.com/company/action-behavior-centers", "contact:twitter": "https://x.com/actionbehavior", "contact:youtube": "https://www.youtube.com/@actionbehaviorcenters", "healthcare": "clinic", "healthcare:speciality": "autism_diagnosis;autism_test;autism_test_for_child;test_for_autism;about_autism;autism_evaluation;aba_behavior;aba_treatment;autism_treatment_center", "language:en": "yes", "name": "Action Behavior Centers - ABA Therapy for Autism", "opening_hours": "Mo-Fr 08:00-17:00", "phone": "+1-984-666-5777", "website": "https://www.actionbehavior.com/location/north-carolina/neuse-perry-creek"}}, {"type": "node", "id": 13432584601, "lat": 35.813684, "lon": -78.7047429, "tags": {"addr:housenumber": "2406", "addr:street": "Blue Ridge Road", "amenity": "clinic", "level": "1", "name": "Family Dermatology", "phone": "+19197910840", "website": "https://familydermatology.net/"}}, {"type": "way", "id": 47681422, "nodes": [606664384, 606664388, 606664396, 606664405, 606664408, 606664413, 606664416, 606664420, 606664423, 606664430, 606664384], "tags": {"addr:city": "Raleigh", "addr:housenumber": "1604", "addr:postcode": "27606", "addr:state": "NC", "addr:street": "Jones Franklin Road", "amenity": "clinic", "building": "yes", "building:use": "commercial", "email": "preferredassistance@apwhc.com", "healthcare": "clinic", "healthcare:speciality": "abortion", "name": "A Preferred Women's Health Center", "phone": "+1-919-854-7888", "source": "WakeGIS", "website": "https://www.apwhc.com/locations/raleigh-nc-area/"}}, {"type": "way", "id": 47917812, "nodes": [609354187, 609354196, 609354214, 609354218, 609354187], "tags": {"addr:city": "Raleigh", "addr:housenumber": "601", "addr:postcode": "27605", "addr:state": "NC", "addr:street": "Oberlin Road", "amenity": "clinic", "building": "hospital", "building:use": "commercial", "healthcare": "clinic", "name": "WakeMed Urgent Care - Oberlin", "opening_hours": "Mo-Su 08:00-20:00", "operator": "WakeMed", "phone": "+1-919-789-4322", "source": "WakeGIS"}}, {"type": "way", "id": 47932798, "nodes": [10304704589, 609617178, 10823271782, 609617181, 609617182, 609617183, 609617184, 10840992253, 609617188, 609617189, 609617190, 10823271795, 609617193, 609617194, 609617195, 10823271786, 609617198, 609617201, 10304704589], "tags": {"addr:city": "Raleigh", "addr:housenumber": "4207", "addr:postcode": "27607", "addr:state": "NC", "addr:street": "Lake Boone Trail", "amenity": "clinic", "building": "yes", "building:use": "commercial", "healthcare": "clinic", "name": "Rex Bariatrics", "phone": "+1-919-784-7874", "source": "WakeGIS"}}, {"type": "way", "id": 47948287, "nodes": [609893583, 609893584, 609893589, 609893592, 10840992297, 609893583], "tags": {"addr:city": "Raleigh", "addr:housenumber": "3305", "addr:postcode": "27607", "addr:state": "NC", "addr:street": "Drake Circle", "amenity": "clinic", "building": "yes", "building:use": "commercial", "healthcare": "clinic", "healthcare:speciality": "abortion", "name": "A Woman's Choice of Raleigh", "operator": "A Woman's Choice, Inc.", "phone": "+1-919-781-6811", "source": "WakeGIS", "website": "https://www.awomanschoiceinc.com/awc-raleigh/"}}, {"type": "way", "id": 124282683, "nodes": [1383649643, 1383649645, 1383649636, 1383649644, 1383649643], "tags": {"addr:city": "Clayton", "addr:housenumber": "555", "addr:postcode": "27520", "addr:street": "Medical Park Place", "amenity": "clinic", "building": "yes", "emergency": "no", "healthcare": "clinic", "name": "WakeMed Clayton Medical Park", "phone": "+1 919 350 8000", "website": "https://www.wakemed.org/landing.cfm?id=57"}}, {"type": "way", "id": 172245499, "nodes": [1831695404, 1831695520, 1831695430, 1831695432, 1831695441, 1831695398, 1831695458, 1831695534, 1831695467, 1831695462, 1831695404], "tags": {"addr:housenumber": "3411", "addr:postcode": "27613", "addr:street": "West Millbrook Road", "amenity": "clinic", "branch": "Millbrook", "building": "yes", "healthcare": "dialysis", "healthcare:speciality": "nephrology", "name": "Fresenius Medical Care", "operator": "Fresenius Medical Care", "operator:wikidata": "Q650259", "operator:wikipedia": "en:Fresenius Medical Care"}}, {"type": "way", "id": 201707875, "nodes": [2117245791, 2117245637, 2117245884, 2117245720, 2117245863, 2117245662, 2117245823, 2117245672, 2117245838, 2117245764, 2117245643, 2117245648, 2117245791], "tags": {"addr:city": "Raleigh", "addr:housenumber": "2600", "addr:postcode": "27604-1502", "addr:street": "Atlantic Avenue", "amenity": "clinic", "building": "yes", "email": "loril@trianglegi.com", "healthcare": "clinic", "healthcare:speciality": "gastroenterology", "name": "Triangle Gastroenterology", "opening_hours": "Mo-Fr 08:30-17:00", "phone": "+1-919-881-9999", "website": "https://www.trianglegi.com/index.php"}}, {"type": "way", "id": 233909325, "nodes": [2422242473, 2422242474, 2422242475, 2422242476, 2422242473], "tags": {"addr:city": "Garner", "addr:housenumber": "1165", "addr:postcode": "27529", "addr:state": "NC", "addr:street": "US-70", "amenity": "clinic", "building": "yes", "healthcare": "clinic", "name": "UNC Urgent Care at Garner", "phone": "+19849601400", "wheelchair": "yes"}}, {"type": "way", "id": 373585222, "nodes": [3770252713, 3770252712, 3770252715, 3770252714, 3770252711, 3770252710, 3770252703, 3770252705, 7152840314, 3770252713], "tags": {"addr:city": "Garner", "addr:housenumber": "811", "addr:postcode": "27529", "addr:state": "NC", "addr:street": "US 70", "amenity": "clinic", "building": "yes", "healthcare": "clinic", "name": "WakeMed Garner Urgent Care", "opening_hours": "Mo-Fr 08:00-20:00, Sa-Su 08:00-16:00", "phone": "+19192356565"}}, {"type": "way", "id": 584156670, "nodes": [5584220811, 5584220810, 5584220809, 5584220808, 5584220807, 5584220806, 5584220805, 5584220804, 5584220803, 5584220802, 5584220800, 5584220801, 4402587901, 5584220811], "tags": {"addr:city": "Garner", "addr:housenumber": "400", "addr:postcode": "27529", "addr:street": "US 70 East", "amenity": "clinic", "emergency": "yes", "healthcare": "clinic", "name": "WakeMed Garner Healthplex", "opening_hours": "24/7", "operator": "WakeMed Health & Hospitals", "phone": "+1 919 350 8000", "website": "https://www.wakemed.org/garner-healthplex"}}, {"type": "way", "id": 629959018, "nodes": [5949110205, 5949110206, 5949110207, 5949110208, 5949110209, 5949110210, 5949110205], "tags": {"addr:city": "Garner", "addr:housenumber": "220", "addr:postcode": "27529", "addr:state": "NC", "addr:street": "US 70", "amenity": "clinic", "building": "yes", "healthcare": "clinic", "name": "FastMed Urgent Care", "phone": "+19197797890"}}, {"type": "way", "id": 1073393628, "nodes": [9846747999, 9846748000, 9846748001, 9846748002, 9846747999], "tags": {"addr:city": "Raleigh", "addr:housenumber": "505", "addr:postcode": "27605", "addr:state": "NC", "addr:street": "Oberlin Road", "addr:unit": "120", "amenity": "clinic", "building": "hospital", "healthcare": "clinic", "name": "Wake Orthopaedics", "opening_hours": "Mo-Fr 08:00-17:00", "operator": "WakeMed"}}]}