{"version": 0.6, "generator": "Overpass API 0.7.62.8 e802775f", "osm3s": {"timestamp_osm_base": "2026-01-12T22:55:25Z", "copyright": "The data included in this document is from www.openstreetmap.org. The data is made available under ODbL."}, "elements": [{"type": "node", "id": 318709615, "lat": 35.9048418, "lon": -78.6019788, "tags": {"amenity": "cafe", "brand": "Starbucks", "brand:wikidata": "Q37158", "cuisine": "coffee_shop", "name": "Starbucks", "official_name": "Starbucks Coffee", "takeaway": "yes"}}, {"type": "node", "id": 606926035, "lat": 35.8549591, "lon": -78.6412426}, {"type": "node", "id": 606926036, "lat": 35.854837, "lon": -78.6413036}, {"type": "node", "id": 606926037, "lat": 35.8549068, "lon": -78.6415165}, {"type": "node", "id": 606926040, "lat": 35.8550289, "lon": -78.6414555}, {"type": "node", "id": 607484020, "lat": 35.7631433, "lon": -78.6485466}, {"type": "node", "id": 607484021, "lat": 35.763124, "lon": -78.6485463}, {"type": "node", "id": 607484022, "lat": 35.7631242, "lon": -78.6485387}, {"type": "node", "id": 607484026, "lat": 35.7630386, "lon": -78.6485366}, {"type": "node", "id": 607484027, "lat": 35.7630385, "lon": -78.6485456}, {"type": "node", "id": 607484029, "lat": 35.7630184, "lon": -78.648545}, {"type": "node", "id": 607484031, "lat": 35.763017, "lon": -78.6486301}, {"type": "node", "id": 607484032, "lat": 35.7630385, "lon": -78.6486307}, {"type": "node", "id": 607484034, "lat": 35.7630384, "lon": -78.6486394}, {"type": "node", "id": 607484040, "lat": 35.7631234, "lon": -78.6486417}, {"type": "node", "id": 607484042, "lat": 35.7631236, "lon": -78.6486306}, {"type": "node", "id": 607484043, "lat": 35.7631418, "lon": -78.6486309}, {"type": "node", "id": 607493081, "lat": 35.7689061, "lon": -78.6486823}, {"type": "node", "id": 607493083, "lat": 35.7687795, "lon": -78.6487126}, {"type": "node", "id": 607493086, "lat": 35.7688018, "lon": -78.6488542}, {"type": "node", "id": 607493091, "lat": 35.7689284, "lon": -78.6488239}, {"type": "node", "id": 607704972, "lat": 35.7889979, "lon": -78.6490896}, {"type": "node", "id": 607704973, "lat": 35.7889783, "lon": -78.6490899}, {"type": "node", "id": 607704974, "lat": 35.7889782, "lon": -78.6490702}, {"type": "node", "id": 607704975, "lat": 35.7888094, "lon": -78.6490723}, {"type": "node", "id": 607704976, "lat": 35.7888099, "lon": -78.649147}, {"type": "node", "id": 607704977, "lat": 35.7889569, "lon": -78.6491451}, {"type": "node", "id": 607704979, "lat": 35.7889573, "lon": -78.649193}, {"type": "node", "id": 607704980, "lat": 35.788991, "lon": -78.6491926}, {"type": "node", "id": 607704981, "lat": 35.7889905, "lon": -78.6491407}, {"type": "node", "id": 607704983, "lat": 35.7889994, "lon": -78.6491406}, {"type": "node", "id": 607707315, "lat": 35.7882416, "lon": -78.6477961}, {"type": "node", "id": 607707320, "lat": 35.7882438, "lon": -78.6478835}, {"type": "node", "id": 607707323, "lat": 35.7882584, "lon": -78.6478829}, {"type": "node", "id": 607707325, "lat": 35.7882595, "lon": -78.6479234}, {"type": "node", "id": 607707327, "lat": 35.7884421, "lon": -78.6479165}, {"type": "node", "id": 607707331, "lat": 35.7884388, "lon": -78.6477886}, {"type": "node", "id": 607709503, "lat": 35.7906476, "lon": -78.6619279}, {"type": "node", "id": 607709506, "lat": 35.790764, "lon": -78.6619288}, {"type": "node", "id": 607709509, "lat": 35.7907654, "lon": -78.6616605}, {"type": "node", "id": 607709510, "lat": 35.790649, "lon": -78.6616596}, {"type": "node", "id": 609627988, "lat": 35.7900933, "lon": -78.6773662}, {"type": "node", "id": 609627991, "lat": 35.7899388, "lon": -78.6774118}, {"type": "node", "id": 609627993, "lat": 35.7899883, "lon": -78.677624}, {"type": "node", "id": 609627995, "lat": 35.7901383, "lon": -78.6775738}, {"type": "node", "id": 609631758, "lat": 35.816291, "lon": -78.6937511}, {"type": "node", "id": 609631761, "lat": 35.8162063, "lon": -78.6937408}, {"type": "node", "id": 609631763, "lat": 35.8162131, "lon": -78.6936565}, {"type": "node", "id": 609631769, "lat": 35.8161758, "lon": -78.693652}, {"type": "node", "id": 609631772, "lat": 35.8161749, "lon": -78.6936638}, {"type": "node", "id": 609631775, "lat": 35.8160857, "lon": -78.693653}, {"type": "node", "id": 609631777, "lat": 35.8160802, "lon": -78.6937224}, {"type": "node", "id": 609631784, "lat": 35.8160726, "lon": -78.6937219}, {"type": "node", "id": 609631787, "lat": 35.8160666, "lon": -78.6937978}, {"type": "node", "id": 609631791, "lat": 35.8160738, "lon": -78.6937986}, {"type": "node", "id": 609631800, "lat": 35.8160687, "lon": -78.6938615}, {"type": "node", "id": 609631804, "lat": 35.816105, "lon": -78.6938659}, {"type": "node", "id": 609631812, "lat": 35.8161043, "lon": -78.6938763}, {"type": "node", "id": 609631816, "lat": 35.8161219, "lon": -78.6938786}, {"type": "node", "id": 609631820, "lat": 35.8161225, "lon": -78.6938705}, {"type": "node", "id": 609631824, "lat": 35.8161478, "lon": -78.6938735}, {"type": "node", "id": 609631828, "lat": 35.8161421, "lon": -78.6939446}, {"type": "node", "id": 609631836, "lat": 35.8161876, "lon": -78.6939501}, {"type": "node", "id": 609631840, "lat": 35.8161975, "lon": -78.6938286}, {"type": "node", "id": 609631844, "lat": 35.816284, "lon": -78.6938391}, {"type": "node", "id": 682372374, "lat": 35.827078, "lon": -78.7708257, "tags": {"addr:city": "Cary", "addr:country": "US", "addr:housenumber": "125", "addr:postcode": "27513", "addr:state": "NC", "addr:street": "Weston Parkway", "amenity": "cafe", "branch": "Weston Parkway & Harrison Avenue, Ex", "brand": "Starbucks", "brand:wikidata": "Q37158", "cuisine": "coffee_shop", "name": "Starbucks", "official_name": "Starbucks Coffee", "opening_hours": "Mo-Fr 05:30-21:00; Sa 06:00-21:00; Su 06:30-21:00", "phone": "+1 919-677-6104", "takeaway": "yes", "website": "https://www.starbucks.com/store-locator/store/12857/weston-pkwy-harrison-ave-ex-125-weston-parkway-cary-nc-275132424-us"}}, {"type": "node", "id": 839251195, "lat": 35.8877612, "lon": -78.6786676, "tags": {"addr:city": "Raleigh", "addr:housenumber": "7498", "addr:postcode": "27613", "addr:state": "NC", "addr:street": "Creedmoor Road", "amenity": "cafe", "branch": "Stonehenge Drive & Creedmoor Road", "brand": "Starbucks", "brand:wikidata": "Q37158", "cuisine": "coffee_shop", "name": "Starbucks", "official_name": "Starbucks Coffee", "phone": "+1 919-846-0633", "takeaway": "yes", "website": "https://www.starbucks.com/store-locator/store/8974/stonehenge-dr-creedmoor-rd-7498-creedmor-road-raleigh-nc-276131664-us"}}, {"type": "node", "id": 904137922, "lat": 35.8934294, "lon": -78.6260518, "tags": {"amenity": "cafe", "name": "New York Bagel"}}, {"type": "node", "id": 904523717, "lat": 35.8960421, "lon": -78.6587108, "tags": {"amenity": "cafe"}}, {"type": "node", "id": 975734100, "lat": 35.7714912, "lon": -78.7626022, "tags": {"addr:city": "Cary", "addr:housenumber": "1107", "addr:postcode": "27511", "addr:state": "NC", "addr:street": "Walnut Street", "addr:unit": "102", "amenity": "cafe", "branch": "Walnut Street & Maynard Road", "brand": "Starbucks", "brand:wikidata": "Q37158", "cuisine": "coffee_shop", "name": "Starbucks", "official_name": "Starbucks Coffee", "phone": "+1-919-468-9908", "ref": "8578", "smoking": "separated", "takeaway": "yes", "website": "https://www.starbucks.com/store-locator/store/8578/walnut-street-maynard-rd-1107-walnut-street-suite-102-cary-nc-275114734-us"}}, {"type": "node", "id": 1171616246, "lat": 35.8248574, "lon": -78.7072494, "tags": {"addr:city": "Raleigh", "addr:housenumber": "3101-305", "addr:postcode": "27612", "addr:state": "NC", "addr:street": "Edwards Mill Road", "amenity": "cafe", "branch": "Edwards Mill Road & Duraleigh Road", "brand": "Starbucks", "brand:wikidata": "Q37158", "cuisine": "coffee_shop", "name": "Starbucks", "official_name": "Starbucks Coffee", "phone": "+1 919-789-4422", "ref": "16350", "takeaway": "yes", "website": "https://www.starbucks.com/store-locator/store/16350/edwards-mill-rd-duraleigh-rd-3101-305-edwards-mill-road-raleigh-nc-276125303-us"}}, {"type": "node", "id": 1278590483, "lat": 35.8049646, "lon": -78.6465826, "tags": {"addr:city": "Raleigh", "addr:housenumber": "1811", "addr:postcode": "27608", "addr:state": "NC", "addr:street": "Glenwood Avenue", "amenity": "cafe", "check_date": "2025-11-25", "check_date:currency:XBT": "2025-11-25", "cuisine": "coffee_shop", "currency:XBT": "yes", "name": "The Third Place", "opening_hours": "Mo-Th 07:00-12:00; Fr-Su 07:00-14:00", "payment:lightning": "yes", "payment:lightning:operator": "square", "payment:lightning_contactless": "no", "payment:onchain": "no", "phone": "+1 919 834 6566", "website": "https://www.thirdplaceraleigh.com/"}}, {"type": "node", "id": 1936233953, "lat": 35.8363638, "lon": -78.643294, "tags": {"amenity": "cafe", "name": "Keva Juice"}}, {"type": "node", "id": 1937486104, "lat": 35.8362507, "lon": -78.6425134, "tags": {"amenity": "cafe", "brand": "Starbucks", "brand:wikidata": "Q37158", "contact:website": "https://www.starbucks.com/store-locator/store/16247/target-raleigh-central-1892-4191-the-circle-at-n-hills-st-raleigh-nc-276095712", "cuisine": "coffee_shop", "name": "Starbucks", "official_name": "Starbucks Coffee", "takeaway": "yes"}}, {"type": "node", "id": 1938640026, "lat": 35.8399058, "lon": -78.6430777, "tags": {"addr:city": "North Hills", "addr:housenumber": "4421", "addr:postcode": "27609", "addr:state": "NC", "addr:street": "Six Forks Road", "addr:unit": "116", "amenity": "cafe", "branch": "Lassiter Mill Road & Six Forks R", "brand": "Starbucks", "brand:wikidata": "Q37158", "cuisine": "coffee_shop", "name": "Starbucks", "official_name": "Starbucks Coffee", "phone": "+1 919-571-0713", "ref": "11200", "takeaway": "yes", "website": "https://www.starbucks.com/store-locator/store/11200/lassiter-mill-rd-six-forks-r-4421-six-forks-road-116-raleigh-nc-276095761-us"}}, {"type": "node", "id": 2121961572, "lat": 35.7611728, "lon": -78.7379521, "tags": {"addr:city": "Cary", "addr:housenumber": "315", "addr:postcode": "27518", "addr:state": "NC", "addr:street": "Crossroads Boulevard", "amenity": "cafe", "check_date": "2023-03-23", "contact:email": "coffeeandcrepes@aol.com", "contact:phone": "+1 919 233 0288", "contact:website": "http://www.coffeeandcrepes.com/", "cuisine": "crepe", "internet_access": "wlan", "internet_access:fee": "customers", "internet_access:ssid": "CoffeandCrepes Guest", "name": "Coffee & Crepes", "opening_hours": "Mo-Fr 07:00-18:00; Sa 07:00-16:00; Su 09:00-16:00", "outdoor_seating": "yes", "source": "survey", "wheelchair": "limited"}}, {"type": "node", "id": 2198232029, "lat": 35.7780599, "lon": -78.638704}, {"type": "node", "id": 2198232031, "lat": 35.778064, "lon": -78.638827}, {"type": "node", "id": 2198232032, "lat": 35.7781125, "lon": -78.6388246}, {"type": "node", "id": 2198232038, "lat": 35.7781575, "lon": -78.638699}, {"type": "node", "id": 2198232039, "lat": 35.7781615, "lon": -78.6388221}, {"type": "node", "id": 2315429919, "lat": 35.7987254, "lon": -78.7951359, "tags": {"addr:city": "Cary", "addr:housenumber": "1904", "addr:postcode": "27513", "addr:state": "NC", "addr:street": "Northwest Maynard Road", "air_conditioning": "yes", "amenity": "cafe", "branch": "Evans Road & Maynard Road", "brand": "Starbucks", "brand:wikidata": "Q37158", "cuisine": "coffee_shop", "drive_through": "yes", "name": "Starbucks", "official_name": "Starbucks Coffee", "phone": "+1-919-481-9124", "takeaway": "yes", "website": "https://www.starbucks.com/store-locator/store/17746/evans-rd-maynard-rd-1904-northwest-maynard-road-cary-nc-275134997-us"}}, {"type": "node", "id": 2470635859, "lat": 35.7696433, "lon": -78.6765448, "tags": {"amenity": "cafe", "internet_access": "wlan", "name": "Common Grounds Caf\u00e9 & Creamery", "opening_hours": "Mo-Th 08:00-23:00; Fr 08:00-17:00; Sa 10:00-17:00; Su 12:00-23:00", "source": "local knowledge", "website": "https://www.ncsudining.com/locations/restaurants-cafes/hunt-library/", "wheelchair": "yes"}}, {"type": "node", "id": 2470637788, "lat": 35.7717111, "lon": -78.6738559, "tags": {"amenity": "cafe", "cuisine": "coffee_shop", "internet_access": "wlan", "name": "Port City Java Coffeehouse Caf\u00e9", "opening_hours": "Tu-Sa 07:30-15:00"}}, {"type": "node", "id": 2871606686, "lat": 35.7461501, "lon": -78.7418319, "tags": {"addr:city": "Cary", "addr:housenumber": "8204", "addr:postcode": "27518", "addr:state": "NC", "addr:street": "Tryon Woods Drive", "addr:suite": "120", "addr:unit": "120", "amenity": "cafe", "branch": "Tryon Road & Walnut St", "brand": "Starbucks", "brand:wikidata": "Q37158", "cuisine": "coffee_shop", "name": "Starbucks", "official_name": "Starbucks Coffee", "phone": "+1 919-851-6439", "takeaway": "yes", "website": "https://www.starbucks.com/store-locator/store/6867/tryon-rd-walnut-st-8204-tryon-woods-dr-suite-120-cary-nc-275187164-us"}}, {"type": "node", "id": 2921397022, "lat": 35.7738556, "lon": -78.6396649, "tags": {"addr:city": "Raleigh", "addr:housenumber": "500", "addr:postcode": "27601", "addr:state": "NC", "addr:street": "Fayetteville Street", "amenity": "cafe", "branch": "Marriott Downtown Raleigh", "brand": "Starbucks", "brand:wikidata": "Q37158", "cuisine": "coffee_shop", "name": "Starbucks", "official_name": "Starbucks Coffee", "opening_hours": "07:00-19:00", "phone": "+1 919-334-9894", "takeaway": "yes", "website": "https://www.starbucks.com/store-locator/store/7706/marriott-downtown-raleigh-500-fayetteville-st-mall-raleigh-nc-276012118-us"}}, {"type": "node", "id": 3077600230, "lat": 35.8605628, "lon": -78.7049417}, {"type": "node", "id": 3077600232, "lat": 35.8603108, "lon": -78.7048022}, {"type": "node", "id": 3077600239, "lat": 35.8605854, "lon": -78.7048708}, {"type": "node", "id": 3077600241, "lat": 35.8603276, "lon": -78.7047397}, {"type": "node", "id": 3248742644, "lat": 35.7742094, "lon": -78.6389835, "tags": {"addr:city": "Raleigh", "addr:housenumber": "421", "addr:postcode": "27601", "addr:state": "NC", "addr:street": "Fayetteville Street", "amenity": "cafe", "cuisine": "coffee_shop;ice_cream;breakfast;sandwich", "name": "Crema", "opening_hours": "Mo-Fr 07:30-16:30", "outdoor_seating": "yes", "phone": "+1 919 834 7279", "takeaway": "yes", "website": "https://cremaandmore.com/"}}, {"type": "node", "id": 3552512650, "lat": 35.7829022, "lon": -78.655824, "tags": {"addr:city": "Raleigh", "addr:housenumber": "1213", "addr:postcode": "27603", "addr:state": "NC", "addr:street": "Hillsborough Street", "amenity": "cafe", "internet_access": "no", "name": "Cutie Pies", "operator": "Cricket Wireless LLC", "outdoor_seating": "no", "phone": "+1-919-594-1909", "website": "https://www.cutiepiesofraleigh.com/contact"}}, {"type": "node", "id": 3691461642, "lat": 35.7874872, "lon": -78.6470733, "tags": {"addr:city": "Raleigh", "addr:housenumber": "602", "addr:postcode": "27603", "addr:state": "NC", "addr:street": "Glenwood Avenue", "amenity": "cafe", "cuisine": "coffee_shop", "name": "Cortado Specialty Coffee", "outdoor_seating": "yes"}}, {"type": "node", "id": 3752759687, "lat": 35.7785559, "lon": -78.6442483, "tags": {"addr:city": "Raleigh", "addr:housenumber": "300", "addr:postcode": "27601", "addr:state": "NC", "addr:street": "West Hargett Street", "addr:unit": "50", "amenity": "cafe", "cuisine": "coffee;tea;breakfast;lunch;pastry", "internet_access": "yes", "name": "A Place at the Table", "opening_hours": "Mo-Sa 07:00-14:00", "outdoor_seating": "yes", "smoking": "outside", "website": "https://tableraleigh.org/"}}, {"type": "node", "id": 4128436170, "lat": 35.7855632, "lon": -78.647666, "tags": {"amenity": "cafe", "name": "Cafe Helios"}}, {"type": "node", "id": 4299406373, "lat": 35.7963497, "lon": -78.5115213, "tags": {"addr:city": "Knightdale", "addr:housenumber": "212", "addr:postcode": "27545", "addr:state": "NC", "addr:street": "Hinton Oaks Boulevard", "amenity": "cafe", "brand": "Starbucks", "brand:wikidata": "Q37158", "contact:website": "https://www.starbucks.com/store-locator/store/1015406/hwy-540-business-64-exit-24-212-hinton-oaks-boulevard-knightdale-nc-275458191-", "cuisine": "coffee_shop", "name": "Starbucks", "official_name": "Starbucks Coffee", "takeaway": "yes"}}, {"type": "node", "id": 4398946906, "lat": 35.6977939, "lon": -78.5830908, "tags": {"addr:city": "Garner", "addr:housenumber": "180", "addr:postcode": "27529", "addr:state": "NC", "addr:street": "Cabela Drive", "amenity": "cafe", "branch": "Highway 70 & Jones Sausage Road, Exi", "brand": "Starbucks", "brand:wikidata": "Q37158", "cuisine": "coffee_shop", "name": "Starbucks", "official_name": "Starbucks Coffee", "opening_hours": "Mo-Fr 05:00-21:30; Sa,Su 05:30-21:30", "phone": "+1 919-819-5059", "takeaway": "yes", "website": "https://www.starbucks.com/store-locator/store/1012155/hwy-70-jones-sausage-rd-exi-180-cabela-drive-garner-nc-275298785-us"}}, {"type": "node", "id": 4514634690, "lat": 35.8571021, "lon": -78.6799591, "tags": {"addr:city": "Raleigh", "addr:country": "US", "addr:housenumber": "2051", "addr:postcode": "27612", "addr:state": "NC", "addr:street": "West Millbrook Road", "amenity": "cafe", "branch": "Harris Teeter Raleigh 319", "brand": "Starbucks", "brand:wikidata": "Q37158", "cuisine": "coffee_shop", "name": "Starbucks", "official_name": "Starbucks Coffee", "opening_hours": "Mo-Su 06:00-20:00", "operator": "Starbucks", "phone": "+1 919-787-1364", "ref": "1011746", "smoking": "no", "takeaway": "yes", "website": "https://www.starbucks.com/store-locator/store/1011746/harris-teeter-raleigh-319-2051-w-millbrook-rd-raleigh-nc-27612-us", "wheelchair": "yes"}}, {"type": "node", "id": 4544087503, "lat": 35.7767257, "lon": -78.6368709, "tags": {"addr:city": "Raleigh", "addr:country": "US", "addr:housenumber": "134", "addr:postcode": "27601", "addr:state": "NC", "addr:street": "East Martin Street", "amenity": "cafe", "contact:email": "info@42lawrence.com", "contact:facebook": "https://www.facebook.com/42lawrence", "contact:phone": "+1-919-322-1668", "contact:website": "http://www.42lawrence.com/", "name": "42 & Lawrence"}}, {"type": "node", "id": 4544100859, "lat": 35.786567, "lon": -78.6632429, "tags": {"addr:city": "Raleigh", "addr:country": "US", "addr:housenumber": "2100", "addr:postcode": "27607", "addr:state": "NC", "addr:street": "Hillsborough Street", "amenity": "cafe", "check_date": "2024-12-26", "check_date:opening_hours": "2024-12-26", "contact:email": "info@jubalavillagecoffee.com", "contact:phone": "+1 919-792-1767", "contact:website": "http://www.jubalacoffee.com", "internet_access": "wlan", "internet_access:fee": "no", "name": "Jubala Coffee", "opening_hours": "Mo-Fr 07:00-17:00; Sa-Su 08:00-17:00"}}, {"type": "node", "id": 4565492379, "lat": 35.9126324, "lon": -78.7807484, "tags": {"addr:city": "Raleigh", "addr:housenumber": "7854", "addr:postcode": "27617", "addr:state": "NC", "addr:street": "Alexander Promenade Place", "addr:unit": "1", "amenity": "cafe", "branch": "Brier Creek Parkway & Glenwood Avenue", "brand": "Starbucks", "brand:wikidata": "Q37158", "changing_table": "yes", "cuisine": "coffee_shop", "level": "0", "name": "Starbucks", "official_name": "Starbucks Coffee", "opening_hours": "Mo-Th 5:30-22:00; Fr-Sa 5:30-22:30; Su 6:00-20:00", "outdoor_seating": "yes", "phone": "+1 919-957-9587", "ref": "12299", "smoking": "no", "takeaway": "yes", "website": "https://www.starbucks.com/store-locator/store/12299/brier-creek-pkwy-glenwood-av-7854-alexander-promenade-pl-bldg-h-ste-1-raleigh-n"}}, {"type": "node", "id": 4675486921, "lat": 35.797374, "lon": -78.7043646, "tags": {"amenity": "cafe", "cuisine": "coffee_shop;bakery", "name": "Port City Java"}}, {"type": "node", "id": 4675776565, "lat": 35.7710132, "lon": -78.7827396, "tags": {"amenity": "cafe", "brand": "Caribou Coffee", "brand:wikidata": "Q5039494", "cuisine": "coffee_shop", "name": "Caribou Coffee", "takeaway": "yes"}}, {"type": "node", "id": 4833132847, "lat": 35.8308248, "lon": -78.7704912, "tags": {"addr:city": "Cary", "addr:housenumber": "817", "addr:postcode": "27513", "addr:state": "NC", "addr:street": "Bass Pro Ln", "amenity": "cafe", "check_date": "2024-03-30", "cuisine": "smoothie", "description": "Casual, health-conscious chain cafe featuring custom smoothies, sandwiches & wraps.", "internet_access": "wlan", "internet_access:fee": "no", "name": "Tropical Smoothie Caf\u00e9", "opening_hours": "Mo-Fr 07:00-21:00; Sa 08:00-21:00; Su 10:30-21:00", "outdoor_seating": "yes", "phone": "+1-919-378-9333", "smoking": "no", "website": "https://www.tropicalsmoothiecafe.com/", "wheelchair": "yes"}}, {"type": "node", "id": 4844340100, "lat": 35.7872638, "lon": -78.7802595, "tags": {"addr:city": "Cary", "addr:housenumber": "122", "addr:postcode": "27511", "addr:state": "NC", "addr:street": "E Chatham St", "amenity": "cafe", "level": "0", "name": "Brew", "opening_hours": "Mo-Fr 07:00-18:00; Sa 08:00-18:00; Su 09:00-17:00", "phone": "+1 919-400-5473", "website": "http://brewcary.com/"}}, {"type": "node", "id": 5523893932, "lat": 35.7605635, "lon": -78.7410902, "tags": {"addr:city": "Cary", "addr:housenumber": "204", "addr:postcode": "27518", "addr:state": "NC", "addr:street": "Crossroads Boulevard", "addr:unit": "200", "amenity": "cafe", "branch": "Crossroads Boulevard & Caitboo Avenue", "brand": "Starbucks", "brand:wikidata": "Q37158", "cuisine": "coffee_shop", "name": "Starbucks", "official_name": "Starbucks Coffee", "phone": "+1 919-233-4905", "ref": "6990", "takeaway": "yes", "website": "https://www.starbucks.com/store-locator/store/6990/crossroads-blvd-caitboo-ave-204-crossroads-blvd-suite-200-cary-nc-275186905-us"}}, {"type": "node", "id": 5559669536, "lat": 35.6950007, "lon": -78.6161944, "tags": {"addr:city": "Garner", "addr:housenumber": "1401", "addr:postcode": "27529", "addr:state": "NC", "addr:street": "Aversboro Road", "addr:unit": "103", "amenity": "cafe", "check_date:currency:XBT": "2026-01-12", "contact:email": "drinkcoffee@aversborocoffee.com", "contact:facebook": "https://www.facebook.com/Caffeine01", "contact:instagram": "https://www.instagram.com/aversborocoffeegarner", "currency:XBT": "yes", "name": "Aversboro Coffee", "opening_hours": "Mo-Su 07:00-20:00", "payment:lightning": "yes", "payment:lightning:operator": "square", "payment:lightning_contactless": "no", "payment:onchain": "no", "phone": "+1-919-779-9337", "website": "https://www.aversborocoffee.com"}}, {"type": "node", "id": 5920897915, "lat": 35.7383031, "lon": -78.7982396}, {"type": "node", "id": 5941664587, "lat": 35.7876828, "lon": -78.777576, "tags": {"addr:city": "Cary", "addr:housenumber": "215", "addr:postcode": "27511", "addr:state": "NC", "addr:street": "East Chatham Street", "amenity": "cafe", "name": "Faulisi Caff\u00e8 & Enoteca", "opening_hours": "Tu-Th 09:00-15:00", "phone": "+1 919-377-8244", "website": "http://www.pizzeriafaulisi.com/"}}, {"type": "node", "id": 5975458773, "lat": 35.7050882, "lon": -78.6115437, "tags": {"addr:city": "Garner", "addr:housenumber": "507", "addr:postcode": "27529", "addr:state": "NC", "addr:street": "Plaza Circle", "amenity": "cafe", "name": "Raleigh Business Center"}}, {"type": "node", "id": 5982249455, "lat": 35.7925696, "lon": -78.624437}, {"type": "node", "id": 5982249456, "lat": 35.792273, "lon": -78.6244518}, {"type": "node", "id": 5982249457, "lat": 35.7922754, "lon": -78.6245135}, {"type": "node", "id": 5982249458, "lat": 35.7920813, "lon": -78.6245194}, {"type": "node", "id": 5982249459, "lat": 35.7920861, "lon": -78.6247106}, {"type": "node", "id": 5982249460, "lat": 35.7923159, "lon": -78.6246537}, {"type": "node", "id": 5982249461, "lat": 35.7923159, "lon": -78.6246361}, {"type": "node", "id": 5982249462, "lat": 35.7925736, "lon": -78.6246292}, {"type": "node", "id": 5984364033, "lat": 35.7639779, "lon": -78.783146}, {"type": "node", "id": 5984364034, "lat": 35.7639776, "lon": -78.7831615}, {"type": "node", "id": 5984364035, "lat": 35.7639478, "lon": -78.7831607}, {"type": "node", "id": 5984364036, "lat": 35.7639481, "lon": -78.7831437}, {"type": "node", "id": 5984364037, "lat": 35.7639381, "lon": -78.7831434}, {"type": "node", "id": 5984364038, "lat": 35.7639378, "lon": -78.7831586}, {"type": "node", "id": 5984364039, "lat": 35.7638564, "lon": -78.7831561}, {"type": "node", "id": 5984364040, "lat": 35.7638567, "lon": -78.7831403}, {"type": "node", "id": 5984364041, "lat": 35.7637982, "lon": -78.7831386}, {"type": "node", "id": 5984364042, "lat": 35.7638002, "lon": -78.7830363}, {"type": "node", "id": 5984364043, "lat": 35.7638961, "lon": -78.7830391}, {"type": "node", "id": 5984364044, "lat": 35.7638965, "lon": -78.7830222}, {"type": "node", "id": 5984364045, "lat": 35.7639385, "lon": -78.7830234}, {"type": "node", "id": 5984364046, "lat": 35.7639381, "lon": -78.7830407}, {"type": "node", "id": 5984364047, "lat": 35.764024, "lon": -78.7830433}, {"type": "node", "id": 5984364048, "lat": 35.764022, "lon": -78.7831473}, {"type": "node", "id": 5991480291, "lat": 35.7868673, "lon": -78.7814326, "tags": {"addr:city": "Cary", "addr:housenumber": "114", "addr:postcode": "27511", "addr:state": "NC", "addr:street": "South Academy Street", "air_conditioning": "yes", "amenity": "cafe", "bar": "no", "cuisine": "coffee_shop", "drive_through": "no", "name": "Esteemed Coffee", "website": "https://www.esteamedcoffee.com/menu"}}, {"type": "node", "id": 6049944185, "lat": 35.9084005, "lon": -78.7846994, "tags": {"amenity": "cafe", "name": "Rise Biscuits & Donuts", "opening_hours": "Mo-Su 07:00-14:00", "website": "https://risebiscuitsdonuts.com"}}, {"type": "node", "id": 6050166170, "lat": 35.9088009, "lon": -78.7845626, "tags": {"amenity": "cafe", "brand": "Caribou Coffee", "brand:wikidata": "Q5039494", "cuisine": "coffee_shop", "name": "Caribou Coffee", "opening_hours": "Mo-Th 06:00-21:30; Fr 06:00-22:00; Sa 06:30-22:00; Su 06:30-21:00", "takeaway": "yes"}}, {"type": "node", "id": 6380044105, "lat": 35.7878278, "lon": -78.6677588, "tags": {"addr:city": "Raleigh", "addr:country": "US", "addr:housenumber": "2428", "addr:postcode": "27607", "addr:state": "NC", "addr:street": "Hillsborough Street", "amenity": "cafe", "contact:phone": "+1-919-828-4567", "contact:website": "http://www.globalvillagecoffee.com", "cuisine": "tea;coffee_shop", "diet:organic": "yes", "internet_access": "wlan", "internet_access:fee": "customers", "level": "0", "name": "Global Village Organic Coffee", "note": "Fair Trade, all-natural", "opening_hours": "Su off; Mo-Th 07:00-18:00; Fr 07:00-16:00; Sa 08:00-14:00", "outdoor_seating": "no", "source": "survey;website", "start_date": "2000"}}, {"type": "node", "id": 6424323431, "lat": 35.7358981, "lon": -78.7816153, "tags": {"amenity": "cafe", "cuisine": "bagel", "name": "New York Bages"}}, {"type": "node", "id": 6561325875, "lat": 35.8665382, "lon": -78.6202031, "tags": {"addr:city": "Raleigh", "addr:housenumber": "6176", "addr:postcode": "27609", "addr:state": "NC", "addr:street": "Falls of Neuse Road", "addr:unit": "LL01A", "amenity": "cafe", "branch": "Falls of Neuse & Spring Forest", "brand": "Starbucks", "brand:wikidata": "Q37158", "cuisine": "coffee_shop", "name": "Starbucks", "official_name": "Starbucks Coffee", "phone": "+1 919-873-9615", "ref": "90074", "takeaway": "yes", "website": "https://www.starbucks.com/store-locator/store/90074/falls-of-neuse-spring-forest-6176-falls-of-neuse-road-ll-01-a-raleigh-nc-276093"}}, {"type": "node", "id": 6571106908, "lat": 35.8557014, "lon": -78.5804158, "tags": {"addr:city": "Raleigh", "addr:housenumber": "5100", "addr:postcode": "27616", "addr:state": "NC", "addr:street": "Capital Boulevard", "amenity": "cafe", "branch": "Capital Boulevard & Spring Forest R", "brand": "Starbucks", "brand:wikidata": "Q37158", "cuisine": "coffee_shop", "name": "Starbucks", "official_name": "Starbucks Coffee", "phone": "+1 919-713-2135", "ref": "1006986", "takeaway": "yes", "website": "https://www.starbucks.com/store-locator/store/1006986/capital-blvd-spring-forest-r-5100-capital-blvd-raleigh-nc-276164544-us"}}, {"type": "node", "id": 6993756773, "lat": 35.7834778, "lon": -78.6707183, "tags": {"addr:city": "Raleigh", "addr:housenumber": "2610", "addr:postcode": "27607", "addr:state": "NC", "addr:street": "Cates Avenue", "amenity": "cafe", "branch": "NCSU Talley Student Union", "brand": "Starbucks", "brand:wikidata": "Q37158", "cuisine": "coffee_shop", "name": "Starbucks", "official_name": "Starbucks Coffee", "opening_hours": "Su-Fr 07:30-21:00; Sa 07:30-17:00", "outdoor_seating": "yes", "phone": "+1 919-513-2013", "ref": "1009485", "takeaway": "yes", "website": "https://www.starbucks.com/store-locator/store/1009485/ncsu-talley-student-union-2610-cates-ave-raleigh-nc-27607-us"}}, {"type": "node", "id": 7003585459, "lat": 35.8000647, "lon": -78.6235822, "tags": {"addr:city": "Raleigh", "addr:housenumber": "1614", "addr:postcode": "27604", "addr:state": "NC", "addr:street": "Automotive Way", "amenity": "cafe", "cuisine": "coffee_shop", "internet_access": "yes", "internet_access:fee": "no", "name": "Pine State Coffee", "opening_hours": "Tu-Su 07:00-19:00", "outdoor_seating": "yes", "website": "https://www.pinestatecoffee.com"}}, {"type": "node", "id": 7105920248, "lat": 35.7756429, "lon": -78.6370845, "tags": {"amenity": "cafe", "name": "Sir Walter Coffee", "opening_hours": "Su-We 07:00-20:00; Th-Sa 07:00-24:00"}}, {"type": "node", "id": 7123359742, "lat": 35.8214831, "lon": -78.622777}, {"type": "node", "id": 7123359743, "lat": 35.82145, "lon": -78.6226678}, {"type": "node", "id": 7123359744, "lat": 35.8212177, "lon": -78.622775}, {"type": "node", "id": 7123359745, "lat": 35.8212509, "lon": -78.6228842}, {"type": "node", "id": 7197967382, "lat": 35.8122516, "lon": -78.6269818}, {"type": "node", "id": 7197967383, "lat": 35.8120877, "lon": -78.6269511}, {"type": "node", "id": 7197967384, "lat": 35.812118, "lon": -78.6266732}, {"type": "node", "id": 7197983785, "lat": 35.8122814, "lon": -78.6267009}, {"type": "node", "id": 7256023240, "lat": 35.6664651, "lon": -78.4977429, "tags": {"addr:city": "Clayton", "addr:housenumber": "13024", "addr:postcode": "27520", "addr:state": "NC", "addr:street": "US 70 Business West", "addr:unit": "103", "amenity": "cafe", "branch": "Highway 70 & Gulley Drive", "brand": "Starbucks", "brand:wikidata": "Q37158", "cuisine": "coffee_shop", "name": "Starbucks", "official_name": "Starbucks Coffee", "phone": "+1 919-359-0690", "takeaway": "yes", "website": "https://www.starbucks.com/store-locator/store/9868/hwy-70-gulley-dr-13024-us-highway-70-w-suite-103-clayton-nc-2752022"}}, {"type": "node", "id": 7392196386, "lat": 35.7874626, "lon": -78.6662806, "tags": {"amenity": "cafe", "cuisine": "bubble_tea", "name": "M\u00f6ge Tee"}}, {"type": "node", "id": 7392217387, "lat": 35.7882406, "lon": -78.6693901, "tags": {"addr:city": "Raleigh", "addr:housenumber": "2526", "addr:postcode": "27607", "addr:state": "NC", "addr:street": "Hillsborough Street", "addr:unit": "104", "amenity": "cafe", "branch": "Pickup - Hillsborough & Pogue", "brand": "Starbucks", "brand:wikidata": "Q37158", "cuisine": "coffee_shop", "name": "Starbucks", "official_name": "Starbucks Coffee", "phone": "+1 984-842-3003", "ref": "1031696", "takeaway": "yes", "website": "https://www.starbucks.com/store-locator/store/1031696/pickup-hillsborough-pogue-2526-hillsborough-st-104-raleigh-nc-276077266-us"}}, {"type": "node", "id": 7406506930, "lat": 35.8492442, "lon": -78.6151754, "tags": {"amenity": "cafe", "name": "Deja Brew Coffee House"}}, {"type": "node", "id": 7411505613, "lat": 35.7987495, "lon": -78.5607841, "tags": {"addr:city": "New Bern Commons", "addr:housenumber": "4421", "addr:postcode": "27610", "addr:state": "NC", "addr:street": "New Bern Avenue", "amenity": "cafe", "branch": "New Bern Avenue & New Hope Road", "brand": "Starbucks", "brand:wikidata": "Q37158", "cuisine": "coffee_shop", "name": "Starbucks", "official_name": "Starbucks Coffee", "phone": "+1 919-231-3271", "ref": "8487", "takeaway": "yes", "website": "https://www.starbucks.com/store-locator/store/8487/new-bern-ave-new-hope-rd-4421-new-bern-avenue-raleigh-nc-276101443-us"}}, {"type": "node", "id": 7502328919, "lat": 35.9009495, "lon": -78.6543811, "tags": {"addr:city": "Raleigh", "addr:housenumber": "9441", "addr:postcode": "27615", "addr:state": "NC", "addr:street": "Strickland Road", "addr:unit": "R06", "amenity": "cafe", "branch": "Six Forks & Strickland", "brand": "Starbucks", "brand:wikidata": "Q37158", "cuisine": "coffee_shop", "internet_access": "wlan", "name": "Starbucks", "official_name": "Starbucks Coffee", "phone": "+1 919-845-4566", "ref": "66396", "source": "WakeGIS", "takeaway": "yes", "website": "https://www.starbucks.com/store-locator/store/66396/six-forks-strickland-9441-strickland-road-unit-r-06-raleigh-nc-27615193"}}, {"type": "node", "id": 7557741889, "lat": 35.707068, "lon": -78.606145}, {"type": "node", "id": 7557741890, "lat": 35.707165, "lon": -78.606412}, {"type": "node", "id": 7557741891, "lat": 35.707044, "lon": -78.606479}, {"type": "node", "id": 7557741892, "lat": 35.707022, "lon": -78.606416}, {"type": "node", "id": 7557741893, "lat": 35.70699, "lon": -78.606434}, {"type": "node", "id": 7557741894, "lat": 35.706916, "lon": -78.606229}, {"type": "node", "id": 7573591791, "lat": 35.738046, "lon": -78.7982424}, {"type": "node", "id": 7573591792, "lat": 35.7380615, "lon": -78.79817}, {"type": "node", "id": 7573591793, "lat": 35.7380204, "lon": -78.7981566}, {"type": "node", "id": 7573591794, "lat": 35.7380397, "lon": -78.7980667}, {"type": "node", "id": 7573591795, "lat": 35.7380834, "lon": -78.7980809}, {"type": "node", "id": 7573591796, "lat": 35.7381034, "lon": -78.7979877}, {"type": "node", "id": 7573591797, "lat": 35.7381761, "lon": -78.7980113}, {"type": "node", "id": 7573591798, "lat": 35.7381718, "lon": -78.7980312}, {"type": "node", "id": 7573591799, "lat": 35.7382219, "lon": -78.7980475}, {"type": "node", "id": 7573591800, "lat": 35.7382008, "lon": -78.7981457}, {"type": "node", "id": 7573591801, "lat": 35.7382717, "lon": -78.7981688}, {"type": "node", "id": 7573591802, "lat": 35.7382642, "lon": -78.798204}, {"type": "node", "id": 7573591803, "lat": 35.7382873, "lon": -78.7982344}, {"type": "node", "id": 7573591804, "lat": 35.7382938, "lon": -78.7982828}, {"type": "node", "id": 7573591805, "lat": 35.7381844, "lon": -78.7982472}, {"type": "node", "id": 7573591806, "lat": 35.7381763, "lon": -78.7982848}, {"type": "node", "id": 7577705280, "lat": 35.6849322, "lon": -78.6058357, "tags": {"addr:city": "Garner", "addr:housenumber": "225", "addr:postcode": "27529", "addr:state": "NC", "addr:street": "Timber Drive", "amenity": "cafe", "internet_access": "wlan", "internet_access:fee": "customers", "name": "The Muse Coffee Co", "phone": "+14342378878", "website": "https://themusecoffee.co/"}}, {"type": "node", "id": 7752477135, "lat": 35.9051823, "lon": -78.6574251, "tags": {"amenity": "cafe", "name": "Poppyseed Market"}}, {"type": "node", "id": 7989975399, "lat": 35.8252938, "lon": -78.7086872, "tags": {"addr:city": "Raleigh", "addr:housenumber": "3300", "addr:postcode": "27612", "addr:state": "NC", "addr:street": "Duraleigh Road", "amenity": "cafe", "brand": "Caribou Coffee", "brand:wikidata": "Q5039494", "cuisine": "coffee_shop", "name": "Caribou Coffee", "opening_hours": "Mo-Su 06:00-20:00", "source": "WakeGIS", "takeaway": "yes"}}, {"type": "node", "id": 8203172296, "lat": 35.8075168, "lon": -78.7292406}, {"type": "node", "id": 8203172297, "lat": 35.8075556, "lon": -78.7292016}, {"type": "node", "id": 8203172298, "lat": 35.807501, "lon": -78.7291344}, {"type": "node", "id": 8203172299, "lat": 35.807468, "lon": -78.7291839}, {"type": "node", "id": 8203172300, "lat": 35.8074924, "lon": -78.7292052}, {"type": "node", "id": 8256226565, "lat": 35.8214133, "lon": -78.591885, "tags": {"addr:city": "Capital Boulevard Shoppes", "addr:housenumber": "3023", "addr:postcode": "27604", "addr:state": "NC", "addr:street": "Capital Boulevard", "amenity": "cafe", "branch": "Capital Boulevard & Huntleigh Drive", "brand": "Starbucks", "brand:wikidata": "Q37158", "cuisine": "coffee_shop", "name": "Starbucks", "official_name": "Starbucks Coffee", "phone": "+1 919-875-8760", "ref": "8911", "takeaway": "yes", "website": "https://www.starbucks.com/store-locator/store/8911/capital-blvd-huntleigh-dr-3023-capital-blvd-raleigh-nc-276044591-us"}}, {"type": "node", "id": 8409103919, "lat": 35.777546, "lon": -78.6459391, "tags": {"addr:city": "Raleigh", "addr:housenumber": "219", "addr:postcode": "27603", "addr:state": "NC", "addr:street": "South West Street", "amenity": "cafe", "internet_access": "wlan", "internet_access:fee": "no", "name": "Heirloom - Coffee, Tea, Sake", "opening_hours": "Mo-Tu 08:00-18:00, We-Su 08:00-16:00, We-Su 17:00-21:00", "outdoor_seating": "yes", "website": "https://www.heirloombrewshop.com/"}}, {"type": "node", "id": 8409195060, "lat": 35.7781761, "lon": -78.6396325, "tags": {"amenity": "cafe", "name": "Raleigh Raw Juice Bar & Cafe"}}, {"type": "node", "id": 8412005325, "lat": 35.7725761, "lon": -78.6461438, "tags": {"amenity": "cafe", "name": "Cold Off the Press"}}, {"type": "node", "id": 8456137455, "lat": 35.6936055, "lon": -78.6356769, "tags": {"addr:city": "Garner", "addr:housenumber": "101", "addr:postcode": "27529", "addr:state": "NC", "addr:street": "Timber Pointe Lane", "amenity": "cafe", "cuisine": "coffee_shop", "internet_access": "wlan", "internet_access:fee": "no", "name": "Lorraine's Coffee House & Music", "opening_hours": "Mo-Tu 06:00-20:30; We 06:00-19:30; Th-Fi 06:00-21:30; Sa 08:00-21:30; Su 11:30-18:00", "website": "https://www.lorrainescoffeehouse.com/"}}, {"type": "node", "id": 8462363798, "lat": 35.8853238, "lon": -78.6601002, "tags": {"addr:city": "Raleigh", "addr:housenumber": "7705", "addr:state": "NC", "addr:street": "Lead Mine Road", "amenity": "cafe", "cuisine": "coffee_shop", "internet_access": "wlan", "name": "SOLA Coffee Cafe", "opening_hours": "Tu-Su 10:00-15:00", "outdoor_seating": "yes"}}, {"type": "node", "id": 8865972717, "lat": 35.7862036, "lon": -78.6499971, "tags": {"addr:housenumber": "725", "addr:postcode": "27603", "addr:street": "Tucker Street", "amenity": "cafe", "internet_access": "wlan", "name": "Iris Coffee Lab"}}, {"type": "node", "id": 9353733665, "lat": 35.7220196, "lon": -78.6524132, "tags": {"addr:city": "Raleigh", "addr:housenumber": "4203", "addr:postcode": "27603", "addr:state": "NC", "addr:street": "Fayetteville Road", "addr:unit": "100", "amenity": "cafe", "branch": "Fayetteville Road & Annaron Court", "brand": "Starbucks", "brand:wikidata": "Q37158", "cuisine": "coffee_shop", "name": "Starbucks", "official_name": "Starbucks Coffee", "phone": "+1 919-779-3993", "ref": "1026898", "takeaway": "yes", "website": "https://www.starbucks.com/store-locator/store/1026898/fayetteville-rd-annaron-ct-4203-fayetteville-road-100-raleigh-nc-276034196-us"}}, {"type": "node", "id": 9426538769, "lat": 35.866545, "lon": -78.5678389, "tags": {"addr:city": "Raleigh", "addr:housenumber": "7900", "addr:postcode": "27616", "addr:state": "NC", "addr:street": "Old Wake Forest Road", "amenity": "cafe", "branch": "Target Raleigh 1826", "brand": "Starbucks", "brand:wikidata": "Q37158", "cuisine": "coffee_shop", "name": "Starbucks", "official_name": "Starbucks Coffee", "phone": "+1 919-790-1024", "ref": "12802", "takeaway": "yes", "website": "https://www.starbucks.com/store-locator/store/12802/target-raleigh-1826-7900-old-wake-forest-rd-raleigh-nc-276163319-us"}}, {"type": "node", "id": 9732756461, "lat": 35.8422733, "lon": -78.6834662, "tags": {"addr:city": "Raleigh", "addr:housenumber": "102", "addr:postcode": "27612", "addr:state": "NC", "addr:street": "Creedmoor Road", "amenity": "cafe", "name": "Fiction Coffee", "outdoor_seating": "yes"}}, {"type": "node", "id": 9980712470, "lat": 35.6672409, "lon": -78.6976078}, {"type": "node", "id": 9980712471, "lat": 35.6671865, "lon": -78.6976799}, {"type": "node", "id": 9980712472, "lat": 35.6672385, "lon": -78.6977395}, {"type": "node", "id": 9980712473, "lat": 35.6672306, "lon": -78.69775}, {"type": "node", "id": 9980712474, "lat": 35.6673366, "lon": -78.6978713}, {"type": "node", "id": 9980712475, "lat": 35.667399, "lon": -78.6977886}, {"type": "node", "id": 9980775945, "lat": 35.6672838, "lon": -78.6978109, "tags": {"entrance": "main"}}, {"type": "node", "id": 9980775950, "lat": 35.6672361, "lon": -78.6976142, "tags": {"entrance": "service"}}, {"type": "node", "id": 9999755542, "lat": 35.7575549, "lon": -78.7382948, "tags": {"addr:city": "Cary", "addr:housenumber": "2021", "addr:postcode": "27518", "addr:state": "NC", "addr:street": "Walnut Street", "amenity": "cafe", "branch": "Target Cary 0961", "brand": "Starbucks", "brand:wikidata": "Q37158", "cuisine": "coffee_shop", "name": "Starbucks", "official_name": "Starbucks Coffee", "phone": "+1 919-233-4451", "ref": "1020339", "takeaway": "yes", "website": "https://www.starbucks.com/store-locator/store/1020339/target-cary-0961-2021-walnut-street-cary-nc-27518-us"}}, {"type": "node", "id": 10261451958, "lat": 35.7382919, "lon": -78.798213}, {"type": "node", "id": 10261451961, "lat": 35.7382435, "lon": -78.7982665}, {"type": "node", "id": 10815295048, "lat": 35.6631833, "lon": -78.7000555, "tags": {"addr:city": "Raleigh", "addr:country": "US", "addr:housenumber": "8105", "addr:postcode": "27603", "addr:state": "NC", "addr:street": "Fayetteville Road", "addr:unit": "109", "amenity": "cafe", "name": "Smoothies+"}}, {"type": "node", "id": 10847840713, "lat": 35.8160697, "lon": -78.6937591, "tags": {"entrance": "main"}}, {"type": "node", "id": 11028854359, "lat": 35.8378248, "lon": -78.6133488, "tags": {"addr:city": "Raleigh", "addr:country": "US", "addr:housenumber": "4109", "addr:postcode": "27609", "addr:state": "NC", "addr:street": "Wake Forest Road", "addr:unit": "101", "amenity": "cafe", "branch": "Wake Forest and Hardimont Road", "brand": "Starbucks", "brand:wikidata": "Q37158", "cuisine": "coffee_shop", "delivery": "yes", "drive_through": "yes", "internet_access": "wlan", "internet_access:fee": "no", "name": "Starbucks", "official_name": "Starbucks Coffee", "opening_hours": "Mo-Th 05:00-20:00; Fr 05:00-20:30; Sa 06:00-20:30; Su 06:00-20:00", "operator": "Starbucks Coffee Company", "outdoor_seating": "yes", "payment:american_express": "yes", "payment:app": "yes", "payment:apple_pay": "yes", "payment:cash": "yes", "payment:contactless": "yes", "payment:credit_cards": "yes", "payment:cryptocurrencies": "no", "payment:debit_cards": "yes", "payment:diners_club": "yes", "payment:discover_card": "yes", "payment:google_pay": "yes", "payment:jcb": "yes", "payment:mastercard": "yes", "payment:mastercard_debit": "yes", "payment:samsung_pay": "yes", "payment:unionpay": "yes", "payment:visa": "yes", "payment:visa_debit": "yes", "phone": "+1 984-292-0090", "ref": "63942", "smoking": "no", "takeaway": "yes", "website": "https://www.starbucks.com/store-locator/store/1033544/", "wheelchair": "yes"}}, {"type": "node", "id": 11043608762, "lat": 35.8162523, "lon": -78.6938353}, {"type": "node", "id": 11043608763, "lat": 35.8162576, "lon": -78.693747}, {"type": "node", "id": 11052728535, "lat": 35.7382617, "lon": -78.7981655}, {"type": "node", "id": 11071835638, "lat": 35.704996, "lon": -78.7954899}, {"type": "node", "id": 11071835639, "lat": 35.7049237, "lon": -78.7955207}, {"type": "node", "id": 11071835640, "lat": 35.7048486, "lon": -78.7952674}, {"type": "node", "id": 11071835641, "lat": 35.7049293, "lon": -78.7952332}, {"type": "node", "id": 11146618706, "lat": 35.8270679, "lon": -78.7716646, "tags": {"addr:city": "Cary", "addr:housenumber": "2036", "addr:postcode": "27513", "addr:state": "NC", "addr:street": "Renaissance Park Place", "amenity": "cafe", "cuisine": "sandwich", "name": "Chelsea Cafe at Raleigh Brewing", "opening_hours": "Mo-Fr 16:00-20:00", "outdoor_seating": "yes", "phone": "+1 919-474-8698", "website": "https://www.chelseacafe-rtp.com"}}, {"type": "node", "id": 11146646662, "lat": 35.830897, "lon": -78.7704374, "tags": {"addr:city": "Cary", "addr:housenumber": "821", "addr:postcode": "27513", "addr:state": "NC", "addr:street": "Bass Pro Lane", "amenity": "cafe", "cafe": "board_game", "check_date": "2024-03-30", "cuisine": "coffee_shop", "name": "Meeple's Brew", "opening_hours": "Mo-Su 08:00-16:00", "outdoor_seating": "yes", "phone": "+1 919-377-0061", "website": "https://www.meeplesbrew.com", "wheelchair": "yes"}}, {"type": "node", "id": 11161470206, "lat": 35.7701476, "lon": -78.678258, "tags": {"addr:housenumber": "1020", "addr:street": "Main Campus Drive", "amenity": "cafe", "name": "Social Fabric", "opening_hours": "Mo-Fr 07:30-15:00"}}, {"type": "node", "id": 11203269491, "lat": 35.8754761, "lon": -78.7958174, "tags": {"addr:city": "Raleigh", "addr:housenumber": "2400", "addr:postcode": "27560", "addr:state": "NC", "addr:street": "John Brantley Boulevard", "amenity": "cafe", "branch": "RDU Terminal 2 Concourse D", "brand": "Starbucks", "brand:wikidata": "Q37158", "cuisine": "coffee_shop", "name": "Starbucks", "official_name": "Starbucks Coffee", "opening_hours": "Mo-Su 04:30-19:30", "phone": "+1 919-840-0506", "takeaway": "yes", "website": "https://www.rdu.com/starbucks-terminal-2/", "wheelchair": "yes"}}, {"type": "node", "id": 11203284565, "lat": 35.874657, "lon": -78.7896905, "tags": {"addr:city": "Raleigh", "addr:housenumber": "2400", "addr:postcode": "27560", "addr:state": "NC", "addr:street": "John Brantley Boulevard", "addr:unit": "919-", "amenity": "cafe", "branch": "RDU Terminal 1", "brand": "Starbucks", "brand:wikidata": "Q37158", "cuisine": "coffee_shop", "name": "Starbucks", "official_name": "Starbucks Coffee", "phone": "+1 984-209-8204", "takeaway": "yes", "website": "https://www.rdu.com/starbucks-terminal-1/"}}, {"type": "node", "id": 11291708588, "lat": 35.7895101, "lon": -78.6753007, "tags": {"amenity": "cafe", "name": "The Bliss Cafe"}}, {"type": "node", "id": 11296027077, "lat": 35.7755242, "lon": -78.6446983, "tags": {"amenity": "cafe", "name": "Black & White", "opening_hours": "Sa 09:00-18:00; Su 11:00-17:00; Mo-Fr 08:00-18:00"}}, {"type": "node", "id": 11331622864, "lat": 35.7895073, "lon": -78.6626877, "tags": {"amenity": "cafe", "name": "Cafe Carolina"}}, {"type": "node", "id": 11388702621, "lat": 35.7367055, "lon": -78.7980161, "tags": {"addr:city": "Cary", "addr:housenumber": "107", "addr:postcode": "27511", "addr:state": "NC", "addr:street": "Edinburgh Dr", "addr:unit": "106-A", "amenity": "cafe", "cuisine": "dessert;coffee_shop", "name": "Asali Cafe", "opening_hours": "Mo-Su 09:00-21:00", "phone": "+1-919-362-7882", "website": "https://www.asalievents.com/"}}, {"type": "node", "id": 11680850865, "lat": 35.7744102, "lon": -78.6353026, "tags": {"addr:housenumber": "426", "addr:postcode": "27601", "addr:street": "South Person Street", "amenity": "cafe", "cuisine": "coffee_shop", "name": "Little Native Coffee Co.", "opening_hours": "Mo-Su 07:00-17:00", "phone": "+1-919-239-4825", "website": "https://www.drinklittlenative.com", "website:menu": "http://littlenativecoffee.square.site"}}, {"type": "node", "id": 11751759590, "lat": 35.9060709, "lon": -78.7024557, "tags": {"addr:city": "Raleigh", "addr:housenumber": "12333", "addr:postcode": "27613", "addr:state": "NC", "addr:street": "Strickland Road", "amenity": "cafe", "name": "NoRa Cafe"}}, {"type": "node", "id": 12039988869, "lat": 35.8017868, "lon": -78.6353163, "tags": {"addr:housenumber": "1501", "addr:postcode": "27608", "addr:street": "Sunrise Avenue", "amenity": "cafe", "name": "Bright Spot Donuts"}}, {"type": "node", "id": 12078848548, "lat": 35.7912607, "lon": -78.6619925, "tags": {"addr:city": "Raleigh", "addr:housenumber": "500", "addr:postcode": "27605", "addr:state": "NC", "addr:street": "Oberlin Road", "amenity": "cafe", "brand": "Starbucks", "brand:wikidata": "Q37158", "cuisine": "coffee_shop", "name": "Starbucks", "official_name": "Starbucks Coffee", "opening_hours": "Su-Sa 6:00-19:00", "outdoor_seating": "no", "phone": "+1-919-828-9216", "takeaway": "yes", "website": "https://starbucks.com"}}, {"type": "node", "id": 12242308685, "lat": 35.7796945, "lon": -78.6457426, "tags": {"addr:floor": "G", "addr:housenumber": "411", "addr:street": "West Market Street", "air_conditioning": "yes", "amenity": "cafe", "check_date": "2024-10-10", "cuisine": "coffee_shop;crepe;bagel", "level": "0", "name": "Bad Cat Coffee Co", "opening_hours": "Mo-Th,Su 09:00-22:00; Fr-Sa 09:00-24:00", "outdoor_seating": "no", "payment:cash": "yes", "payment:credit_cards": "yes", "payment:debit_cards": "yes"}}, {"type": "node", "id": 12518615600, "lat": 35.8400542, "lon": -78.6792712, "tags": {"addr:floor": "1", "amenity": "cafe", "check_date": "2025-01-22", "cuisine": "bubble_tea", "level": "0", "name": "Bapu Teahouse"}}, {"type": "node", "id": 12518704027, "lat": 35.8399237, "lon": -78.6802746, "tags": {"amenity": "cafe", "brand": "Gloria Jean's", "brand:wikidata": "Q2666365", "cuisine": "coffee_shop", "name": "Gloria Jean's", "official_name": "Gloria Jean's Coffees", "takeaway": "yes"}}, {"type": "node", "id": 12518876865, "lat": 35.9113283, "lon": -78.7851712, "tags": {"amenity": "cafe", "brand": "Kung Fu Tea", "brand:wikidata": "Q66023886", "cuisine": "bubble_tea", "name": "Kung Fu Tea", "takeaway": "yes"}}, {"type": "node", "id": 12613194006, "lat": 35.821154, "lon": -78.6285415, "tags": {"addr:city": "Raleigh", "addr:housenumber": "220", "addr:postcode": "27609", "addr:state": "NC", "addr:street": "East Six Forks Road", "air_conditioning": "no", "amenity": "cafe", "bar": "no", "changing_table": "no", "check_date": "2025-02-23", "contact:facebook": "https://www.facebook.com/share/1Y5iQGsv3j/?mibextid=wwXIfr", "cuisine": "mexican", "delivery": "no", "diet:vegan": "yes", "diet:vegetarian": "yes", "email": "mrburroraleigh@gmail.com", "internet_access": "no", "name": "Mr. Burro breakfast + coffee", "outdoor_seating": "yes", "payment:cash": "yes", "payment:credit_cards": "yes", "payment:debit_cards": "yes", "phone": "+1 919-943-2190", "takeaway": "only", "toilets": "no", "wheelchair": "limited"}}, {"type": "node", "id": 12674073331, "lat": 35.7819506, "lon": -78.655651, "tags": {"addr:city": "Raleigh", "addr:housenumber": "927", "addr:postcode": "27603", "addr:state": "NC", "addr:street": "West Morgan Street", "addr:unit": "116", "amenity": "cafe", "cuisine": "coffee_shop", "name": "The Left Hook Coffee", "opening_hours": "We-Su 7:00-14:00", "website": "https://www.thelefthookcoffee.com"}}, {"type": "node", "id": 12994943701, "lat": 35.8359373, "lon": -78.6368506, "tags": {"addr:housenumber": "200", "addr:street": "Park At North Hills Street", "amenity": "cafe", "name": "Jubala Coffee", "website": "https://jubalacoffee.com"}}, {"type": "node", "id": 13019402602, "lat": 35.7941066, "lon": -78.6887486, "tags": {"addr:housenumber": "3801", "addr:postcode": "27607", "addr:street": "Hillsborough Street", "amenity": "cafe", "name": "Lucky Tree", "opening_hours": "Mo-Fr 07:00-18:00; Sa-Su 08:00-20:00"}}, {"type": "node", "id": 13077990840, "lat": 35.9026218, "lon": -78.7878074, "tags": {"addr:city": "Raleigh", "addr:housenumber": "8741", "addr:postcode": "27617", "addr:state": "NC", "addr:street": "Brier Creek Parkway", "addr:unit": "102", "amenity": "cafe", "cuisine": "bubble_tea", "name": "Tea Q Boba", "opening_hours": "Mo-Sa 12:00-20:30; Su 12:00-20:00", "phone": "+1-919-294-8202", "website": "https://teaqboba.com/"}}, {"type": "node", "id": 13288434403, "lat": 35.7616512, "lon": -78.6580286, "tags": {"amenity": "cafe", "name": "Chapel of Bones Cafe", "website": "https://chapelofbones.com/"}}, {"type": "node", "id": 13376172195, "lat": 35.7671408, "lon": -78.6531729, "tags": {"addr:housenumber": "701", "addr:street": "Palmer Drive", "amenity": "cafe", "check_date": "2025-12-14", "name": "Coffee Bar"}}, {"type": "way", "id": 47700021, "nodes": [606926035, 606926036, 606926037, 606926040, 606926035], "tags": {"addr:city": "Raleigh", "addr:country": "US", "addr:housenumber": "5424", "addr:state": "NC", "addr:street": "Six Forks Road", "amenity": "cafe", "brand": "Biggby Coffee", "brand:wikidata": "Q4906876", "building": "yes", "building:use": "commercial", "cuisine": "coffee_shop", "name": "Biggby Coffee", "source": "WakeGIS", "takeaway": "yes"}}, {"type": "way", "id": 47759489, "nodes": [607484020, 607484021, 607484022, 607484026, 607484027, 607484029, 607484031, 607484032, 607484034, 607484040, 607484042, 607484043, 607484020], "tags": {"addr:city": "Raleigh", "addr:housenumber": "210", "addr:postcode": "27603", "addr:state": "NC", "addr:street": "Prospect Avenue", "amenity": "cafe", "building": "yes", "building:use": "commercial", "description": "Purr Cup Cafe will be a unique and comfortable adoption center where local rescue kitties can thrive, and find their forever homes! We will also be a welcoming community space for all cat-lovers. Whether you adopt or not, a visit to Purr Cup Cafe, support", "diet:dairy_free": "yes", "diet:plant-based": "yes", "diet:vegan": "yes", "diet:vegetarian": "yes", "name": "Purr Cup Cafe", "opening_hours": "Mo 15:00-19:00; We-Th 09:00-19:00; Fr-Sa 09:00-20:30; Su 09:00-18:00", "outdoor_seating": "yes", "phone": "+1 919 322 4003", "source": "WakeGIS;local knowledge", "theme": "cat", "website": "https://purrcupcafe.com/"}}, {"type": "way", "id": 47759757, "nodes": [607493081, 607493083, 607493086, 607493091, 607493081], "tags": {"amenity": "cafe", "building": "yes", "building:use": "commercial", "name": "Willow House", "opening_hours": "Mo-Fr 07:00-14:00; Sa 08:00-15:00", "source": "WakeGIS"}}, {"type": "way", "id": 47777124, "nodes": [607704972, 607704973, 607704974, 607704975, 607704976, 607704977, 607704979, 607704980, 607704981, 607704983, 607704972], "tags": {"amenity": "cafe", "building": "yes", "building:use": "commercial", "cuisine": "turkish", "name": "Sahara Hookah Cafe", "source": "WakeGIS"}}, {"type": "way", "id": 47777255, "nodes": [607707315, 607707320, 607707323, 607707325, 607707327, 607707331, 607707315], "tags": {"addr:city": "Raleigh", "addr:country": "US", "addr:housenumber": "609", "addr:postcode": "27605", "addr:state": "NC", "addr:street": "West Peace Street", "amenity": "cafe", "branch": "Glenwood Avenue & Peace St", "brand": "Starbucks", "brand:wikidata": "Q37158", "building": "yes", "building:use": "commercial", "cuisine": "coffee_shop", "name": "Starbucks", "official_name": "Starbucks Coffee", "phone": "+1 919-754-9007", "takeaway": "yes", "website": "https://www.starbucks.com/store-locator/store/11183/glenwood-ave-peace-st-609-w-peace-st-raleigh-nc-276051519-us"}}, {"type": "way", "id": 47777338, "nodes": [607709503, 607709506, 607709509, 607709510, 607709503], "tags": {"addr:city": "Cameron Village", "addr:housenumber": "2105", "addr:postcode": "27605", "addr:state": "NC", "addr:street": "Cameron Street", "amenity": "cafe", "branch": "Cameron St & Oberlin Road", "brand": "Starbucks", "brand:wikidata": "Q37158", "building": "yes", "building:use": "commercial", "check_date": "2024-09-28", "cuisine": "coffee_shop", "name": "Starbucks", "official_name": "Starbucks Coffee", "phone": "+1 919-856-9444", "ref": "1017420", "source": "WakeGIS", "takeaway": "yes", "website": "https://www.starbucks.com/store-locator/store/1017420/cameron-st-oberlin-rd-2105-cameron-st-b-0210-raleigh-nc-276051312-us"}}, {"type": "way", "id": 47933315, "nodes": [609627988, 609627991, 609627993, 609627995, 609627988], "tags": {"addr:city": "Raleigh", "addr:housenumber": "3100", "addr:postcode": "27607", "addr:state": "NC", "addr:street": "Hillsborough Street", "amenity": "cafe", "building": "retail", "building:use": "commercial", "cuisine": "coffee_shop", "internet_access": "yes", "internet_access:fee": "customers", "name": "Cup a Joe", "phone": "+1 919 828 9665", "source": "WakeGIS;local knowledge", "website": "https://www.cupajoe.com"}}, {"type": "way", "id": 47933425, "nodes": [609631758, 11043608763, 609631761, 609631763, 609631769, 609631772, 609631775, 609631777, 609631784, 10847840713, 609631787, 609631791, 609631800, 609631804, 609631812, 609631816, 609631820, 609631824, 609631828, 609631836, 609631840, 11043608762, 609631844, 609631758], "tags": {"addr:city": "Raleigh", "addr:housenumber": "3800", "addr:postcode": "27607", "addr:state": "NC", "addr:street": "Lake Boone Trail", "amenity": "cafe", "branch": "Lake Boone Trail & Wycliff Road", "brand": "Starbucks", "brand:wikidata": "Q37158", "building": "yes", "building:use": "commercial", "check_date": "2023-04-28", "cuisine": "coffee_shop", "drive_through": "yes", "internet_access": "wlan", "internet_access:fee": "no", "name": "Starbucks", "official_name": "Starbucks Coffee", "opening_hours": "Mo-Su 05:00-20:00", "outdoor_seating": "yes", "phone": "+1 919-781-6211", "source": "WakeGIS", "takeaway": "yes", "website": "https://www.starbucks.com/store-locator/store/10051/lake-boone-trail-wycliff-rd-3800-lake-boone-trail-raleigh-nc-276072927-us"}}, {"type": "way", "id": 209632660, "nodes": [2198232038, 2198232029, 2198232031, 2198232032, 2198232039, 2198232038], "tags": {"addr:city": "Raleigh", "addr:country": "US", "addr:housenumber": "10", "addr:postcode": "27601", "addr:state": "NC", "addr:street": "East Hargett Street", "amenity": "cafe", "building": "yes", "building:levels": "2", "name": "Morning Times", "opening_hours": "Mo-Su 07:00-18:00", "phone": "+1-919-836-1204", "website": "https://www.morningtimes-raleigh.com/"}}, {"type": "way", "id": 303403863, "nodes": [3077600239, 3077600241, 3077600232, 3077600230, 3077600239], "tags": {"addr:housenumber": "4112", "addr:street": "Pleasant Valley Road", "amenity": "cafe", "building": "yes", "building:use": "commercial", "cuisine": "coffee_shop", "name": "New World Coffee House", "source": "WakeGIS"}}, {"type": "way", "id": 633771014, "nodes": [5982249455, 5982249456, 5982249457, 5982249458, 5982249459, 5982249460, 5982249461, 5982249462, 5982249455], "tags": {"addr:city": "Raleigh", "addr:housenumber": "1000", "addr:postcode": "27604", "addr:state": "NC", "addr:street": "Brookside Drive", "air_conditioning": "yes", "amenity": "cafe", "building": "yes", "check_date": "2023-03-23", "cuisine": "coffee_shop;tea;coffee;dessert", "internet_access": "wlan", "internet_access:fee": "customers", "internet_access:ssid": "The Optiguest", "name": "The Optimist", "opening_hours": "Mo-We 07:00-18:00; Th-Sa 07:00-21:00; Su 08:00-17:00", "outdoor_seating": "yes", "payment:mastercard": "yes", "payment:visa": "yes", "phone": "+1-919-896-8988", "source": "survey", "website": "https://www.theoptimistraleigh.com/", "wheelchair": "yes"}}, {"type": "way", "id": 634042956, "nodes": [5984364048, 5984364047, 5984364046, 5984364045, 5984364044, 5984364043, 5984364042, 5984364041, 5984364040, 5984364039, 5984364038, 5984364037, 5984364036, 5984364035, 5984364034, 5984364033, 5984364048], "tags": {"addr:city": "Kildaire Plaza", "addr:housenumber": "1217", "addr:postcode": "27511", "addr:state": "NC", "addr:street": "Kildaire Farm Road", "amenity": "cafe", "branch": "Kildaire Farm & Farmington Woo", "brand": "Starbucks", "brand:wikidata": "Q37158", "building": "yes", "cuisine": "coffee_shop", "name": "Starbucks", "official_name": "Starbucks Coffee", "phone": "+1 919-465-1229", "ref": "17522", "takeaway": "yes", "website": "https://www.starbucks.com/store-locator/store/17522/kildaire-farm-farmington-woo-1217-kildaire-farm-road-cary-nc-275115523-us"}}, {"type": "way", "id": 762366873, "nodes": [7123359742, 7123359743, 7123359744, 7123359745, 7123359742], "tags": {"addr:city": "Raleigh", "addr:country": "US", "addr:housenumber": "2901", "addr:postcode": "27609", "addr:state": "NC", "addr:street": "Sherman Oak Place", "amenity": "cafe", "branch": "Wake Forest Road and Six Forks R", "brand": "Starbucks", "brand:wikidata": "Q37158", "building": "commercial", "cuisine": "coffee_shop", "internet_access": "wlan", "internet_access:fee": "no", "name": "Starbucks", "official_name": "Starbucks Coffee", "opening_hours": "Mo-Su 05:00-21:00", "outdoor_seating": "yes", "payment:american_express": "yes", "payment:coins": "yes", "payment:contactless": "yes", "payment:discover_card": "yes", "payment:jcb": "yes", "payment:maestro": "yes", "payment:mastercard": "yes", "payment:notes": "yes", "payment:visa": "yes", "payment:visa_debit": "yes", "phone": "+1 919-817-1908", "smoking": "no", "takeaway": "yes", "website": "https://www.starbucks.com/store-locator/store/1027950/wake-forest-rd-and-six-forks-r-2901-sherman-oak-place-raleigh-nc-276097496-us", "wheelchair": "yes"}}, {"type": "way", "id": 771086746, "nodes": [7197967382, 7197967383, 7197967384, 7197983785, 7197967382], "tags": {"addr:city": "Raleigh", "addr:housenumber": "2310", "addr:postcode": "27608", "addr:state": "NC", "addr:street": "Bale Street", "amenity": "cafe", "building": "yes", "name": "BREW Coffee Bar - McNeill Pointe"}}, {"type": "way", "id": 808231432, "nodes": [7557741889, 7557741890, 7557741891, 7557741892, 7557741893, 7557741894, 7557741889], "tags": {"addr:city": "Garner", "addr:housenumber": "141", "addr:postcode": "27529", "addr:state": "NC", "addr:street": "West Main Street", "amenity": "cafe", "building": "yes", "building:levels": "2", "cuisine": "coffee_shop;beer;sandwich;breakfast;tea", "internet_access": "wlan", "internet_access:fee": "no", "name": "Full Bloom Coffee", "opening_hours": "Tu-Fr 08:00-18:00; Sa-Su 08:00-15:00", "outdoor_seating": "yes", "phone": "+1-919-720-4013", "source": "microsoft/BuildingFootprints", "website": "https://fullbloomcoffee.com/"}}, {"type": "way", "id": 810081778, "nodes": [7573591791, 7573591792, 7573591793, 7573591794, 7573591795, 7573591796, 7573591797, 7573591798, 7573591799, 7573591800, 11052728535, 7573591801, 7573591802, 10261451958, 7573591803, 5920897915, 7573591804, 10261451961, 7573591805, 7573591806, 7573591791], "tags": {"addr:city": "Cary", "addr:housenumber": "101", "addr:postcode": "27511", "addr:state": "NC", "addr:street": "Edinburgh South Drive", "amenity": "cafe", "branch": "US64 & Edinburgh", "brand": "Starbucks", "brand:wikidata": "Q37158", "building": "yes", "cuisine": "coffee_shop", "name": "Starbucks", "official_name": "Starbucks Coffee", "phone": "+1 919-205-4456", "ref": "1033158", "source": "microsoft/BuildingFootprints", "takeaway": "yes", "website": "https://www.starbucks.com/store-locator/store/1033158/us-64-edinburgh-101-edinburgh-south-drive-cary-nc-275118421-us"}}, {"type": "way", "id": 882099470, "nodes": [8203172296, 8203172297, 8203172298, 8203172299, 8203172300, 8203172296], "tags": {"addr:street": "Wade Park Boulevard", "amenity": "cafe", "building:part": "yes", "check_date": "2022-11-02", "cuisine": "breakfast", "name": "Wade Park Cafe", "opening_hours": "Mo-Fr 07:00-14:00", "outdoor_seating": "yes", "payment:mastercard": "yes", "payment:visa": "yes", "wheelchair": "yes"}}, {"type": "way", "id": 1089576058, "nodes": [9980712475, 9980712474, 9980775945, 9980712473, 9980712472, 9980712471, 9980775950, 9980712470, 9980712475], "tags": {"addr:city": "Raleigh", "addr:housenumber": "7860", "addr:postcode": "27603", "addr:state": "NC", "addr:street": "Fayetteville Road", "amenity": "cafe", "branch": "Fayetteville Road & Ten Ten", "brand": "Starbucks", "brand:wikidata": "Q37158", "building": "retail", "cuisine": "coffee_shop", "name": "Starbucks", "official_name": "Starbucks Coffee", "opening_hours": "Mo-Fr 05:30-20:30; Sa,Su 05:30-20:00", "phone": "+1 984-292-1179", "ref": "1039435", "takeaway": "yes", "website": "https://www.starbucks.com/store-locator/store/1039435/fayetteville-rd-ten-ten-7860-fayetteville-rd-raleigh-nc-276035432-us"}}, {"type": "way", "id": 1192732474, "nodes": [11071835638, 11071835639, 11071835640, 11071835641, 11071835638], "tags": {"addr:city": "Cary", "addr:housenumber": "3460", "addr:postcode": "27518", "addr:state": "NC", "addr:street": "Kildaire Farm", "amenity": "cafe", "branch": "Kildaire Farm & Ten Ten Road", "brand": "Starbucks", "brand:wikidata": "Q37158", "building": "yes", "cuisine": "coffee_shop", "name": "Starbucks", "official_name": "Starbucks Coffee", "phone": "+1 984-222-5621", "ref": "1024384", "takeaway": "yes", "website": "https://www.starbucks.com/store-locator/store/1024384/kildaire-farm-ten-ten-rd-3460-kildaire-farm-cary-nc-275181541-us"}}]}