{"version": 0.6, "generator": "Overpass API 0.7.62.8 e802775f", "osm3s": {"timestamp_osm_base": "2026-01-12T22:53:26Z", "copyright": "The data included in this document is from www.openstreetmap.org. The data is made available under ODbL."}, "elements": [{"type": "node", "id": 360064312, "lat": 35.7570068, "lon": -78.7839267}, {"type": "node", "id": 360064317, "lat": 35.7572785, "lon": -78.7839611}, {"type": "node", "id": 360064326, "lat": 35.7572088, "lon": -78.7846906}, {"type": "node", "id": 360064334, "lat": 35.756965, "lon": -78.7846649}, {"type": "node", "id": 606648960, "lat": 35.8830973, "lon": -78.6467352}, {"type": "node", "id": 606648964, "lat": 35.8830842, "lon": -78.6467332}, {"type": "node", "id": 606648968, "lat": 35.8830953, "lon": -78.6466191}, {"type": "node", "id": 606648984, "lat": 35.8829532, "lon": -78.6465985}, {"type": "node", "id": 606648990, "lat": 35.8829299, "lon": -78.6468399}, {"type": "node", "id": 606648999, "lat": 35.8830729, "lon": -78.6468607}, {"type": "node", "id": 606649014, "lat": 35.8830821, "lon": -78.6467635}, {"type": "node", "id": 606649018, "lat": 35.8830943, "lon": -78.6467653}, {"type": "node", "id": 606658894, "lat": 35.8368537, "lon": -78.6128523}, {"type": "node", "id": 606658899, "lat": 35.8367883, "lon": -78.6127057}, {"type": "node", "id": 606658910, "lat": 35.8367531, "lon": -78.6127295}, {"type": "node", "id": 606658922, "lat": 35.8367192, "lon": -78.6126547}, {"type": "node", "id": 606658930, "lat": 35.8365799, "lon": -78.6127437}, {"type": "node", "id": 606658935, "lat": 35.8366151, "lon": -78.6128221}, {"type": "node", "id": 606658940, "lat": 35.8365713, "lon": -78.6128516}, {"type": "node", "id": 606658946, "lat": 35.8366367, "lon": -78.6129982}, {"type": "node", "id": 606658950, "lat": 35.8366808, "lon": -78.6129686}, {"type": "node", "id": 606658960, "lat": 35.8367008, "lon": -78.613013}, {"type": "node", "id": 606658970, "lat": 35.8368409, "lon": -78.6129235}, {"type": "node", "id": 606658974, "lat": 35.8368192, "lon": -78.6128755}, {"type": "node", "id": 608343752, "lat": 35.9063604, "lon": -78.6584696}, {"type": "node", "id": 608343760, "lat": 35.9063175, "lon": -78.6584479}, {"type": "node", "id": 608343762, "lat": 35.9063239, "lon": -78.6584285}, {"type": "node", "id": 608343768, "lat": 35.9062844, "lon": -78.6584099}, {"type": "node", "id": 608343776, "lat": 35.9062789, "lon": -78.6584274}, {"type": "node", "id": 608343778, "lat": 35.9062327, "lon": -78.6584055}, {"type": "node", "id": 608343781, "lat": 35.9061798, "lon": -78.6585743}, {"type": "node", "id": 608343783, "lat": 35.9063104, "lon": -78.6586372}, {"type": "node", "id": 608343796, "lat": 35.9063633, "lon": -78.658471}, {"type": "node", "id": 608904037, "lat": 35.8985604, "lon": -78.6798774}, {"type": "node", "id": 608904038, "lat": 35.8985544, "lon": -78.6799595}, {"type": "node", "id": 608904040, "lat": 35.8986019, "lon": -78.6800302}, {"type": "node", "id": 608904041, "lat": 35.8986383, "lon": -78.6800344}, {"type": "node", "id": 608904043, "lat": 35.898694, "lon": -78.6799777}, {"type": "node", "id": 608904045, "lat": 35.8987371, "lon": -78.6799827}, {"type": "node", "id": 608904047, "lat": 35.8987493, "lon": -78.6798181}, {"type": "node", "id": 608904048, "lat": 35.8986317, "lon": -78.679805}, {"type": "node", "id": 610143250, "lat": 35.8805062, "lon": -78.6463603}, {"type": "node", "id": 610143251, "lat": 35.8804846, "lon": -78.646627}, {"type": "node", "id": 610143252, "lat": 35.8806798, "lon": -78.6466511}, {"type": "node", "id": 610143254, "lat": 35.8806979, "lon": -78.6464274}, {"type": "node", "id": 610143255, "lat": 35.8807183, "lon": -78.6464074}, {"type": "node", "id": 610143256, "lat": 35.8806891, "lon": -78.646362}, {"type": "node", "id": 610143259, "lat": 35.8806702, "lon": -78.6463805}, {"type": "node", "id": 2103238239, "lat": 35.7389709, "lon": -78.7852191, "tags": {"addr:country": "US", "addr:full": "301 Ashville Avenue, Suite 101", "addr:housenumber": "301-101", "addr:postcode": "27518", "addr:state": "NC", "addr:street": "Ashville Avenue", "amenity": "dentist", "contact:fax": "+1 919 887 6351", "contact:phone": "+1 919 887 6350", "contact:website": "http://www.thetoothmover.com/cary-orthodontics/", "health_facility:type": "office", "health_specialty:dentistry": "trained", "health_specialty:orthodontics": "main", "healthcare": "dentist", "medical_system:western": "yes", "name": "Cary Orthodontics", "office": "physician"}}, {"type": "node", "id": 2302700724, "lat": 35.6858181, "lon": -78.5762849}, {"type": "node", "id": 2302700725, "lat": 35.6858777, "lon": -78.5761599}, {"type": "node", "id": 2302700726, "lat": 35.6859194, "lon": -78.57619}, {"type": "node", "id": 2302700728, "lat": 35.686009, "lon": -78.576002}, {"type": "node", "id": 2302700729, "lat": 35.6857577, "lon": -78.5758204}, {"type": "node", "id": 2302700730, "lat": 35.6856084, "lon": -78.5761334}, {"type": "node", "id": 2869509369, "lat": 35.7467773, "lon": -78.7416918, "tags": {"addr:city": "Cary", "addr:housenumber": "8204", "addr:postcode": "27518", "addr:state": "NC", "addr:street": "Tryon Woods Drive", "addr:suite": "102", "amenity": "dentist", "healthcare": "dentist", "name": "Stapleton Dentistry", "phone": "+1-919-851-6161", "website": "https://stapletondentistry.com/"}}, {"type": "node", "id": 3205477947, "lat": 35.8981261, "lon": -78.6498036, "tags": {"amenity": "dentist", "healthcare": "dentist", "name": "Colonnade Dental"}}, {"type": "node", "id": 3248743365, "lat": 35.77809, "lon": -78.6390218, "tags": {"addr:city": "Raleigh", "addr:housenumber": "205", "addr:postcode": "27601", "addr:state": "NC", "addr:street": "Fayetteville Street", "addr:unit": "100", "amenity": "dentist", "healthcare": "dentist", "name": "Downtown Dental", "phone": "+1-919-948-7722", "website": "http://www.thedowntowndentists.com"}}, {"type": "node", "id": 4172319995, "lat": 35.7963131, "lon": -78.5026391, "tags": {"amenity": "dentist", "name": "Riccobene Family Dentistry"}}, {"type": "node", "id": 4452493111, "lat": 35.8879067, "lon": -78.6804299}, {"type": "node", "id": 4452493112, "lat": 35.8879148, "lon": -78.6803088}, {"type": "node", "id": 4452493113, "lat": 35.8879435, "lon": -78.6803117}, {"type": "node", "id": 4452493114, "lat": 35.8879522, "lon": -78.6801816}, {"type": "node", "id": 4452493115, "lat": 35.8879237, "lon": -78.6801787}, {"type": "node", "id": 4452493116, "lat": 35.8879327, "lon": -78.6800453}, {"type": "node", "id": 4452493117, "lat": 35.8876382, "lon": -78.6800151}, {"type": "node", "id": 4452493118, "lat": 35.8876124, "lon": -78.6803997}, {"type": "node", "id": 4455034160, "lat": 35.8535485, "lon": -78.6410029, "tags": {"addr:city": "Raleigh", "addr:country": "US", "addr:housenumber": "107", "addr:postcode": "27609", "addr:state": "NC", "addr:street": "Windel Drive", "addr:unit": "101", "amenity": "dentist", "healthcare": "dentist", "name": "MidTown Smiles Dental Care", "phone": "+1-919-787-5599", "website": "https://midtown-smiles.com"}}, {"type": "node", "id": 5519569307, "lat": 35.7439228, "lon": -78.6810735}, {"type": "node", "id": 5605880412, "lat": 35.7599244, "lon": -78.740325, "tags": {"addr:city": "Cary", "addr:housenumber": "226", "addr:postcode": "27518", "addr:state": "NC", "addr:street": "Crossroads Boulevard", "amenity": "dentist", "brand": "DentalWorks", "brand:wikidata": "Q113712187", "healthcare": "dentist", "name": "DentalWorks"}}, {"type": "node", "id": 6050044885, "lat": 35.9083849, "lon": -78.7846346, "tags": {"amenity": "dentist", "healthcare": "dentist", "name": "Brier Creek Dental Studio", "opening_hours:signed": "no"}}, {"type": "node", "id": 6152364326, "lat": 35.7661678, "lon": -78.7814489, "tags": {"addr:city": "Cary", "addr:housenumber": "1146", "addr:postcode": "27511", "addr:state": "NC", "addr:street": "Executive Cir", "amenity": "dentist", "healthcare": "dentist", "healthcare:speciality": "dentist;dentistry", "name": "Beavers Dentistry", "opening_hours": "Mo-We 07:30-16:30; Th 07:30-15:00"}}, {"type": "node", "id": 6305467067, "lat": 35.9012093, "lon": -78.6050367, "tags": {"addr:city": "Raleigh", "addr:housenumber": "9212", "addr:postcode": "27615", "addr:state": "NC", "addr:street": "Falls of Neuse Road", "addr:unit": "215", "amenity": "dentist", "fax": "+1 919-845-7786", "healthcare": "dentist", "name": "Caring Smile Family Dentistry", "opening_hours": "Mo,We 08:00-17:00; Tu,Th 07:00-17:00; Fr 09:00-12:00", "operator": "Bridget Neuman", "payment:cash": "yes", "payment:cheque": "yes", "payment:discover_card": "yes", "payment:mastercard": "yes", "payment:visa": "yes", "phone": "+1 919-845-7778", "website": "https://www.caringsmilefamilydentistry.com/"}}, {"type": "node", "id": 6340711133, "lat": 35.865352, "lon": -78.6798347}, {"type": "node", "id": 6340711134, "lat": 35.8653682, "lon": -78.68002}, {"type": "node", "id": 6340711135, "lat": 35.8652109, "lon": -78.6800408}, {"type": "node", "id": 6340711136, "lat": 35.8651975, "lon": -78.6798874}, {"type": "node", "id": 6340711137, "lat": 35.8652051, "lon": -78.6798864}, {"type": "node", "id": 6340711138, "lat": 35.8652023, "lon": -78.6798544}, {"type": "node", "id": 6388255283, "lat": 35.8982334, "lon": -78.6803934}, {"type": "node", "id": 6388255284, "lat": 35.8981555, "lon": -78.6803859}, {"type": "node", "id": 6388255285, "lat": 35.8981578, "lon": -78.6803492}, {"type": "node", "id": 6388255286, "lat": 35.8981084, "lon": -78.6803445}, {"type": "node", "id": 6388255287, "lat": 35.8981223, "lon": -78.6801232}, {"type": "node", "id": 6388255288, "lat": 35.8982793, "lon": -78.6801382}, {"type": "node", "id": 6388255289, "lat": 35.898265, "lon": -78.6803669}, {"type": "node", "id": 6388255290, "lat": 35.8982352, "lon": -78.680364}, {"type": "node", "id": 6402161493, "lat": 35.8965595, "lon": -78.6812669, "tags": {"amenity": "dentist", "healthcare": "dentist", "name": "Cynthia N Elderkin"}}, {"type": "node", "id": 6424328983, "lat": 35.7574812, "lon": -78.7799929, "tags": {"amenity": "dentist", "healthcare": "dentist"}}, {"type": "node", "id": 6446457591, "lat": 35.8877105, "lon": -78.6804098}, {"type": "node", "id": 6460684859, "lat": 35.8849742, "lon": -78.6800109, "tags": {"amenity": "dentist", "healthcare": "dentist", "name": "Scruggs and Molina, DDS"}}, {"type": "node", "id": 6489185166, "lat": 35.874551, "lon": -78.6788086, "tags": {"amenity": "dentist", "healthcare": "dentist", "name": "Southern Dental Arts"}}, {"type": "node", "id": 6504384516, "lat": 35.8652933, "lon": -78.6800299}, {"type": "node", "id": 6504519743, "lat": 35.8627788, "lon": -78.6799748, "tags": {"amenity": "dentist", "healthcare": "dentist", "name": "Smileplicity Dentistry"}}, {"type": "node", "id": 6562040859, "lat": 35.8709696, "lon": -78.5784437, "tags": {"addr:city": "Raleigh", "addr:housenumber": "6320", "addr:postcode": "27616", "addr:state": "NC", "addr:street": "Capital Boulevard", "addr:unit": "121", "amenity": "dentist", "healthcare": "dentist", "name": "Lane and Associates Family Dentistry", "opening_hours": "Mo-Th 08:00-17:00; Fr-Sa 08:00-14:00", "phone": "+1-919-861-9101"}}, {"type": "node", "id": 6879965663, "lat": 35.886082, "lon": -78.6462417, "tags": {"amenity": "dentist", "healthcare": "dentist", "name": "Dr. Don Kindrachuk and Dr. Kevin Gilchrist"}}, {"type": "node", "id": 6879965664, "lat": 35.8860874, "lon": -78.6461298, "tags": {"amenity": "dentist", "healthcare": "dentist", "name": "Cheek-Hill Orthodontics"}}, {"type": "node", "id": 6879971001, "lat": 35.8858804, "lon": -78.6461134, "tags": {"amenity": "dentist", "healthcare": "dentist", "name": "Dr. Randal Benefield Family Dentistry"}}, {"type": "node", "id": 6880266680, "lat": 35.8830807, "lon": -78.6467789}, {"type": "node", "id": 6880270385, "lat": 35.8829659, "lon": -78.6468452}, {"type": "node", "id": 6880270388, "lat": 35.882935, "lon": -78.6467876}, {"type": "node", "id": 6880270393, "lat": 35.8830248, "lon": -78.6466089}, {"type": "node", "id": 6916127921, "lat": 35.8761924, "lon": -78.6446768, "tags": {"amenity": "dentist", "healthcare": "dentist", "name": "Beverly Thurmond, DDS"}}, {"type": "node", "id": 7076568401, "lat": 35.8622792, "lon": -78.6370106, "tags": {"addr:city": "Raleigh", "addr:housenumber": "5964", "addr:postcode": "27609", "addr:state": "NC", "addr:street": "Six Forks Road", "amenity": "dentist", "healthcare": "dentist", "healthcare:speciality": "orthodontics", "name": "Nelson Orthodontics"}}, {"type": "node", "id": 7084326160, "lat": 35.8601948, "lon": -78.63816, "tags": {"amenity": "dentist", "healthcare": "dentist", "name": "Midtown Dental"}}, {"type": "node", "id": 7084800072, "lat": 35.8587628, "lon": -78.6387746, "tags": {"amenity": "dentist", "healthcare": "dentist", "healthcare:speciality": "endodontics", "name": "Raleigh Endodontics"}}, {"type": "node", "id": 7103687083, "lat": 35.8536183, "lon": -78.6418004, "tags": {"addr:floor": "1", "addr:housenumber": "5300", "addr:street": "Six Forks Road", "addr:unit": "101", "amenity": "dentist", "check_date": "2025-09-10", "email": "smilesbydrdrew@gmail.com", "healthcare": "dentist", "internet_access": "wlan", "internet_access:fee": "customers", "level": "0", "name": "Julian Drew, DDS", "opening_hours": "Mo,We 08:00-13:00,14:00-17:00; Tu,Th 07:00-15:00; Fr 08:00-13:00", "payment:cash": "yes", "payment:credit_cards": "yes", "payment:debit_cards": "yes", "phone": "+1-252-421-5393", "website": "https://www.smilesbydrdrew.com/"}}, {"type": "node", "id": 7107755350, "lat": 35.8499949, "lon": -78.6442224, "tags": {"amenity": "dentist", "healthcare": "dentist", "healthcare:speciality": "orthodontics", "name": "Zaytoun Orthodontics"}}, {"type": "node", "id": 7107755351, "lat": 35.8499784, "lon": -78.6441221, "tags": {"amenity": "dentist", "healthcare": "dentist", "healthcare:speciality": "pediatric;dentist", "name": "Midtown Pediatrric Dentistry"}}, {"type": "node", "id": 7152839182, "lat": 35.712328, "lon": -78.626985}, {"type": "node", "id": 7152839183, "lat": 35.712433, "lon": -78.626987}, {"type": "node", "id": 7152839184, "lat": 35.712431, "lon": -78.627114}, {"type": "node", "id": 7152840185, "lat": 35.712482, "lon": -78.627115}, {"type": "node", "id": 7152840186, "lat": 35.712481, "lon": -78.627231}, {"type": "node", "id": 7152840187, "lat": 35.712325, "lon": -78.627229}, {"type": "node", "id": 7154631769, "lat": 35.717188, "lon": -78.633132}, {"type": "node", "id": 7154631770, "lat": 35.71719, "lon": -78.633239}, {"type": "node", "id": 7154631771, "lat": 35.717053, "lon": -78.633243}, {"type": "node", "id": 7154631772, "lat": 35.717056, "lon": -78.63342}, {"type": "node", "id": 7154631773, "lat": 35.716959, "lon": -78.633423}, {"type": "node", "id": 7154631774, "lat": 35.716954, "lon": -78.633139}, {"type": "node", "id": 7194595999, "lat": 35.79493, "lon": -78.5117737, "tags": {"addr:city": "Knightdale", "addr:housenumber": "1008-D", "addr:postcode": "27545", "addr:state": "NC", "addr:street": "Big Oak Court", "amenity": "dentist", "healthcare": "dentist", "name": "Baumgarner &Martin orthodontics"}}, {"type": "node", "id": 7248487232, "lat": 35.651311, "lon": -78.4842655, "tags": {"addr:city": "Clayton", "addr:housenumber": "45", "addr:postcode": "27520", "addr:state": "NC", "addr:street": "Shotwell Road", "amenity": "dentist", "healthcare": "dentist", "name": "DENTAL OASIS OF CLAYTON", "phone": "+1-919-550-5200"}}, {"type": "node", "id": 7406343105, "lat": 35.8386132, "lon": -78.6084742, "tags": {"amenity": "dentist", "healthcare": "dentist", "name": "Borkan Family Dentistry"}}, {"type": "node", "id": 7409158331, "lat": 35.8684, "lon": -78.6213086, "tags": {"amenity": "dentist", "healthcare": "dentist", "name": "Carolina Dental Arts"}}, {"type": "node", "id": 7411505631, "lat": 35.799783, "lon": -78.5578239, "tags": {"amenity": "dentist", "healthcare": "dentist", "name": "New Hope Dental Care"}}, {"type": "node", "id": 7653426304, "lat": 35.9020182, "lon": -78.6027304, "tags": {"amenity": "dentist", "healthcare": "dentist", "name": "Healthy Smiles"}}, {"type": "node", "id": 7759154812, "lat": 35.6927074, "lon": -78.773504, "tags": {"addr:city": "Cary", "addr:housenumber": "8755", "addr:postcode": "27539", "addr:state": "NC", "addr:street": "Holly Springs Road", "amenity": "dentist", "healthcare": "dentist", "healthcare:speciality": "dentist", "name": "Western Wake Family Dentistry", "opening_hours:covid19": "restricted", "phone": "+1-919-267-3456", "website": "https://westernwakedental.com/"}}, {"type": "node", "id": 7898970623, "lat": 35.7722234, "lon": -78.781294, "tags": {"addr:city": "Cary", "addr:housenumber": "915", "addr:postcode": "27511", "addr:state": "NC", "addr:street": "Kildaire Farm Road", "amenity": "dentist", "healthcare": "dentist", "name": "Cary Family Dental", "opening_hours": "Mo-Th 08:00-17:00; Fr 07:00-17:00; Sa 08:00-15:00", "phone": "+1-919-371-4428", "website": "https://www.carydental.com"}}, {"type": "node", "id": 8573339852, "lat": 35.7440278, "lon": -78.6809326}, {"type": "node", "id": 8573339854, "lat": 35.7437087, "lon": -78.6808134}, {"type": "node", "id": 8573339855, "lat": 35.7438128, "lon": -78.6806774}, {"type": "node", "id": 8573339856, "lat": 35.7438507, "lon": -78.680982}, {"type": "node", "id": 9025731443, "lat": 35.8323701, "lon": -78.6330846, "tags": {"addr:city": "Raleigh", "addr:housenumber": "101", "addr:postcode": "27609", "addr:state": "NC", "addr:street": "Computer Drive", "addr:unit": "3803", "amenity": "dentist", "description": "North Hills Dentistry is a great place to go for dental work. The midtown Raleigh dentist are very caring and genuine people and they fight really hard to make sure their patients are happy. We are located at 3803 Computer Dr #101, Raleigh, NC 27609", "email": "northhillsdentistrync@gmail.com", "healthcare": "dentist", "healthcare:speciality": "dentist", "image": "https://a4.pbase.com/o12/92/2802892/1/171710326.YGGgkaOf.dentist-raleigh-nc.jpg", "name": "North Hills Dentistry", "opening_hours": "Mo 08:00-17:00; Tu,We 08:00-19:00; Th 07:00-15:00; Fr-Su off", "phone": "+1-919-781-0056", "website": "https://northhillsdds.com/"}}, {"type": "node", "id": 9036537372, "lat": 35.9135728, "lon": -78.7792556, "tags": {"amenity": "dentist", "healthcare": "dentist", "name": "Brier Creek Dental"}}, {"type": "node", "id": 9487738200, "lat": 35.9002019, "lon": -78.6800582, "tags": {"addr:city": "Raleigh", "addr:housenumber": "8304", "addr:postcode": "27613", "addr:state": "NC", "addr:street": "Creedmoor Road", "addr:unit": "1", "amenity": "dentist", "building": "yes", "building:use": "commercial", "healthcare": "dentist", "name": "Raleigh Dental Arts", "source": "WakeGIS"}}, {"type": "node", "id": 9517558368, "lat": 35.7980734, "lon": -78.4989675, "tags": {"addr:city": "Knightdale", "addr:housenumber": "6000", "addr:postcode": "27545", "addr:state": "NC", "addr:street": "Village Park Drive", "addr:unit": "130", "amenity": "dentist", "healthcare": "dentist", "name": "Parkstone Dental Care", "phone": "+1-919-261-1227", "website": "https://parkstonedentalcare.com"}}, {"type": "node", "id": 9743040922, "lat": 35.8523727, "lon": -78.5868582, "tags": {"addr:city": "Raleigh", "addr:country": "US", "addr:housenumber": "4905", "addr:postcode": "27616", "addr:state": "NC", "addr:street": "Green Rd, #111", "amenity": "dentist", "fax": "+1-919-850-3392", "healthcare": "dentist", "name": "Gentle Smiles Of Raleigh", "operator": "Mihirgir Bava", "phone": "+1-919-872-1700", "website": "https://gentlesmilesofraleigh.com"}}, {"type": "node", "id": 10001772773, "lat": 35.7369384, "lon": -78.7761346, "tags": {"addr:city": "Cary", "addr:housenumber": "530", "addr:postcode": "27518", "addr:state": "NC", "addr:street": "New Waverly Place", "addr:unit": "100", "amenity": "dentist", "check_date": "2026-01-09", "email": "Nathanielleedydmd@gmail.com", "healthcare": "dentist", "healthcare:speciality": "dentist", "image": "https://a4.pbase.com/o12/92/2802892/1/172574241.iRTUAQtP.dentist-cary-nc.JPG", "name": "Nathaniel Leedy, DMD Family and Cosmetic Dentistry", "opening_hours": "Mo-Th 07:00-15:00", "operator": "Nathaniel Leedy, DMD Family and Cosmetic Dentistry", "phone": "+1 919-854-1818", "website": "https://nathanielleedydentistry.com/"}}, {"type": "node", "id": 10237954345, "lat": 35.6672322, "lon": -78.7966341, "tags": {"addr:city": "Holly Springs", "addr:housenumber": "5245", "addr:postcode": "27540", "addr:state": "NC", "addr:street": "Sunset Lake Road", "amenity": "dentist", "healthcare": "dentist", "name": "Signature Family Dentistry", "phone": "+1-919-355-1170"}}, {"type": "node", "id": 10315256492, "lat": 35.7145699, "lon": -78.6358439, "tags": {"addr:city": "Garner", "addr:housenumber": "2630", "addr:postcode": "27529", "addr:state": "NC", "addr:street": "Timber Drive", "amenity": "dentist", "healthcare": "dentist", "name": "Atlantic Family Dental", "phone": "+1-919-878-1810"}}, {"type": "node", "id": 10815295049, "lat": 35.663237, "lon": -78.6999924, "tags": {"addr:city": "Raleigh", "addr:country": "US", "addr:housenumber": "8105", "addr:postcode": "27603", "addr:state": "NC", "addr:street": "Fayetteville Road", "addr:unit": "101", "amenity": "dentist", "healthcare": "dentist", "name": "Your Raleigh Dentist", "website": "https://www.yourraleighdentist.com/"}}, {"type": "node", "id": 11146617604, "lat": 35.8269196, "lon": -78.7715138, "tags": {"addr:city": "Cary", "addr:housenumber": "2032", "addr:postcode": "27513", "addr:state": "NC", "addr:street": "Renaissance Park Place", "amenity": "dentist", "healthcare": "dentist", "name": "CarolinasDentist", "opening_hours": "Mo-Fr 07:00-19:00", "website": "https://www.carolinasdentist.com"}}, {"type": "node", "id": 11148896454, "lat": 35.8421408, "lon": -78.5777141, "tags": {"amenity": "dentist", "healthcare": "dentist", "name": "Capital Dental Care"}}, {"type": "node", "id": 11148896465, "lat": 35.8459306, "lon": -78.5794934, "tags": {"amenity": "dentist", "healthcare": "dentist"}}, {"type": "node", "id": 11331905580, "lat": 35.7922267, "lon": -78.6615058}, {"type": "node", "id": 11331905581, "lat": 35.7923015, "lon": -78.6615063}, {"type": "node", "id": 11331905582, "lat": 35.7922981, "lon": -78.6616713}, {"type": "node", "id": 11331905583, "lat": 35.7923344, "lon": -78.6616761}, {"type": "node", "id": 11331905584, "lat": 35.7923327, "lon": -78.6617593}, {"type": "node", "id": 11331905585, "lat": 35.7922229, "lon": -78.6617572}, {"type": "node", "id": 11331905587, "lat": 35.7922837, "lon": -78.6615085}, {"type": "node", "id": 11382402904, "lat": 35.8340374, "lon": -78.619899, "tags": {"addr:city": "Raleigh", "addr:housenumber": "3713", "addr:postcode": "27609", "addr:state": "NC", "addr:street": "Benson Drive", "addr:unit": "102", "amenity": "dentist", "healthcare": "dentist", "name": "The Dental Market Raleigh", "opening_hours": "Mo 08:00-17:00, Tu-Th 08:00-15:00"}}, {"type": "node", "id": 12518869613, "lat": 35.9111432, "lon": -78.7853451, "tags": {"amenity": "dentist", "healthcare": "dentist", "name": "Wells Family Dental Group"}}, {"type": "node", "id": 12748356392, "lat": 35.9055328, "lon": -78.6000383, "tags": {"amenity": "dentist", "healthcare": "dentist", "name": "Falls Pointe Dental"}}, {"type": "node", "id": 12848840848, "lat": 35.7991849, "lon": -78.5117099, "tags": {"addr:city": "Knightdale", "addr:housenumber": "304", "addr:postcode": "27545", "addr:state": "NC", "addr:street": "Hinton Oaks Boulevard", "amenity": "dentist", "healthcare": "dentist", "name": "Island Smiles Pediatric Dentistry"}}, {"type": "node", "id": 12848945956, "lat": 35.6577119, "lon": -78.4819041, "tags": {"addr:city": "Clayton", "addr:housenumber": "12071", "addr:postcode": "27520", "addr:state": "NC", "addr:street": "Clayton Boulevard", "amenity": "dentist", "healthcare": "dentist", "name": "Dental Care on Fernwood Drive", "phone": "+19843100020"}}, {"type": "node", "id": 13004700419, "lat": 35.736337, "lon": -78.6516363, "tags": {"addr:city": "Raleigh", "addr:housenumber": "3212", "addr:postcode": "27603", "addr:state": "NC", "addr:street": "South Wilmington Street", "amenity": "dentist", "healthcare": "dentist", "name": "Smile Starter Raleigh", "opening_hours": "Mo-Fr 08:00-17:00", "phone": "+19197733002", "website": "https://www.smilestarterdental.com/"}}, {"type": "node", "id": 13173778392, "lat": 35.901176, "lon": -78.6782435, "tags": {"addr:city": "Raleigh", "addr:housenumber": "10931", "addr:postcode": "27615", "addr:state": "NC", "addr:street": "Strickland Road", "addr:unit": "101", "amenity": "dentist", "healthcare": "dentist", "healthcare:speciality": "dentist", "name": "Tar Heel Periodontics and Implant Dentistry"}}, {"type": "node", "id": 13173817186, "lat": 35.9005119, "lon": -78.6792877, "tags": {"addr:city": "Raleigh", "addr:housenumber": "8321", "addr:postcode": "27615", "addr:state": "NC", "addr:street": "Bandford Way", "addr:unit": "101", "amenity": "dentist", "healthcare": "dentist", "healthcare:speciality": "dentist", "name": "Jenny Su DMD Family and Cosmetic Dentistry"}}, {"type": "node", "id": 13443031895, "lat": 35.7373245, "lon": -78.7759572, "tags": {"addr:city": "Cary", "addr:housenumber": "540", "addr:postcode": "27518", "addr:state": "NC", "addr:street": "New Waverly Place", "addr:unit": "301", "amenity": "dentist", "check_date": "2026-01-09", "healthcare": "dentist", "name": "New Waverly Place Dentistry", "opening_hours": "Mo 08:00-16:00; Tu-Th 07:00-15:00; Fr 07:00-13:00", "website": "https://newwaverlyplacedentistry.com/"}}, {"type": "node", "id": 13443061042, "lat": 35.7376625, "lon": -78.7757268, "tags": {"addr:city": "Cary", "addr:housenumber": "540", "addr:postcode": "27518", "addr:state": "NC", "addr:street": "New Waverly Place", "addr:unit": "110", "amenity": "dentist", "check_date": "2026-01-09", "healthcare": "dentist", "healthcare:speciality": "orthodontics", "name": "Bernstein Orthodontics", "opening_hours": "Mo-Th 08:00-17:00", "website": "https://bernsteinortho.com/"}}, {"type": "node", "id": 13443061043, "lat": 35.7375493, "lon": -78.7757995, "tags": {"addr:city": "Cary", "addr:housenumber": "540", "addr:postcode": "27518", "addr:state": "NC", "addr:street": "New Waverly Place", "addr:unit": "100", "amenity": "dentist", "check_date": "2026-01-09", "healthcare": "dentist", "name": "South Wake Oral Surgery and Dental Implants", "opening_hours": "Mo 08:30-16:00; We 08:30-16:00", "website": "https://www.southwakeoralsurgery.com/"}}, {"type": "node", "id": 13443072700, "lat": 35.7371178, "lon": -78.7761129, "tags": {"addr:city": "Cary", "addr:housenumber": "530", "addr:postcode": "27518", "addr:state": "NC", "addr:street": "New Waverly Place", "addr:unit": "302", "amenity": "dentist", "check_date": "2026-01-09", "healthcare": "dentist", "name": "South Cary Dental", "opening_hours": "Mo-Th 08:00-16:00; Fr 07:00-16:00", "phone": "+19193736346", "website": "https://southcarydental.com/"}}, {"type": "way", "id": 32075734, "nodes": [360064312, 360064317, 360064326, 360064334, 360064312], "tags": {"amenity": "dentist", "building": "yes", "healthcare": "dentist", "name": "Cary Medical and Professional Center"}}, {"type": "way", "id": 47681160, "nodes": [606648960, 606648964, 606648968, 6880270393, 606648984, 6880270388, 606648990, 6880270385, 606648999, 6880266680, 606649014, 606649018, 606648960], "tags": {"addr:city": "Raleigh", "addr:housenumber": "7509", "addr:postcode": "27615", "addr:state": "NC", "addr:street": "Six Forks Road", "amenity": "dentist", "building": "yes", "building:use": "commercial", "healthcare": "dentist", "name": "Drs Parker and McDaniel", "source": "WakeGIS"}}, {"type": "way", "id": 47681329, "nodes": [606658894, 606658899, 606658910, 606658922, 606658930, 606658935, 606658940, 606658946, 606658950, 606658960, 606658970, 606658974, 606658894], "tags": {"addr:city": "Raleigh", "addr:housenumber": "4106", "addr:postcode": "27609", "addr:street": "Wake Forest Road", "amenity": "dentist", "building": "yes", "building:use": "commercial", "healthcare": "dentist", "name": "Dr. Lane & Associates Family Dentistry", "source": "WakeGIS"}}, {"type": "way", "id": 47828778, "nodes": [608343752, 608343760, 608343762, 608343768, 608343776, 608343778, 608343781, 608343783, 608343796, 608343752], "tags": {"addr:city": "Raleigh", "addr:housenumber": "8961", "addr:postcode": "27615", "addr:state": "NC", "addr:street": "Harvest Oaks Drive", "amenity": "dentist", "building": "yes", "building:use": "residential", "healthcare": "dentist", "healthcare:speciality": "dentistry", "name": "Lane & Associates Family Dentistry", "opening_hours": "Mo 08:00-17:00; Tu-Fr 07:00-16:00", "source": "WakeGIS", "website": "https://lanedds.com/"}}, {"type": "way", "id": 47880221, "nodes": [608904037, 608904038, 608904040, 608904041, 608904043, 608904045, 608904047, 608904048, 608904037], "tags": {"addr:city": "Raleigh", "addr:housenumber": "8200", "addr:postcode": "27613", "addr:state": "NC", "addr:street": "Creedmoor Road", "amenity": "dentist", "building": "yes", "building:use": "commercial", "healthcare": "dentist", "name": "Raleigh Orthodontics", "source": "WakeGIS"}}, {"type": "way", "id": 47968750, "nodes": [610143250, 610143251, 610143252, 610143254, 610143255, 610143256, 610143259, 610143250], "tags": {"addr:city": "Raleigh", "addr:housenumber": "7371", "addr:postcode": "27615", "addr:state": "NC", "addr:street": "Six Forks Road", "amenity": "dentist", "building": "yes", "building:use": "commercial", "healthcare": "dentist", "name": "Village Dental", "source": "WakeGIS"}}, {"type": "way", "id": 221217996, "nodes": [2302700724, 2302700725, 2302700726, 2302700728, 2302700729, 2302700730, 2302700724], "tags": {"addr:city": "Garner", "addr:housenumber": "100", "addr:postcode": "27529", "addr:state": "NC", "addr:street": "Health Park Drive", "amenity": "dentist", "building": "yes", "healthcare": "dentist", "name": "Venet Family Dentistry", "phone": "+1-919-329-5556"}}, {"type": "way", "id": 448214260, "nodes": [4452493111, 4452493112, 4452493113, 4452493114, 4452493115, 4452493116, 4452493117, 4452493118, 6446457591, 4452493111], "tags": {"addr:city": "Raleigh", "addr:housenumber": "7401", "addr:postcode": "27613", "addr:state": "NC", "addr:street": "Creedmoor Road", "amenity": "dentist", "building": "yes", "healthcare": "dentist", "name": "Wake Orthodontics and Pediatric Dentistry"}}, {"type": "way", "id": 677169624, "nodes": [6340711138, 6340711137, 6340711136, 6340711135, 6504384516, 6340711134, 6340711133, 6340711138], "tags": {"addr:city": "Raleigh", "addr:housenumber": "6004", "addr:postcode": "27612", "addr:state": "NC", "addr:street": "Creedmoor Road", "amenity": "dentist", "building": "yes", "healthcare": "dentist", "name": "Garden Gate Dental", "website": "https://www.gardengatedental.com/"}}, {"type": "way", "id": 682165235, "nodes": [6388255283, 6388255284, 6388255285, 6388255286, 6388255287, 6388255288, 6388255289, 6388255290, 6388255283], "tags": {"addr:city": "Raleigh", "addr:housenumber": "8116", "addr:postcode": "27613", "addr:state": "NC", "addr:street": "Creedmoor Road", "amenity": "dentist", "building": "yes", "healthcare": "dentist", "name": "Lifetime Family Dental"}}, {"type": "way", "id": 765865739, "nodes": [7152839182, 7152839183, 7152839184, 7152840185, 7152840186, 7152840187, 7152839182], "tags": {"addr:city": "Garner", "addr:housenumber": "801", "addr:postcode": "27529", "addr:state": "NC", "addr:street": "US-70", "amenity": "dentist", "building": "yes", "healthcare": "dentist", "name": "Bright Smiles Family Dentistry", "phone": "+19196614077"}}, {"type": "way", "id": 766056028, "nodes": [7154631769, 7154631770, 7154631771, 7154631772, 7154631773, 7154631774, 7154631769], "tags": {"addr:city": "Garner", "addr:housenumber": "1018", "addr:postcode": "27529", "addr:state": "NC", "addr:street": "US-70", "amenity": "dentist", "building": "yes", "healthcare": "dentist", "name": "Red Carpet Dental Ceramics", "phone": "+19197728281"}}, {"type": "way", "id": 923584297, "nodes": [8573339852, 5519569307, 8573339856, 8573339854, 8573339855, 8573339852], "tags": {"addr:city": "Raleigh", "addr:housenumber": "2720", "addr:postcode": "27603", "addr:state": "NC", "addr:street": "Lake Wheeler Road", "addr:unit": "125", "amenity": "dentist", "building": "commercial", "healthcare": "dentist", "name": "Tryon Family Dentistry", "opening_hours": "Mo,Tu,Th,Fr 08:00-17:00"}}, {"type": "way", "id": 1221857227, "nodes": [11331905580, 11331905587, 11331905581, 11331905582, 11331905583, 11331905584, 11331905585, 11331905580], "tags": {"addr:city": "Raleigh", "addr:housenumber": "2104", "addr:postcode": "27605", "addr:state": "NC", "addr:street": "Smallwood Drive", "amenity": "dentist", "building": "yes", "healthcare": "dentist", "name": "Cameron Village Dentistry", "opening_hours": "Mo-We 08:00-16:00, Th 08:00-14:00, Fr 08:00-16:00", "website": "https://www.cameronvillagedentistry.com"}}]}