{"version": 0.6, "generator": "Overpass API 0.7.62.8 e802775f", "osm3s": {"timestamp_osm_base": "2026-01-12T22:56:30Z", "copyright": "The data included in this document is from www.openstreetmap.org. The data is made available under ODbL."}, "elements": [{"type": "node", "id": 608905731, "lat": 35.7981371, "lon": -78.5891058}, {"type": "node", "id": 608905732, "lat": 35.7981257, "lon": -78.5890905}, {"type": "node", "id": 608905734, "lat": 35.7980692, "lon": -78.5890112}, {"type": "node", "id": 608905736, "lat": 35.7981318, "lon": -78.5889451}, {"type": "node", "id": 608905737, "lat": 35.798063, "lon": -78.5888504}, {"type": "node", "id": 608905739, "lat": 35.7979993, "lon": -78.5889137}, {"type": "node", "id": 608905740, "lat": 35.7979439, "lon": -78.5888366}, {"type": "node", "id": 608905744, "lat": 35.7975328, "lon": -78.5892812}, {"type": "node", "id": 608905747, "lat": 35.7977236, "lon": -78.5895468}, {"type": "node", "id": 608905748, "lat": 35.7977745, "lon": -78.5894918}, {"type": "node", "id": 608905749, "lat": 35.7977654, "lon": -78.5894791}, {"type": "node", "id": 608905751, "lat": 35.7979196, "lon": -78.5893124}, {"type": "node", "id": 608905752, "lat": 35.7979283, "lon": -78.5893245}, {"type": "node", "id": 608905753, "lat": 35.7979811, "lon": -78.5892675}, {"type": "node", "id": 608905754, "lat": 35.7979728, "lon": -78.5892559}, {"type": "node", "id": 608905755, "lat": 35.7980676, "lon": -78.5891533}, {"type": "node", "id": 608905756, "lat": 35.7981185, "lon": -78.58922}, {"type": "node", "id": 608905757, "lat": 35.7981759, "lon": -78.5891576}, {"type": "node", "id": 609341761, "lat": 35.8163349, "lon": -78.6220556}, {"type": "node", "id": 609341770, "lat": 35.8164, "lon": -78.6222613}, {"type": "node", "id": 609341776, "lat": 35.8165787, "lon": -78.6221753}, {"type": "node", "id": 609341779, "lat": 35.8165589, "lon": -78.6221128}, {"type": "node", "id": 609341781, "lat": 35.8165144, "lon": -78.6219692}, {"type": "node", "id": 609632195, "lat": 35.8160565, "lon": -78.620115}, {"type": "node", "id": 609632198, "lat": 35.8160046, "lon": -78.6201402}, {"type": "node", "id": 609632200, "lat": 35.816018, "lon": -78.6201822}, {"type": "node", "id": 609632203, "lat": 35.8159434, "lon": -78.6202185}, {"type": "node", "id": 609632205, "lat": 35.8159709, "lon": -78.6203021}, {"type": "node", "id": 609632208, "lat": 35.8159795, "lon": -78.6203283}, {"type": "node", "id": 609632210, "lat": 35.8160473, "lon": -78.6205344}, {"type": "node", "id": 609632212, "lat": 35.8160489, "lon": -78.6205392}, {"type": "node", "id": 609632215, "lat": 35.8160513, "lon": -78.6205462}, {"type": "node", "id": 609632218, "lat": 35.8160901, "lon": -78.6206591}, {"type": "node", "id": 609632220, "lat": 35.8163311, "lon": -78.6205405}, {"type": "node", "id": 609632223, "lat": 35.816331, "lon": -78.6205379}, {"type": "node", "id": 609632226, "lat": 35.8163275, "lon": -78.6205272}, {"type": "node", "id": 609632229, "lat": 35.8163255, "lon": -78.6205209}, {"type": "node", "id": 609632233, "lat": 35.8161764, "lon": -78.6200568}, {"type": "node", "id": 609632235, "lat": 35.8161522, "lon": -78.6200686}, {"type": "node", "id": 609632238, "lat": 35.8161029, "lon": -78.6200925}, {"type": "node", "id": 2072410558, "lat": 35.778896, "lon": -78.6449195, "tags": {"addr:city": "Raleigh", "addr:country": "US", "addr:housenumber": "119", "addr:postcode": "27601", "addr:state": "NC", "addr:street": "South Harrington Street", "amenity": "nightclub", "lgbtq": "primary", "name": "View Bar & Game Room", "operator": "Legends Nightclub", "phone": "+19195011456", "smoking": "outside", "website": "https://legends-club.com/"}}, {"type": "node", "id": 3304914114, "lat": 35.7770465, "lon": -78.6397244}, {"type": "node", "id": 3304914115, "lat": 35.7770516, "lon": -78.6399124}, {"type": "node", "id": 3304914118, "lat": 35.7772299, "lon": -78.6397169}, {"type": "node", "id": 3304914119, "lat": 35.777235, "lon": -78.6399049}, {"type": "node", "id": 3305289276, "lat": 35.7772323, "lon": -78.6398072}, {"type": "node", "id": 3305510898, "lat": 35.7759126, "lon": -78.645688, "tags": {"amenity": "nightclub", "name": "Circa 1888", "website": "http://raleighwarehousedistrict.com/the-whiskey-room/"}}, {"type": "node", "id": 4239998147, "lat": 35.816565, "lon": -78.6218611}, {"type": "node", "id": 4239998150, "lat": 35.8166059, "lon": -78.6220901}, {"type": "node", "id": 4239998343, "lat": 35.8164914, "lon": -78.6218965}, {"type": "node", "id": 4239998359, "lat": 35.8165767, "lon": -78.621898}, {"type": "node", "id": 4239998383, "lat": 35.8165493, "lon": -78.6219111}, {"type": "node", "id": 8408967707, "lat": 35.7786224, "lon": -78.6448024, "tags": {"addr:city": "Raleigh", "addr:housenumber": "330", "addr:postcode": "27601", "addr:state": "NC", "addr:street": "West Hargett Street", "amenity": "nightclub", "lgbtq": "primary", "name": "Legends Nightclub", "phone": "+19195011456", "smoking": "outside", "website": "https://legends-club.com/"}}, {"type": "node", "id": 9057610704, "lat": 35.788177, "lon": -78.6691632, "tags": {"addr:city": "Raleigh", "addr:housenumber": "2526", "addr:postcode": "27607", "addr:state": "NC", "addr:street": "Hillsborough Street", "addr:unit": "301", "amenity": "nightclub", "lgbtq": "primary", "name": "440 Nightclub"}}, {"type": "node", "id": 9147324740, "lat": 35.7751916, "lon": -78.6398998, "tags": {"addr:city": "Raleigh", "addr:housenumber": "415", "addr:postcode": "27601", "addr:state": "NC", "addr:street": "S Salisbury Street", "amenity": "nightclub", "lgbtq": "primary", "name": "Ruby Deluxe"}}, {"type": "node", "id": 9391093555, "lat": 35.9030752, "lon": -78.77105, "tags": {"amenity": "nightclub", "name": "Capital Cabaret"}}, {"type": "node", "id": 10830951557, "lat": 35.8476968, "lon": -78.6006119, "tags": {"addr:city": "Raleigh", "addr:housenumber": "2200", "addr:postcode": "27604", "addr:state": "NC", "addr:street": "East Millbrook Road", "amenity": "nightclub", "name": "Checkmate Lounge"}}, {"type": "node", "id": 11110240989, "lat": 35.8295114, "lon": -78.5856309, "tags": {"addr:housenumber": "3601", "addr:street": "Capital Boulevard", "addr:unit": "103", "amenity": "nightclub", "email": "info@farotagenationlounge.com", "name": "Farotage Nation Lounge", "opening_hours": "\"by event\"", "phone": "+1-919-720-2169", "smoking": "yes", "website": "https://farotagenationlounge.com/", "wheelchair": "no"}}, {"type": "node", "id": 13288434402, "lat": 35.7618129, "lon": -78.6579789, "tags": {"amenity": "nightclub", "name": "Chapel of Bones", "website": "https://chapelofbones.com/"}}, {"type": "way", "id": 47880325, "nodes": [608905731, 608905732, 608905734, 608905736, 608905737, 608905739, 608905740, 608905744, 608905747, 608905748, 608905749, 608905751, 608905752, 608905753, 608905754, 608905755, 608905756, 608905757, 608905731], "tags": {"addr:city": "Raleigh", "addr:housenumber": "3210", "addr:postcode": "27604", "addr:state": "NC", "addr:street": "Yonkers Road", "amenity": "nightclub", "building": "yes", "building:use": "commercial", "name": "Rick\u2019s Cabaret Raleigh", "source": "WakeGIS"}}, {"type": "way", "id": 47917403, "nodes": [609341761, 609341770, 609341776, 609341779, 4239998150, 4239998383, 4239998359, 4239998147, 4239998343, 609341781, 609341761], "tags": {"addr:city": "Raleigh", "addr:country": "US", "addr:housenumber": "605", "addr:postcode": "27609-7807", "addr:state": "NC", "addr:street": "Creekside Drive", "amenity": "nightclub", "building": "yes", "building:use": "commercial", "name": "Loafers Beach Club", "source": "WakeGIS"}}, {"type": "way", "id": 47933430, "nodes": [609632195, 609632198, 609632200, 609632203, 609632205, 609632208, 609632210, 609632212, 609632215, 609632218, 609632220, 609632223, 609632226, 609632229, 609632233, 609632235, 609632238, 609632195], "tags": {"addr:city": "Raleigh", "addr:housenumber": "2820", "addr:postcode": "27609", "addr:street": "Industrial Drive", "amenity": "nightclub", "building": "yes", "building:use": "commercial", "name": "The Ritz", "source": "WakeGIS"}}, {"type": "way", "id": 323712277, "nodes": [3304914119, 3305289276, 3304914118, 3304914114, 3304914115, 3304914119], "tags": {"addr:city": "Raleigh", "addr:country": "US", "addr:housenumber": "14", "addr:state": "NC", "addr:street": "West Martin Street", "amenity": "nightclub", "building": "yes", "building:use": "commercial", "name": "Kings", "phone": "+1 919-833-1091", "source": "WakeGIS", "source:geometry": "Bing", "website": "https://www.kingsraleigh.com/"}}]}