{"version": 0.6, "generator": "Overpass API 0.7.62.8 e802775f", "osm3s": {"timestamp_osm_base": "2026-01-12T21:51:36Z", "copyright": "The data included in this document is from www.openstreetmap.org. The data is made available under ODbL."}, "elements": [{"type": "node", "id": 357788912, "lat": 35.2373836, "lon": -77.1374512, "tags": {"amenity": "school", "ele": "3", "gnis:feature_id": "997001", "name": "West Craven High School"}}, {"type": "node", "id": 357788914, "lat": 35.2173833, "lon": -77.1510629, "tags": {"amenity": "school", "ele": "5", "gnis:feature_id": "997002", "name": "West Craven Junior High School"}}, {"type": "node", "id": 357797207, "lat": 35.3148856, "lon": -77.5141328, "tags": {"amenity": "school", "ele": "22", "gnis:feature_id": "1002667", "name": "Contentnea Elementary School"}}, {"type": "node", "id": 357797208, "lat": 35.2004388, "lon": -77.2041206, "tags": {"amenity": "school", "ele": "11", "gnis:feature_id": "1002670", "name": "Jasper Elementary School"}}, {"type": "node", "id": 357797211, "lat": 35.2932182, "lon": -77.3405153, "tags": {"amenity": "school", "ele": "13", "gnis:feature_id": "1002671", "name": "Fort Barnwell Elementary School"}}, {"type": "node", "id": 357797696, "lat": 35.0671045, "lon": -77.347459, "tags": {"amenity": "school", "ele": "8", "gnis:feature_id": "1003701", "name": "Jones Junior High School"}}, {"type": "node", "id": 357797699, "lat": 35.0356197, "lon": -77.339302}, {"type": "node", "id": 357799220, "lat": 35.0048837, "lon": -77.5094093, "tags": {"amenity": "school", "ele": "17", "gnis:feature_id": "1006662", "name": "Comfort Elementary School"}}, {"type": "node", "id": 357799221, "lat": 35.0654379, "lon": -77.3469034, "tags": {"amenity": "school", "ele": "8", "gnis:feature_id": "1006663", "name": "Trenton Elementary School"}}, {"type": "node", "id": 357799884, "lat": 35.3723851, "lon": -77.4316306, "tags": {"amenity": "school", "ele": "10", "gnis:feature_id": "1007463", "name": "Grifton School"}}, {"type": "node", "id": 357800942, "lat": 35.0684928, "lon": -77.0177246, "tags": {"amenity": "school", "ele": "8", "gnis:feature_id": "1009612", "name": "Brinson Memorial School"}}, {"type": "node", "id": 357803492, "lat": 35.0790482, "lon": -77.16023, "tags": {"amenity": "school", "ele": "9", "gnis:feature_id": "1015056", "name": "Rocky Run School"}}, {"type": "node", "id": 357805173, "lat": 35.0837199, "lon": -77.0687335, "tags": {"addr:city": "New Bern", "addr:housenumber": "3007", "addr:postcode": "28562", "addr:street": "Country Club Circle", "amenity": "school", "gnis:feature_id": "1017448", "name": "Saint Paul Catholic School", "phone": "+1-252-633-0100", "website": "https://www.stpaulcs.org/"}}, {"type": "node", "id": 357805287, "lat": 35.0038056, "lon": -77.2247039}, {"type": "node", "id": 357810022, "lat": 35.3398854, "lon": -77.513022, "tags": {"amenity": "school", "ele": "23", "gnis:feature_id": "1024292", "name": "Savannah Junior High School"}}, {"type": "node", "id": 446251402, "lat": 35.0911584, "lon": -77.1309918}, {"type": "node", "id": 446251403, "lat": 35.0914103, "lon": -77.1295433}, {"type": "node", "id": 446251404, "lat": 35.0913418, "lon": -77.1275101}, {"type": "node", "id": 446251405, "lat": 35.0911129, "lon": -77.1262566}, {"type": "node", "id": 2681960514, "lat": 35.1004314, "lon": -77.1154441, "tags": {"amenity": "school", "name": "New Bern High School", "wikidata": "Q7005513", "wikipedia": "en:New Bern High School"}}, {"type": "node", "id": 2681961223, "lat": 35.0927067, "lon": -77.1314104}, {"type": "node", "id": 2778307631, "lat": 35.0273228, "lon": -77.0214338, "tags": {"amenity": "school", "name": "Creekside Elementary School"}}, {"type": "node", "id": 3203404923, "lat": 35.0845183, "lon": -77.083846}, {"type": "node", "id": 3907115465, "lat": 35.1087277, "lon": -77.0437368, "tags": {"amenity": "school", "name": "Tabernacle Preschool"}}, {"type": "node", "id": 4685725491, "lat": 35.1322987, "lon": -77.0709041, "tags": {"addr:city": "New Bern", "addr:housenumber": "2811", "addr:postcode": "28560", "addr:state": "NC", "addr:street": "Oaks Road", "amenity": "school", "name": "Oaks Road Elementary School"}}, {"type": "node", "id": 5632876682, "lat": 35.1180352, "lon": -77.0983805, "tags": {"addr:city": "New Bern", "addr:housenumber": "3127", "addr:postcode": "28562", "addr:state": "NC", "addr:street": "Elizabeth Avenue", "amenity": "school", "name": "HJ MacDonald Middle School", "phone": "+1-252-514-6450"}}, {"type": "node", "id": 5636960226, "lat": 35.0668833, "lon": -77.0156064}, {"type": "node", "id": 5636960231, "lat": 35.0675063, "lon": -77.0150227}, {"type": "node", "id": 5636960232, "lat": 35.068523, "lon": -77.0153682}, {"type": "node", "id": 5636960233, "lat": 35.0681828, "lon": -77.0156158}, {"type": "node", "id": 5636960234, "lat": 35.0679994, "lon": -77.0159193}, {"type": "node", "id": 5636960235, "lat": 35.0680758, "lon": -77.0163069}, {"type": "node", "id": 5636960236, "lat": 35.0683625, "lon": -77.016433}, {"type": "node", "id": 5636960237, "lat": 35.0686377, "lon": -77.0164237}, {"type": "node", "id": 5636960239, "lat": 35.0692225, "lon": -77.0168533}, {"type": "node", "id": 5636960240, "lat": 35.0698837, "lon": -77.0170027}, {"type": "node", "id": 8077982216, "lat": 35.0058489, "lon": -77.226005}, {"type": "node", "id": 8077984817, "lat": 35.0057344, "lon": -77.2267483}, {"type": "node", "id": 8077984873, "lat": 35.0052183, "lon": -77.2239975}, {"type": "node", "id": 8077984874, "lat": 35.005541, "lon": -77.2261807}, {"type": "node", "id": 8077984875, "lat": 35.004612, "lon": -77.2273175}, {"type": "node", "id": 10055017402, "lat": 35.0341817, "lon": -77.3404207}, {"type": "node", "id": 10055017403, "lat": 35.0334572, "lon": -77.3388148}, {"type": "node", "id": 10055017404, "lat": 35.0330194, "lon": -77.3365273}, {"type": "node", "id": 10055017405, "lat": 35.0323857, "lon": -77.3367558}, {"type": "node", "id": 10055017406, "lat": 35.031867, "lon": -77.3357334}, {"type": "node", "id": 10055017407, "lat": 35.0322807, "lon": -77.3353725}, {"type": "node", "id": 10055017408, "lat": 35.0317192, "lon": -77.3345866}, {"type": "node", "id": 10055017409, "lat": 35.0315649, "lon": -77.3345585}, {"type": "node", "id": 10055017410, "lat": 35.0312957, "lon": -77.3335}, {"type": "node", "id": 10055017411, "lat": 35.0345986, "lon": -77.331475}, {"type": "node", "id": 10253196010, "lat": 35.069931, "lon": -77.0171738}, {"type": "node", "id": 10253196011, "lat": 35.0690266, "lon": -77.0165193}, {"type": "node", "id": 10253196012, "lat": 35.0665678, "lon": -77.0163423}, {"type": "node", "id": 10253196013, "lat": 35.066278, "lon": -77.0169217}, {"type": "node", "id": 10253196014, "lat": 35.0685172, "lon": -77.0191479}, {"type": "node", "id": 10253200242, "lat": 35.0667695, "lon": -77.0158718}, {"type": "node", "id": 11346407697, "lat": 35.3092536, "lon": -77.1459605}, {"type": "node", "id": 11346407698, "lat": 35.3097496, "lon": -77.1475477}, {"type": "node", "id": 11346407699, "lat": 35.3083691, "lon": -77.1462445}, {"type": "node", "id": 11346407700, "lat": 35.3078987, "lon": -77.145029}, {"type": "node", "id": 11346407701, "lat": 35.306394, "lon": -77.1445226}, {"type": "node", "id": 11346407702, "lat": 35.3061707, "lon": -77.1450912}, {"type": "node", "id": 11346407703, "lat": 35.3059912, "lon": -77.145456}, {"type": "node", "id": 11346407704, "lat": 35.3057548, "lon": -77.1457027}, {"type": "node", "id": 11346407705, "lat": 35.3054921, "lon": -77.1459066}, {"type": "node", "id": 11346407706, "lat": 35.3067398, "lon": -77.1489267}, {"type": "node", "id": 11351398656, "lat": 35.3058859, "lon": -77.1468598}, {"type": "node", "id": 11351398657, "lat": 35.3054998, "lon": -77.1459252}, {"type": "node", "id": 11478833225, "lat": 35.0842432, "lon": -77.0839581}, {"type": "node", "id": 11478833226, "lat": 35.0839566, "lon": -77.0840002}, {"type": "node", "id": 11478833227, "lat": 35.082321, "lon": -77.0840095}, {"type": "node", "id": 11478833228, "lat": 35.0822866, "lon": -77.0820714}, {"type": "node", "id": 11478833229, "lat": 35.0839145, "lon": -77.0818099}, {"type": "node", "id": 11478908242, "lat": 35.0910357, "lon": -77.1314225}, {"type": "node", "id": 11478908243, "lat": 35.0914839, "lon": -77.1262968}, {"type": "node", "id": 11478908244, "lat": 35.0931958, "lon": -77.1272028}, {"type": "node", "id": 11478908245, "lat": 35.0942237, "lon": -77.1272821}, {"type": "node", "id": 11478908246, "lat": 35.0940403, "lon": -77.1300468}, {"type": "node", "id": 11478908247, "lat": 35.0928366, "lon": -77.1301122}, {"type": "node", "id": 11766670108, "lat": 35.004494, "lon": -77.2243497}, {"type": "node", "id": 11784090089, "lat": 35.0047034, "lon": -77.2272712}, {"type": "node", "id": 12175269485, "lat": 35.1550563, "lon": -77.0442804}, {"type": "node", "id": 12175269486, "lat": 35.1541731, "lon": -77.0440682}, {"type": "node", "id": 12175269487, "lat": 35.1530729, "lon": -77.0424308}, {"type": "node", "id": 12175269488, "lat": 35.1528715, "lon": -77.0422565}, {"type": "node", "id": 12175269489, "lat": 35.1524687, "lon": -77.0414226}, {"type": "node", "id": 12175269490, "lat": 35.15298, "lon": -77.0409071}, {"type": "node", "id": 12175269491, "lat": 35.1521402, "lon": -77.0394479}, {"type": "node", "id": 12175269492, "lat": 35.1524532, "lon": -77.0390234}, {"type": "node", "id": 12175269493, "lat": 35.1525523, "lon": -77.0391182}, {"type": "node", "id": 12175269494, "lat": 35.1559549, "lon": -77.0419912}, {"type": "way", "id": 866651697, "nodes": [357805287, 8077984875, 11784090089, 8077984817, 8077984874, 8077982216, 8077984873, 11766670108, 357805287], "tags": {"amenity": "school", "ele": "7", "gnis:feature_id": "1017586", "name": "Pollocksville Elementary School", "website": "https://ces.jonesnc.net/o/pes"}}, {"type": "way", "id": 1098145695, "nodes": [357797699, 10055017402, 10055017403, 10055017404, 10055017405, 10055017406, 10055017407, 10055017408, 10055017409, 10055017410, 10055017411, 357797699], "tags": {"amenity": "school", "ele": "13", "gnis:feature_id": "1003703", "name": "Jones High School"}}, {"type": "way", "id": 1120990878, "nodes": [10253196010, 5636960240, 5636960239, 10253196011, 5636960237, 5636960236, 5636960235, 5636960234, 5636960233, 5636960232, 5636960231, 5636960226, 10253200242, 10253196012, 10253196013, 10253196014, 10253196010], "tags": {"addr:city": "New Bern", "addr:postcode": "28560", "addr:state": "NC", "addr:street": "Old Cherry Point Road", "amenity": "school", "name": "Brinson Memorial Elementary"}}, {"type": "way", "id": 1223213142, "nodes": [11346407698, 11346407697, 11346407699, 11346407700, 11346407701, 11346407702, 11346407703, 11346407704, 11346407705, 11351398657, 11351398656, 11346407706, 11346407698], "tags": {"addr:city": "Vanceboro", "addr:housenumber": "2000", "addr:postcode": "28586", "addr:state": "NC", "addr:street": "Farmlife Avenue", "amenity": "school", "ele": "9", "gnis:feature_id": "1003689", "name": "Farm Life Elementary School"}}, {"type": "way", "id": 1236293445, "nodes": [3203404923, 11478833225, 11478833226, 11478833227, 11478833228, 11478833229, 3203404923], "tags": {"addr:city": "Trent Woods", "addr:housenumber": "3712", "addr:postcode": "28562", "addr:state": "NC", "addr:street": "Canterbury Road", "amenity": "school", "landuse": "education", "name": "Bangert Elementary School"}}, {"type": "way", "id": 1236297204, "nodes": [2681961223, 11478908242, 446251402, 446251403, 446251404, 446251405, 11478908243, 11478908244, 11478908245, 11478908246, 11478908247, 2681961223], "tags": {"amenity": "school"}}, {"type": "way", "id": 1315370188, "nodes": [12175269485, 12175269486, 12175269487, 12175269488, 12175269489, 12175269490, 12175269491, 12175269492, 12175269493, 12175269494, 12175269485], "tags": {"amenity": "school"}}]}